Index,Name,Address,latitude,longtitude,Phone,website,ranking,Open Hours
1,Dylan Bradshaw Hair Salon,"56 William St S, Dublin 2, D02 Y897",53.3418767,-6.262522799999999,,,4.9,"['9a.m.–9p.m.', '9a.m.–9p.m.', '9a.m.–6p.m.', '9a.m.–6p.m.', 'Closed', 'Closed', '9a.m.–6p.m.']"
2,Moyo Hair & Beauty Aveda Exclusive Salon,"6 Charlotte Way, Saint Kevin's, Dublin, D02 H342",53.33349270000001,-6.264392,,,4.9,"['10a.m.–8p.m.', '9a.m.–8p.m.', '9a.m.–8p.m.', '9a.m.–5p.m.', '10a.m.–6p.m.', 'Closed', '9a.m.–8p.m.']"
3,Robert Chambers Hair Salon,"69 Grafton Street, Dublin 2, D02 HC04",53.34107179999999,-6.2607051,,,4.9,"['9:30a.m.–6p.m.', '9:30a.m.–8:30p.m.', '9:30a.m.–7p.m.', '9:15a.m.–5:30p.m.', 'Closed', '9:30a.m.–6p.m.', '9:30a.m.–6p.m.']"
4,DaveyDavey Hair Salon,"24 Stephen Street Lower, Dublin 2",53.3412461,-6.2647717,,,4.9,"['9a.m.–6p.m.', '9a.m.–8p.m.', '9a.m.–7p.m.', '9a.m.–6p.m.', 'Closed', '9a.m.–6p.m.', '9a.m.–6p.m.']"
5,Zeba Hairdressing Dublin,"60 William St S, Dublin 2, D02 CH28",53.3425436,-6.2621028,,,4.7,"['9a.m.–7p.m.', '9a.m.–7:15p.m.', '9a.m.–6p.m.', '9a.m.–5p.m.', 'Closed', '9a.m.–5:30p.m.', '9a.m.–5:30p.m.']"
6,Lunatic Fringe at Robert Chambers,"25 Liffey St. Upper, North City, Dublin 1, D01 T2R7",53.3486158,-6.264299299999999,,,4.8,"['9:30a.m.–6p.m.', '9:30a.m.–8:30p.m.', '9:30a.m.–7p.m.', '9a.m.–5:30p.m.', 'Closed', 'Closed', '9:30a.m.–6p.m.']"
7,Lunatic Fringe @ Robert Chambers,"69 Grafton Street, Dublin 2, D02 HC04",53.34107179999999,-6.2607051,,,4.9,"['9:30a.m.–6p.m.', '9:30a.m.–8:30p.m.', '9:30a.m.–7p.m.', '9a.m.–5:30p.m.', 'Closed', '9:30a.m.–6p.m.', '9:30a.m.–6p.m.']"
8,Brown Sugar,"50 William St S, Dublin 2, D02 DE93",53.3415338,-6.2627596,(01) 616 9967,brownsugar.ie,4.7,"['9a.m.–7:30p.m.', '9a.m.–8p.m.', '9a.m.–6p.m.', '9a.m.–5p.m.', 'Closed', '9a.m.–5:30p.m.', '9a.m.–5:30p.m.']"
9,Charming Hair and Beauty Salon,"D02 ED72, County Dublin, Dublin, IE Ground floor and basement 3 Burgh Quay",53.3469979,-6.257962999999999,,,4.2,[]
10,Aviary Lane,"24 Anne St S, Dublin 2",53.34097939999999,-6.2591131,,,4.8,"['10a.m.–6p.m.', '10a.m.–8p.m.', '10a.m.–8p.m.', '9a.m.–6p.m.', 'Closed', 'Closed', '10a.m.–6p.m.']"
11,Trim Hair Salon,"45 Shelbourne Rd, Dublin 4, D04 Y4A4",53.3304712,-6.2319694,,,4.9,"['7:30a.m.–7:30p.m.', '7:30a.m.–7:30p.m.', '7:30a.m.–7:30p.m.', '9a.m.–6p.m.', '9a.m.–6p.m.', '7:30a.m.–6p.m.', '7:30a.m.–7:30p.m.']"
12,Alan Keville for Hair,"Balcony Level Powerscourt Townhouse Centre, William St S, Dublin 2, DO2 HF95",53.3422365,-6.2618173,,,4.7,"['9:30a.m.–6p.m.', '9:30a.m.–8p.m.', '9:30a.m.–8p.m.', '9a.m.–5:30p.m.', 'Closed', '9:30a.m.–6p.m.', '9:30a.m.–6p.m.']"
13,Style Club Hairdressing,"12 William St S, Dublin",53.3424902,-6.262440799999999,(01) 472 2444,styleclub.ie,4.4,"['10a.m.–9p.m.', '10a.m.–9p.m.', '9a.m.–9p.m.', '9a.m.–6p.m.', 'Closed', '10a.m.–6p.m.', '10a.m.–9p.m.']"
14,ZERO ONE SALON,"25 Wicklow St, St Stephen's Green, Dublin 2, D02 PY82",53.34295119999999,-6.2616651,(01) 671 9107,zeroonesalon.ie,4.6,"['9a.m.–6p.m.', '9a.m.–9p.m.', '9a.m.–6p.m.', '9a.m.–6p.m.', 'Closed', '9a.m.–6p.m.', '9a.m.–6p.m.']"
15,Annette Hair Salon,"Dean St, Merchants Quay, Dublin",53.3390809,-6.2731328,,,4.5,"['10a.m.–8p.m.', '10a.m.–8p.m.', '10a.m.–8p.m.', '10a.m.–6p.m.', 'Closed', 'Closed', '10a.m.–8p.m.']"
16,TONI&GUY Dawson Street,"51A Dawson St, Dublin 2, D02 YK66",53.34252900000001,-6.257663699999999,,,4.7,"['9a.m.–8p.m.', '9a.m.–8p.m.', '9a.m.–6p.m.', '9a.m.–6p.m.', 'Closed', '9a.m.–6p.m.', '9a.m.–6p.m.']"
17,Reds Hair Salon,"1st Floor, 21 Dawson St, Dublin, D02 TK33",53.33965749999999,-6.2585532,,,4.4,"['9:30a.m.–5:30p.m.', '9:30a.m.–6:30p.m.', '9:30a.m.–6:30p.m.', '9:30a.m.–4:30p.m.', 'Closed', 'Closed', '9:30a.m.–5:30p.m.']"
18,Wayne Webster Hair,None,None,None,087 931 0172,None,4.7,"['10a.m.–8p.m.', '10a.m.–8p.m.', '10a.m.–7p.m.', '9a.m.–5p.m.', 'Closed', 'Closed', '10a.m.–7p.m.']"
19,Boshka Hair & Beauty Salon,"Unit 42, Coolmine Industrial Estate, Blanchardstown, Dublin 15",53.3830879,-6.4011783,,,4.7,"['9:30a.m.–8p.m.', '9:30a.m.–8p.m.', '9:30a.m.–8p.m.', '9a.m.–5p.m.', 'Closed', '9:30a.m.–8p.m.', '9:30a.m.–8p.m.']"
20,Blow Salons,None,None,None,,,4.1,"['6:30a.m.–7:30p.m.', '6:30a.m.–7:30p.m.', '6:30a.m.–7:30p.m.', '8:30a.m.–6p.m.', '9:30a.m.–4p.m.', '6:30a.m.–7:30p.m.', '6:30a.m.–7:30p.m.']"
21,Dylan Bradshaw Hair Salon,"56 William St S, Dublin 2, D02 Y897",53.3418767,-6.262522799999999,,,4.9,"['9a.m.–9p.m.', '9a.m.–9p.m.', '9a.m.–6p.m.', '9a.m.–6p.m.', 'Closed', 'Closed', '9a.m.–6p.m.']"
22,Moyo Hair & Beauty Aveda Exclusive Salon,"6 Charlotte Way, Saint Kevin's, Dublin, D02 H342",53.33349270000001,-6.264392,(01) 476 3808,moyo.ie,4.9,"['10a.m.–8p.m.', '9a.m.–8p.m.', '9a.m.–8p.m.', '9a.m.–5p.m.', '10a.m.–6p.m.', 'Closed', '9a.m.–8p.m.']"
23,Robert Chambers Hair Salon,"69 Grafton Street, Dublin 2, D02 HC04",53.34107179999999,-6.2607051,(01) 677 1323,robertchambers.ie,4.9,"['9:30a.m.–6p.m.', '9:30a.m.–8:30p.m.', '9:30a.m.–7p.m.', '9:15a.m.–5:30p.m.', 'Closed', '9:30a.m.–6p.m.', '9:30a.m.–6p.m.']"
24,DaveyDavey Hair Salon,"24 Stephen Street Lower, Dublin 2",53.3412461,-6.2647717,(01) 607 8999,daveydavey.com,4.9,"['9a.m.–6p.m.', '9a.m.–8p.m.', '9a.m.–7p.m.', '9a.m.–6p.m.', 'Closed', '9a.m.–6p.m.', '9a.m.–6p.m.']"
25,Zeba Hairdressing Dublin,"60 William St S, Dublin 2, D02 CH28",53.3425436,-6.2621028,(01) 671 6444,zeba.ie,4.7,"['9a.m.–7p.m.', '9a.m.–7:15p.m.', '9a.m.–6p.m.', '9a.m.–5p.m.', 'Closed', '9a.m.–5:30p.m.', '9a.m.–5:30p.m.']"
26,Lunatic Fringe at Robert Chambers,"25 Liffey St. Upper, North City, Dublin 1, D01 T2R7",53.3486158,-6.264299299999999,(01) 872 3663,lunaticfringe.ie,4.8,"['9:30a.m.–6p.m.', '9:30a.m.–8:30p.m.', '9:30a.m.–7p.m.', '9a.m.–5:30p.m.', 'Closed', 'Closed', '9:30a.m.–6p.m.']"
27,Lunatic Fringe @ Robert Chambers,"69 Grafton Street, Dublin 2, D02 HC04",53.34107179999999,-6.2607051,(01) 679 3766,lunaticfringe.ie,4.9,"['9:30a.m.–6p.m.', '9:30a.m.–8:30p.m.', '9:30a.m.–7p.m.', '9a.m.–5:30p.m.', 'Closed', '9:30a.m.–6p.m.', '9:30a.m.–6p.m.']"
28,Brown Sugar,"50 William St S, Dublin 2, D02 DE93",53.3415338,-6.2627596,,,4.7,"['9a.m.–7:30p.m.', '9a.m.–8p.m.', '9a.m.–6p.m.', '9a.m.–5p.m.', 'Closed', '9a.m.–5:30p.m.', '9a.m.–5:30p.m.']"
29,Charming Hair and Beauty Salon,"D02 ED72, County Dublin, Dublin, IE Ground floor and basement 3 Burgh Quay",53.3469979,-6.257962999999999,083 878 2222,business.site,4.2,[]
30,Aviary Lane,"24 Anne St S, Dublin 2",53.34097939999999,-6.2591131,(01) 611 1101,aviarylane.com,4.8,"['10a.m.–6p.m.', '10a.m.–8p.m.', '10a.m.–8p.m.', '9a.m.–6p.m.', 'Closed', 'Closed', '10a.m.–6p.m.']"
31,Trim Hair Salon,"45 Shelbourne Rd, Dublin 4, D04 Y4A4",53.3304712,-6.2319694,(01) 668 4108,trim4hair.ie,4.9,"['7:30a.m.–7:30p.m.', '7:30a.m.–7:30p.m.', '7:30a.m.–7:30p.m.', '9a.m.–6p.m.', '9a.m.–6p.m.', '7:30a.m.–6p.m.', '7:30a.m.–7:30p.m.']"
32,Alan Keville for Hair,"Balcony Level Powerscourt Townhouse Centre, William St S, Dublin 2, DO2 HF95",53.3422365,-6.2618173,(01) 675 0022,kevillehair.com,4.7,"['9:30a.m.–6p.m.', '9:30a.m.–8p.m.', '9:30a.m.–8p.m.', '9a.m.–5:30p.m.', 'Closed', '9:30a.m.–6p.m.', '9:30a.m.–6p.m.']"
33,Style Club Hairdressing,"12 William St S, Dublin",53.3424902,-6.262440799999999,(01) 472 2444,styleclub.ie,4.4,"['10a.m.–9p.m.', '10a.m.–9p.m.', '9a.m.–9p.m.', '9a.m.–6p.m.', 'Closed', '10a.m.–6p.m.', '10a.m.–9p.m.']"
34,ZERO ONE SALON,"25 Wicklow St, St Stephen's Green, Dublin 2, D02 PY82",53.34295119999999,-6.2616651,(01) 671 9107,zeroonesalon.ie,4.6,"['9a.m.–6p.m.', '9a.m.–9p.m.', '9a.m.–6p.m.', '9a.m.–6p.m.', 'Closed', '9a.m.–6p.m.', '9a.m.–6p.m.']"
35,Annette Hair Salon,"Dean St, Merchants Quay, Dublin",53.3390809,-6.2731328,087 225 7063,annettehairsalon.com,4.5,"['10a.m.–8p.m.', '10a.m.–8p.m.', '10a.m.–8p.m.', '10a.m.–6p.m.', 'Closed', 'Closed', '10a.m.–8p.m.']"
36,TONI&GUY Dawson Street,"51A Dawson St, Dublin 2, D02 YK66",53.34252900000001,-6.257663699999999,(01) 671 4401,toniandguy.ie,4.7,"['9a.m.–8p.m.', '9a.m.–8p.m.', '9a.m.–6p.m.', '9a.m.–6p.m.', 'Closed', '9a.m.–6p.m.', '9a.m.–6p.m.']"
37,Reds Hair Salon,"1st Floor, 21 Dawson St, Dublin, D02 TK33",53.33965749999999,-6.2585532,(01) 678 8211,reds.ie,4.4,"['9:30a.m.–5:30p.m.', '9:30a.m.–6:30p.m.', '9:30a.m.–6:30p.m.', '9:30a.m.–4:30p.m.', 'Closed', 'Closed', '9:30a.m.–5:30p.m.']"
38,Wayne Webster Hair,None,None,None,087 931 0172,None,4.7,"['10a.m.–8p.m.', '10a.m.–8p.m.', '10a.m.–7p.m.', '9a.m.–5p.m.', 'Closed', 'Closed', '10a.m.–7p.m.']"
39,Boshka Hair & Beauty Salon,"Unit 42, Coolmine Industrial Estate, Blanchardstown, Dublin 15",53.3830879,-6.4011783,(01) 824 9548,boshka.ie,4.7,"['9:30a.m.–8p.m.', '9:30a.m.–8p.m.', '9:30a.m.–8p.m.', '9a.m.–5p.m.', 'Closed', '9:30a.m.–8p.m.', '9:30a.m.–8p.m.']"
40,Blow Salons,None,None,None,(01) 607 0222,blow.ie,4.1,"['6:30a.m.–7:30p.m.', '6:30a.m.–7:30p.m.', '6:30a.m.–7:30p.m.', '8:30a.m.–6p.m.', '9:30a.m.–4p.m.', '6:30a.m.–7:30p.m.', '6:30a.m.–7:30p.m.']"
41,Number 5 Andrew Street Hair Salon,"City Centre, 5 St Andrew's St, Dublin 2, D02 YD85",53.3432842,-6.2617854,,,4.9,"['10a.m.–7p.m.', '10a.m.–8p.m.', '10a.m.–7p.m.', '10a.m.–6p.m.', 'Closed', 'Closed', '10a.m.–6p.m.']"
42,Knights of the Green,"106, Stephens Green Shopping Centre, Dublin 2",53.340004,-6.2622729,(01) 478 0283,knightsbarbers.com,4.5,"['9a.m.–6p.m.', '9a.m.–7p.m.', '9a.m.–7p.m.', '8:30a.m.–6p.m.', '11a.m.–6p.m.', '9a.m.–6p.m.', '9a.m.–6p.m.']"
43,Shaky Jakes Hair Studio,None,None,None,(01) 548 0436,shakyjakes.ie,4.8,"['10a.m.–6p.m.', '10a.m.–6p.m.', '10a.m.–6p.m.', '10a.m.–5p.m.', 'Closed', 'Closed', '10a.m.–6p.m.']"
44,Shei Hair & Beauty Salon,"57 Mary St, North City, Dublin, D01 C6X5",53.3486815,-6.2678741,089 456 0587,treatwell.ie,3.5,[]
45,Wayward Hair Salon,"40 Lennox St, Saint Kevin's, Dublin 8, D08 C44T",53.33131729999999,-6.267759799999999,(01) 478 8800,facebook.com,5.0,"['9:30a.m.–6:30p.m.', '9:30a.m.–8p.m.', '9:30a.m.–6:30p.m.', '9:30a.m.–6p.m.', 'Closed', 'Closed', '9:30a.m.–6:30p.m.']"
46,Zara Cox hair salon,"29 Wicklow St, Dublin, D02 N122",53.342945,-6.2613704,None,None,None,[]
47,city look hair salon,"65B Harold's Cross Rd, Harold's Cross, Dublin, D6W AW22",53.3269512,-6.2774787,087 617 4665,business.site,4.8,"['9:30a.m.–7p.m.', '9a.m.–7p.m.', '9a.m.–7p.m.', '9a.m.–7p.m.', '11a.m.–6p.m.', '9:30a.m.–7p.m.', '9:30a.m.–7p.m.']"
48,Ciaran Nevin Hair Salon,"6 Rathfarnham Rd, Terenure, Dublin 6, D6W YF57",53.3096129,-6.2833974,(01) 405 5256,ciarannevin.ie,4.8,"['8:30a.m.–5p.m.', '8:30a.m.–7p.m.', '8:30a.m.–7p.m.', '8:30a.m.–4p.m.', 'Closed', '9a.m.–5p.m.', '9a.m.–5p.m.']"
49,Saks Hair Salon,"15 Sackville Pl, North City, Dublin 1, D01 X5K7",53.3489651,-6.258839399999999,(01) 878 6344,saks.ie,4.5,"['9a.m.–5:30p.m.', '9a.m.–5:30p.m.', '9a.m.–5:30p.m.', '9a.m.–5:30p.m.', 'Closed', 'Closed', '9a.m.–5:30p.m.']"
50,Harvard Hair,"5 Manor St, Stoneybatter, Dublin 7, D07 NC56",53.351567,-6.2828919,(01) 868 9416,harvardhair.ie,4.9,"['10a.m.–5:30p.m.', '10a.m.–8p.m.', '10a.m.–6p.m.', '9a.m.–5p.m.', 'Closed', '10a.m.–5:30p.m.', '10a.m.–5:30p.m.']"
51,Pure Aveda Salon,None,None,None,(01) 678 9864,pureavedasalon.ie,4.3,"['9a.m.–7p.m.', '9a.m.–7p.m.', '9a.m.–7p.m.', '9a.m.–7p.m.', 'Closed', 'Closed', '9a.m.–7p.m.']"
52,David Marshall Salon & School of Hairdressing,"27 S Great, George's Street Arcade, Dublin",53.34217109999999,-6.26448,(01) 677 0598,None,4.2,"['9a.m.–6p.m.', '9a.m.–7p.m.', '9a.m.–6p.m.', '9a.m.–6p.m.', 'Closed', 'Closed', '9a.m.–6p.m.']"
53,Whetstone Aveda Concept Salon,"7 Parliament St, Temple Bar, Dublin, D02 RK76",53.3445052,-6.267202999999999,(01) 671 1344,whetstone.ie,4.1,"['10a.m.–8p.m.', '10a.m.–8p.m.', '9a.m.–8p.m.', '9a.m.–6p.m.', 'Closed', 'Closed', '10a.m.–7p.m.']"
54,Di Milo Hair Design Ltd,"46 Donnybrook Rd, Dublin 4, D04 RK65",53.321784,-6.235377,(01) 218 0872,dimilo.ie,4.4,"['7a.m.–6p.m.', '7a.m.–8:30p.m.', '7a.m.–6p.m.', '7a.m.–5p.m.', 'Closed', '7a.m.–5p.m.', '7a.m.–6p.m.']"
55,David Marshall Hair Salon,"S Great, 12 Fade St, George's Street Arcade, Dublin 2, D02 AT25",53.3421272,-6.2643156,(01) 677 0106,None,4.9,"['9a.m.–7:30p.m.', '9a.m.–7:30p.m.', '9a.m.–6:30p.m.', '9a.m.–6p.m.', 'Closed', 'Closed', '9a.m.–6p.m.']"
56,The Art Team,"75 Grafton Street, Dublin 2, D02 PD81",53.34155190000001,-6.260502199999999,None,theartteam.ie,2.3,[]
57,Tian Du Hairdressing Centre,"2nd Floor, 6 Westmoreland St, Temple Bar, Dublin, D02 VF82",53.3456781,-6.2594832,(01) 671 0147,None,4.2,"['10a.m.–7p.m.', '10a.m.–7p.m.', '10a.m.–7p.m.', '10a.m.–7p.m.', '11a.m.–7p.m.', '10a.m.–7p.m.', '10a.m.–7p.m.']"
58,Blow Salons,None,None,None,(01) 611 2664,blow.ie,4.3,"['8:30a.m.–7p.m.', '8:30a.m.–8p.m.', '8:30a.m.–7p.m.', '8:30a.m.–7p.m.', '10a.m.–6p.m.', '8:30a.m.–7p.m.', '8:30a.m.–7p.m.']"
59,Crow Street Collective,"1A Crow St, Temple Bar, Dublin, D02 RF24",53.3444853,-6.263865,(01) 764 5730,cscollective.ie,5.0,"['10a.m.–9p.m.', '10a.m.–9p.m.', '10a.m.–6p.m.', '9a.m.–5p.m.', 'Closed', 'Closed', '10a.m.–6p.m.']"
60,Helga Schworer Hair and Beauty Salon,"33 Baggot Street Upper, Ballsbridge, Dublin, D04 N1W9",53.33321360000001,-6.2438229,(01) 660 3311,helga.ie,4.2,"['8:30a.m.–7p.m.', '8:30a.m.–7p.m.', '8:30a.m.–7p.m.', '9a.m.–5p.m.', 'Closed', '8:30a.m.–7p.m.', '8:30a.m.–7p.m.']"
61,Hair Cafe Salon,"8a Thundercut Alley, Smithfield, Dublin 7",53.34926549999999,-6.2795195,(01) 878 8198,haircafesalon.ie,4.8,"['10a.m.–7p.m.', '9a.m.–8p.m.', '9a.m.–8p.m.', '9a.m.–5p.m.', 'Closed', 'Closed', '10a.m.–6p.m.']"
62,McAuley Scanlon Hair,"9-11 Baggot Street Upper, Dublin 4, D04 A6W7",53.3336613,-6.2449713,(01) 668 3669,mcauleyscanlonhair.com,4.8,"['8a.m.–8p.m.', '8a.m.–8p.m.', '8a.m.–8p.m.', '9a.m.–6p.m.', '10a.m.–4p.m.', '10a.m.–6p.m.', '8a.m.–8p.m.']"
63,Number 5 Andrew Street Hair Salon,"City Centre, 5 St Andrew's St, Dublin 2, D02 YD85",53.3432842,-6.2617854,(01) 670 5969,5andrewstreet.com,4.9,"['10a.m.–7p.m.', '10a.m.–8p.m.', '10a.m.–7p.m.', '10a.m.–6p.m.', 'Closed', 'Closed', '10a.m.–6p.m.']"
64,Knights of the Green,"106, Stephens Green Shopping Centre, Dublin 2",53.340004,-6.2622729,(01) 478 0283,knightsbarbers.com,4.5,"['9a.m.–6p.m.', '9a.m.–7p.m.', '9a.m.–7p.m.', '8:30a.m.–6p.m.', '11a.m.–6p.m.', '9a.m.–6p.m.', '9a.m.–6p.m.']"
65,The Buddha Head Hair Salon,"Beech Hill Rd, Clonskeagh, Co. Dublin, D04 AF10",53.3140387,-6.237087,(01) 269 0471,None,4.5,"['9:30a.m.–1p.m.', '9a.m.–5:30p.m.', '9a.m.–7p.m.', '9a.m.–5:30p.m.', 'Closed', 'Closed', '9:30a.m.–1p.m.']"
66,Pzazz Hair and Make Up,"Clarendon St, Dublin",53.3419119,-6.2614364,(01) 679 4183,None,4.4,"['9a.m.–5:30p.m.', '9a.m.–7:30p.m.', '9a.m.–5:30p.m.', '9a.m.–5p.m.', 'Closed', '9a.m.–5:30p.m.', '9a.m.–5:30p.m.']"
67,Cheng Hair & Beauty Salon,"67 Dame St, Temple Bar, Dublin, D02 X290",53.3442867,-6.265631700000001,087 171 6166,None,3.8,"['10a.m.–7p.m.', '10a.m.–7p.m.', '10a.m.–7p.m.', '10a.m.–7p.m.', 'Closed', '10a.m.–7p.m.', '10a.m.–7p.m.']"
68,Gillian Edgeworth Hair Studio,"3 Cow's Ln, Temple Bar, Dublin",53.3439957,-6.2686208,(01) 675 0557,gillianedgeworth.ie,4.7,"['9a.m.–6p.m.', '9a.m.–8p.m.', '9a.m.–6p.m.', '9a.m.–5p.m.', 'Closed', 'Closed', '9a.m.–6p.m.']"
69,Michael Anthony Hair Salon,"37 Bird Ave, Gledswood Dr, Friarland, Clonskeagh, Co. Dublin, D14 HK50",53.3052052,-6.2372238,(01) 269 7476,None,5.0,[]
70,Peter Mark Hairdressers Mary Street,"23 Mary St, North City, Dublin 1, D01 AW27",53.348962,-6.265541,(01) 872 7771,petermark.ie,4.5,"['9a.m.–6p.m.', '9a.m.–8:30p.m.', '9a.m.–6:30p.m.', '9a.m.–6p.m.', '12–5:30p.m.', '9a.m.–6p.m.', '9a.m.–6p.m.']"
71,Gorgeous Hair Salon,"5 Maryfield Ave, Beaumont, Artane, Co. Dublin, D05 V2R2",53.3864736,-6.2117097,(01) 867 4643,None,4.5,"['9a.m.–5:30p.m.', '8a.m.–8p.m.', '8a.m.–8p.m.', '8a.m.–3p.m.', 'Closed', 'Closed', '9a.m.–5:30p.m.']"
72,Techniques Hair Company,"42 Aungier St, Dublin 2, D02 KP08",53.3384959,-6.2658736,(01) 478 9583,None,3.2,[]
73,Brown Sugar,"68 Ranelagh, Dublin, D06 V3F8",53.3249528,-6.2538715,(01) 485 1988,brownsugar.ie,4.6,"['8a.m.–8p.m.', '8a.m.–8p.m.', '8a.m.–8p.m.', '8a.m.–8p.m.', 'Closed', '8a.m.–8p.m.', '8a.m.–8p.m.']"
74,The Hive,"1 Dame Ln, Dublin, D02 V677",53.3437866,-6.262877599999999,(01) 475 8649,thehivesalon.ie,5.0,"['10a.m.–9p.m.', '10a.m.–9p.m.', '10a.m.–7p.m.', '9a.m.–5:30p.m.', 'Closed', '10a.m.–6p.m.', '10a.m.–6p.m.']"
75,Salon 19,"19 Drury St, Dublin, D02 WK51",53.3420759,-6.263614,(01) 677 5043,None,5.0,[]
76,Carmeo Hair Salon,"44 Dorset Street Lower, Dublin, D01 F3C6",53.3600982,-6.2606209,(01) 855 8843,carmeosalon.wixsite.com,4.6,"['9:30a.m.–6p.m.', '9:30a.m.–7p.m.', '9:30a.m.–7p.m.', '9:30a.m.–7p.m.', 'Closed', '9:30a.m.–6p.m.', '9:30a.m.–6p.m.']"
77,Mask Hair,"2 Grafton Street, Dublin, D02 Y527",53.3430367,-6.2592225,086 814 1836,maskhair.ie,4.9,"['11a.m.–7p.m.', '11a.m.–7p.m.', '10a.m.–6p.m.', '9:30a.m.–5p.m.', 'Closed', 'Closed', '10a.m.–6p.m.']"
78,Mont Ciara Hair and Beauty Salon,"76 Parnell St, Rotunda, Dublin 1, D01 W710",53.3526249,-6.2608893,(01) 558 0558,None,3.9,"['10:30a.m.–8p.m.', '10:30a.m.–8p.m.', '10:30a.m.–8p.m.', '10:30a.m.–8p.m.', '10:30a.m.–7:30p.m.', '10:30a.m.–8p.m.', '10:30a.m.–8p.m.']"
79,Hession Hairdressing,"108 Drumcondra Rd Upper, Ballybough, Dublin, D09 C576",53.3721967,-6.2525512,(01) 837 6265,hessionhairdressing.ie,4.7,"['9:30a.m.–8p.m.', '9:30a.m.–8p.m.', '9:30a.m.–6p.m.', '9a.m.–5p.m.', 'Closed', '9:30a.m.–6p.m.', '9:30a.m.–6p.m.']"
80,World of Elegance,None,None,None,(01) 675 2040,worldofelegance.ie,4.4,"['10a.m.–7p.m.', '10a.m.–8p.m.', '10a.m.–8p.m.', '9a.m.–5p.m.', 'Closed', '10a.m.–7p.m.', '10a.m.–7p.m.']"
81,Hillary.ie,None,None,None,(01) 441 7168,hillary.ie,4.8,"['9:30a.m.–8p.m.', '9:30a.m.–8p.m.', '9:30a.m.–8p.m.', '9a.m.–5:30p.m.', 'Closed', '9:30a.m.–6p.m.', '9:30a.m.–6p.m.']"
82,Cezanne Hair Studio,"34 Drury St, Dublin, D02 CF68",53.3427172,-6.2632124,(01) 679 4218,None,5.0,[]
83,Number 5 Andrew Street Hair Salon,"City Centre, 5 St Andrew's St, Dublin 2, D02 YD85",53.3432842,-6.2617854,,,4.9,"['10a.m.–7p.m.', '10a.m.–8p.m.', '10a.m.–7p.m.', '10a.m.–6p.m.', 'Closed', 'Closed', '10a.m.–6p.m.']"
84,Knights of the Green,"106, Stephens Green Shopping Centre, Dublin 2",53.340004,-6.2622729,(01) 478 0283,knightsbarbers.com,4.5,"['9a.m.–6p.m.', '9a.m.–7p.m.', '9a.m.–7p.m.', '8:30a.m.–6p.m.', '11a.m.–6p.m.', '9a.m.–6p.m.', '9a.m.–6p.m.']"
85,The Buddha Head Hair Salon,"Beech Hill Rd, Clonskeagh, Co. Dublin, D04 AF10",53.3140387,-6.237087,(01) 269 0471,None,4.5,"['9:30a.m.–1p.m.', '9a.m.–5:30p.m.', '9a.m.–7p.m.', '9a.m.–5:30p.m.', 'Closed', 'Closed', '9:30a.m.–1p.m.']"
86,Pzazz Hair and Make Up,"Clarendon St, Dublin",53.3419119,-6.2614364,(01) 679 4183,None,4.4,"['9a.m.–5:30p.m.', '9a.m.–7:30p.m.', '9a.m.–5:30p.m.', '9a.m.–5p.m.', 'Closed', '9a.m.–5:30p.m.', '9a.m.–5:30p.m.']"
87,Cheng Hair & Beauty Salon,"67 Dame St, Temple Bar, Dublin, D02 X290",53.3442867,-6.265631700000001,087 171 6166,None,3.8,"['10a.m.–7p.m.', '10a.m.–7p.m.', '10a.m.–7p.m.', '10a.m.–7p.m.', 'Closed', '10a.m.–7p.m.', '10a.m.–7p.m.']"
88,Gillian Edgeworth Hair Studio,"3 Cow's Ln, Temple Bar, Dublin",53.3439957,-6.2686208,(01) 675 0557,gillianedgeworth.ie,4.7,"['9a.m.–6p.m.', '9a.m.–8p.m.', '9a.m.–6p.m.', '9a.m.–5p.m.', 'Closed', 'Closed', '9a.m.–6p.m.']"
89,Michael Anthony Hair Salon,"37 Bird Ave, Gledswood Dr, Friarland, Clonskeagh, Co. Dublin, D14 HK50",53.3052052,-6.2372238,(01) 269 7476,None,5.0,[]
90,Peter Mark Hairdressers Mary Street,"23 Mary St, North City, Dublin 1, D01 AW27",53.348962,-6.265541,(01) 872 7771,petermark.ie,4.5,"['9a.m.–6p.m.', '9a.m.–8:30p.m.', '9a.m.–6:30p.m.', '9a.m.–6p.m.', '12–5:30p.m.', '9a.m.–6p.m.', '9a.m.–6p.m.']"
91,Gorgeous Hair Salon,"5 Maryfield Ave, Beaumont, Artane, Co. Dublin, D05 V2R2",53.3864736,-6.2117097,(01) 867 4643,None,4.5,"['9a.m.–5:30p.m.', '8a.m.–8p.m.', '8a.m.–8p.m.', '8a.m.–3p.m.', 'Closed', 'Closed', '9a.m.–5:30p.m.']"
92,Techniques Hair Company,"42 Aungier St, Dublin 2, D02 KP08",53.3384959,-6.2658736,(01) 478 9583,None,3.2,[]
93,Brown Sugar,"68 Ranelagh, Dublin, D06 V3F8",53.3249528,-6.2538715,(01) 485 1988,brownsugar.ie,4.6,"['8a.m.–8p.m.', '8a.m.–8p.m.', '8a.m.–8p.m.', '8a.m.–8p.m.', 'Closed', '8a.m.–8p.m.', '8a.m.–8p.m.']"
94,The Hive,"1 Dame Ln, Dublin, D02 V677",53.3437866,-6.262877599999999,(01) 475 8649,thehivesalon.ie,5.0,"['10a.m.–9p.m.', '10a.m.–9p.m.', '10a.m.–7p.m.', '9a.m.–5:30p.m.', 'Closed', '10a.m.–6p.m.', '10a.m.–6p.m.']"
95,Salon 19,"19 Drury St, Dublin, D02 WK51",53.3420759,-6.263614,(01) 677 5043,None,5.0,[]
96,Carmeo Hair Salon,"44 Dorset Street Lower, Dublin, D01 F3C6",53.3600982,-6.2606209,(01) 855 8843,carmeosalon.wixsite.com,4.6,"['9:30a.m.–6p.m.', '9:30a.m.–7p.m.', '9:30a.m.–7p.m.', '9:30a.m.–7p.m.', 'Closed', '9:30a.m.–6p.m.', '9:30a.m.–6p.m.']"
97,Mask Hair,"2 Grafton Street, Dublin, D02 Y527",53.3430367,-6.2592225,086 814 1836,maskhair.ie,4.9,"['11a.m.–7p.m.', '11a.m.–7p.m.', '10a.m.–6p.m.', '9:30a.m.–5p.m.', 'Closed', 'Closed', '10a.m.–6p.m.']"
98,Mont Ciara Hair and Beauty Salon,"76 Parnell St, Rotunda, Dublin 1, D01 W710",53.3526249,-6.2608893,(01) 558 0558,None,3.9,"['10:30a.m.–8p.m.', '10:30a.m.–8p.m.', '10:30a.m.–8p.m.', '10:30a.m.–8p.m.', '10:30a.m.–7:30p.m.', '10:30a.m.–8p.m.', '10:30a.m.–8p.m.']"
99,Hession Hairdressing,"108 Drumcondra Rd Upper, Ballybough, Dublin, D09 C576",53.3721967,-6.2525512,(01) 837 6265,hessionhairdressing.ie,4.7,"['9:30a.m.–8p.m.', '9:30a.m.–8p.m.', '9:30a.m.–6p.m.', '9a.m.–5p.m.', 'Closed', '9:30a.m.–6p.m.', '9:30a.m.–6p.m.']"
100,World of Elegance,None,None,None,(01) 675 2040,worldofelegance.ie,4.4,"['10a.m.–7p.m.', '10a.m.–8p.m.', '10a.m.–8p.m.', '9a.m.–5p.m.', 'Closed', '10a.m.–7p.m.', '10a.m.–7p.m.']"
101,Hillary.ie,None,None,None,(01) 441 7168,hillary.ie,4.8,"['9:30a.m.–8p.m.', '9:30a.m.–8p.m.', '9:30a.m.–8p.m.', '9a.m.–5:30p.m.', 'Closed', '9:30a.m.–6p.m.', '9:30a.m.–6p.m.']"
102,Cezanne Hair Studio,"34 Drury St, Dublin, D02 CF68",53.3427172,-6.2632124,(01) 679 4218,None,5.0,[]
103,Number 5 Andrew Street Hair Salon,"City Centre, 5 St Andrew's St, Dublin 2, D02 YD85",53.3432842,-6.2617854,,,4.9,"['10a.m.–7p.m.', '10a.m.–8p.m.', '10a.m.–7p.m.', '10a.m.–6p.m.', 'Closed', 'Closed', '10a.m.–6p.m.']"
104,Knights of the Green,"106, Stephens Green Shopping Centre, Dublin 2",53.340004,-6.2622729,,,4.5,"['9a.m.–6p.m.', '9a.m.–7p.m.', '9a.m.–7p.m.', '8:30a.m.–6p.m.', '11a.m.–6p.m.', '9a.m.–6p.m.', '9a.m.–6p.m.']"
105,The Buddha Head Hair Salon,"Beech Hill Rd, Clonskeagh, Co. Dublin, D04 AF10",53.3140387,-6.237087,,None,4.5,"['9:30a.m.–1p.m.', '9a.m.–5:30p.m.', '9a.m.–7p.m.', '9a.m.–5:30p.m.', 'Closed', 'Closed', '9:30a.m.–1p.m.']"
106,Pzazz Hair and Make Up,"Clarendon St, Dublin",53.3419119,-6.2614364,,None,4.4,"['9a.m.–5:30p.m.', '9a.m.–7:30p.m.', '9a.m.–5:30p.m.', '9a.m.–5p.m.', 'Closed', '9a.m.–5:30p.m.', '9a.m.–5:30p.m.']"
107,Cheng Hair & Beauty Salon,"67 Dame St, Temple Bar, Dublin, D02 X290",53.3442867,-6.265631700000001,,None,3.8,"['10a.m.–7p.m.', '10a.m.–7p.m.', '10a.m.–7p.m.', '10a.m.–7p.m.', 'Closed', '10a.m.–7p.m.', '10a.m.–7p.m.']"
108,Gillian Edgeworth Hair Studio,"3 Cow's Ln, Temple Bar, Dublin",53.3439957,-6.2686208,,,4.7,"['9a.m.–6p.m.', '9a.m.–8p.m.', '9a.m.–6p.m.', '9a.m.–5p.m.', 'Closed', 'Closed', '9a.m.–6p.m.']"
109,Michael Anthony Hair Salon,"37 Bird Ave, Gledswood Dr, Friarland, Clonskeagh, Co. Dublin, D14 HK50",53.3052052,-6.2372238,,None,5.0,[]
110,Peter Mark Hairdressers Mary Street,"23 Mary St, North City, Dublin 1, D01 AW27",53.348962,-6.265541,,,4.5,"['9a.m.–6p.m.', '9a.m.–8:30p.m.', '9a.m.–6:30p.m.', '9a.m.–6p.m.', '12–5:30p.m.', '9a.m.–6p.m.', '9a.m.–6p.m.']"
111,Gorgeous Hair Salon,"5 Maryfield Ave, Beaumont, Artane, Co. Dublin, D05 V2R2",53.3864736,-6.2117097,,None,4.5,"['9a.m.–5:30p.m.', '8a.m.–8p.m.', '8a.m.–8p.m.', '8a.m.–3p.m.', 'Closed', 'Closed', '9a.m.–5:30p.m.']"
112,Techniques Hair Company,"42 Aungier St, Dublin 2, D02 KP08",53.3384959,-6.2658736,(01) 478 9583,None,3.2,[]
113,Brown Sugar,"68 Ranelagh, Dublin, D06 V3F8",53.3249528,-6.2538715,,,4.6,"['8a.m.–8p.m.', '8a.m.–8p.m.', '8a.m.–8p.m.', '8a.m.–8p.m.', 'Closed', '8a.m.–8p.m.', '8a.m.–8p.m.']"
114,The Hive,"1 Dame Ln, Dublin, D02 V677",53.3437866,-6.262877599999999,,,5.0,"['10a.m.–9p.m.', '10a.m.–9p.m.', '10a.m.–7p.m.', '9a.m.–5:30p.m.', 'Closed', '10a.m.–6p.m.', '10a.m.–6p.m.']"
115,Salon 19,"19 Drury St, Dublin, D02 WK51",53.3420759,-6.263614,,None,5.0,[]
116,Carmeo Hair Salon,"44 Dorset Street Lower, Dublin, D01 F3C6",53.3600982,-6.2606209,,,4.6,"['9:30a.m.–6p.m.', '9:30a.m.–7p.m.', '9:30a.m.–7p.m.', '9:30a.m.–7p.m.', 'Closed', '9:30a.m.–6p.m.', '9:30a.m.–6p.m.']"
117,Mask Hair,"2 Grafton Street, Dublin, D02 Y527",53.3430367,-6.2592225,,,4.9,"['11a.m.–7p.m.', '11a.m.–7p.m.', '10a.m.–6p.m.', '9:30a.m.–5p.m.', 'Closed', 'Closed', '10a.m.–6p.m.']"
118,Mont Ciara Hair and Beauty Salon,"76 Parnell St, Rotunda, Dublin 1, D01 W710",53.3526249,-6.2608893,,None,3.9,"['10:30a.m.–8p.m.', '10:30a.m.–8p.m.', '10:30a.m.–8p.m.', '10:30a.m.–8p.m.', '10:30a.m.–7:30p.m.', '10:30a.m.–8p.m.', '10:30a.m.–8p.m.']"
119,Hession Hairdressing,"108 Drumcondra Rd Upper, Ballybough, Dublin, D09 C576",53.3721967,-6.2525512,,,4.7,"['9:30a.m.–8p.m.', '9:30a.m.–8p.m.', '9:30a.m.–6p.m.', '9a.m.–5p.m.', 'Closed', '9:30a.m.–6p.m.', '9:30a.m.–6p.m.']"
120,World of Elegance,None,None,None,,worldofelegance.ie,4.4,"['10a.m.–7p.m.', '10a.m.–8p.m.', '10a.m.–8p.m.', '9a.m.–5p.m.', 'Closed', '10a.m.–7p.m.', '10a.m.–7p.m.']"
121,Hillary.ie,None,None,None,,,4.8,"['9:30a.m.–8p.m.', '9:30a.m.–8p.m.', '9:30a.m.–8p.m.', '9a.m.–5:30p.m.', 'Closed', '9:30a.m.–6p.m.', '9:30a.m.–6p.m.']"
122,Cezanne Hair Studio,"34 Drury St, Dublin, D02 CF68",53.3427172,-6.2632124,,None,5.0,[]
123,Number 5 Andrew Street Hair Salon,"City Centre, 5 St Andrew's St, Dublin 2, D02 YD85",53.3432842,-6.2617854,,,4.9,"['10a.m.–7p.m.', '10a.m.–8p.m.', '10a.m.–7p.m.', '10a.m.–6p.m.', 'Closed', 'Closed', '10a.m.–6p.m.']"
124,Knights of the Green,"106, Stephens Green Shopping Centre, Dublin 2",53.340004,-6.2622729,(01) 478 0283,knightsbarbers.com,4.5,"['9a.m.–6p.m.', '9a.m.–7p.m.', '9a.m.–7p.m.', '8:30a.m.–6p.m.', '11a.m.–6p.m.', '9a.m.–6p.m.', '9a.m.–6p.m.']"
125,The Buddha Head Hair Salon,"Beech Hill Rd, Clonskeagh, Co. Dublin, D04 AF10",53.3140387,-6.237087,(01) 269 0471,None,4.5,"['9:30a.m.–1p.m.', '9a.m.–5:30p.m.', '9a.m.–7p.m.', '9a.m.–5:30p.m.', 'Closed', 'Closed', '9:30a.m.–1p.m.']"
126,Pzazz Hair and Make Up,"Clarendon St, Dublin",53.3419119,-6.2614364,(01) 679 4183,None,4.4,"['9a.m.–5:30p.m.', '9a.m.–7:30p.m.', '9a.m.–5:30p.m.', '9a.m.–5p.m.', 'Closed', '9a.m.–5:30p.m.', '9a.m.–5:30p.m.']"
127,Cheng Hair & Beauty Salon,"67 Dame St, Temple Bar, Dublin, D02 X290",53.3442867,-6.265631700000001,087 171 6166,None,3.8,"['10a.m.–7p.m.', '10a.m.–7p.m.', '10a.m.–7p.m.', '10a.m.–7p.m.', 'Closed', '10a.m.–7p.m.', '10a.m.–7p.m.']"
128,Gillian Edgeworth Hair Studio,"3 Cow's Ln, Temple Bar, Dublin",53.3439957,-6.2686208,(01) 675 0557,gillianedgeworth.ie,4.7,"['9a.m.–6p.m.', '9a.m.–8p.m.', '9a.m.–6p.m.', '9a.m.–5p.m.', 'Closed', 'Closed', '9a.m.–6p.m.']"
129,Michael Anthony Hair Salon,"37 Bird Ave, Gledswood Dr, Friarland, Clonskeagh, Co. Dublin, D14 HK50",53.3052052,-6.2372238,(01) 269 7476,None,5.0,[]
130,Peter Mark Hairdressers Mary Street,"23 Mary St, North City, Dublin 1, D01 AW27",53.348962,-6.265541,(01) 872 7771,petermark.ie,4.5,"['9a.m.–6p.m.', '9a.m.–8:30p.m.', '9a.m.–6:30p.m.', '9a.m.–6p.m.', '12–5:30p.m.', '9a.m.–6p.m.', '9a.m.–6p.m.']"
131,Gorgeous Hair Salon,"5 Maryfield Ave, Beaumont, Artane, Co. Dublin, D05 V2R2",53.3864736,-6.2117097,(01) 867 4643,None,4.5,"['9a.m.–5:30p.m.', '8a.m.–8p.m.', '8a.m.–8p.m.', '8a.m.–3p.m.', 'Closed', 'Closed', '9a.m.–5:30p.m.']"
132,Techniques Hair Company,"42 Aungier St, Dublin 2, D02 KP08",53.3384959,-6.2658736,(01) 478 9583,None,3.2,[]
133,Brown Sugar,"68 Ranelagh, Dublin, D06 V3F8",53.3249528,-6.2538715,(01) 485 1988,brownsugar.ie,4.6,"['8a.m.–8p.m.', '8a.m.–8p.m.', '8a.m.–8p.m.', '8a.m.–8p.m.', 'Closed', '8a.m.–8p.m.', '8a.m.–8p.m.']"
134,The Hive,"1 Dame Ln, Dublin, D02 V677",53.3437866,-6.262877599999999,(01) 475 8649,thehivesalon.ie,5.0,"['10a.m.–9p.m.', '10a.m.–9p.m.', '10a.m.–7p.m.', '9a.m.–5:30p.m.', 'Closed', '10a.m.–6p.m.', '10a.m.–6p.m.']"
135,Salon 19,"19 Drury St, Dublin, D02 WK51",53.3420759,-6.263614,(01) 677 5043,None,5.0,[]
136,Carmeo Hair Salon,"44 Dorset Street Lower, Dublin, D01 F3C6",53.3600982,-6.2606209,(01) 855 8843,carmeosalon.wixsite.com,4.6,"['9:30a.m.–6p.m.', '9:30a.m.–7p.m.', '9:30a.m.–7p.m.', '9:30a.m.–7p.m.', 'Closed', '9:30a.m.–6p.m.', '9:30a.m.–6p.m.']"
137,Mask Hair,"2 Grafton Street, Dublin, D02 Y527",53.3430367,-6.2592225,086 814 1836,maskhair.ie,4.9,"['11a.m.–7p.m.', '11a.m.–7p.m.', '10a.m.–6p.m.', '9:30a.m.–5p.m.', 'Closed', 'Closed', '10a.m.–6p.m.']"
138,Mont Ciara Hair and Beauty Salon,"76 Parnell St, Rotunda, Dublin 1, D01 W710",53.3526249,-6.2608893,(01) 558 0558,None,3.9,"['10:30a.m.–8p.m.', '10:30a.m.–8p.m.', '10:30a.m.–8p.m.', '10:30a.m.–8p.m.', '10:30a.m.–7:30p.m.', '10:30a.m.–8p.m.', '10:30a.m.–8p.m.']"
139,Hession Hairdressing,"108 Drumcondra Rd Upper, Ballybough, Dublin, D09 C576",53.3721967,-6.2525512,(01) 837 6265,hessionhairdressing.ie,4.7,"['9:30a.m.–8p.m.', '9:30a.m.–8p.m.', '9:30a.m.–6p.m.', '9a.m.–5p.m.', 'Closed', '9:30a.m.–6p.m.', '9:30a.m.–6p.m.']"
140,World of Elegance,None,None,None,(01) 675 2040,worldofelegance.ie,4.4,"['10a.m.–7p.m.', '10a.m.–8p.m.', '10a.m.–8p.m.', '9a.m.–5p.m.', 'Closed', '10a.m.–7p.m.', '10a.m.–7p.m.']"
141,Hillary.ie,None,None,None,(01) 441 7168,hillary.ie,4.8,"['9:30a.m.–8p.m.', '9:30a.m.–8p.m.', '9:30a.m.–8p.m.', '9a.m.–5:30p.m.', 'Closed', '9:30a.m.–6p.m.', '9:30a.m.–6p.m.']"
142,Cezanne Hair Studio,"34 Drury St, Dublin, D02 CF68",53.3427172,-6.2632124,(01) 679 4218,None,5.0,[]
143,Number 5 Andrew Street Hair Salon,"City Centre, 5 St Andrew's St, Dublin 2, D02 YD85",53.3432842,-6.2617854,,,4.9,"['10a.m.–7p.m.', '10a.m.–8p.m.', '10a.m.–7p.m.', '10a.m.–6p.m.', 'Closed', 'Closed', '10a.m.–6p.m.']"
144,Knights of the Green,"106, Stephens Green Shopping Centre, Dublin 2",53.340004,-6.2622729,(01) 478 0283,knightsbarbers.com,4.5,"['9a.m.–6p.m.', '9a.m.–7p.m.', '9a.m.–7p.m.', '8:30a.m.–6p.m.', '11a.m.–6p.m.', '9a.m.–6p.m.', '9a.m.–6p.m.']"
145,The Buddha Head Hair Salon,"Beech Hill Rd, Clonskeagh, Co. Dublin, D04 AF10",53.3140387,-6.237087,(01) 269 0471,None,4.5,"['9:30a.m.–1p.m.', '9a.m.–5:30p.m.', '9a.m.–7p.m.', '9a.m.–5:30p.m.', 'Closed', 'Closed', '9:30a.m.–1p.m.']"
146,Pzazz Hair and Make Up,"Clarendon St, Dublin",53.3419119,-6.2614364,(01) 679 4183,None,4.4,"['9a.m.–5:30p.m.', '9a.m.–7:30p.m.', '9a.m.–5:30p.m.', '9a.m.–5p.m.', 'Closed', '9a.m.–5:30p.m.', '9a.m.–5:30p.m.']"
147,Cheng Hair & Beauty Salon,"67 Dame St, Temple Bar, Dublin, D02 X290",53.3442867,-6.265631700000001,087 171 6166,None,3.8,"['10a.m.–7p.m.', '10a.m.–7p.m.', '10a.m.–7p.m.', '10a.m.–7p.m.', 'Closed', '10a.m.–7p.m.', '10a.m.–7p.m.']"
148,Gillian Edgeworth Hair Studio,"3 Cow's Ln, Temple Bar, Dublin",53.3439957,-6.2686208,,gillianedgeworth.ie,4.7,"['9a.m.–6p.m.', '9a.m.–8p.m.', '9a.m.–6p.m.', '9a.m.–5p.m.', 'Closed', 'Closed', '9a.m.–6p.m.']"
149,Michael Anthony Hair Salon,"37 Bird Ave, Gledswood Dr, Friarland, Clonskeagh, Co. Dublin, D14 HK50",53.3052052,-6.2372238,(01) 269 7476,None,5.0,[]
150,Peter Mark Hairdressers Mary Street,"23 Mary St, North City, Dublin 1, D01 AW27",53.348962,-6.265541,,,4.5,"['9a.m.–6p.m.', '9a.m.–8:30p.m.', '9a.m.–6:30p.m.', '9a.m.–6p.m.', '12–5:30p.m.', '9a.m.–6p.m.', '9a.m.–6p.m.']"
151,Gorgeous Hair Salon,"5 Maryfield Ave, Beaumont, Artane, Co. Dublin, D05 V2R2",53.3864736,-6.2117097,,None,4.5,"['9a.m.–5:30p.m.', '8a.m.–8p.m.', '8a.m.–8p.m.', '8a.m.–3p.m.', 'Closed', 'Closed', '9a.m.–5:30p.m.']"
152,Techniques Hair Company,"42 Aungier St, Dublin 2, D02 KP08",53.3384959,-6.2658736,(01) 478 9583,None,3.2,[]
153,Brown Sugar,"68 Ranelagh, Dublin, D06 V3F8",53.3249528,-6.2538715,,brownsugar.ie,4.6,"['8a.m.–8p.m.', '8a.m.–8p.m.', '8a.m.–8p.m.', '8a.m.–8p.m.', 'Closed', '8a.m.–8p.m.', '8a.m.–8p.m.']"
154,The Hive,"1 Dame Ln, Dublin, D02 V677",53.3437866,-6.262877599999999,,,5.0,"['10a.m.–9p.m.', '10a.m.–9p.m.', '10a.m.–7p.m.', '9a.m.–5:30p.m.', 'Closed', '10a.m.–6p.m.', '10a.m.–6p.m.']"
155,Salon 19,"19 Drury St, Dublin, D02 WK51",53.3420759,-6.263614,(01) 677 5043,None,5.0,[]
156,Carmeo Hair Salon,"44 Dorset Street Lower, Dublin, D01 F3C6",53.3600982,-6.2606209,,,4.6,"['9:30a.m.–6p.m.', '9:30a.m.–7p.m.', '9:30a.m.–7p.m.', '9:30a.m.–7p.m.', 'Closed', '9:30a.m.–6p.m.', '9:30a.m.–6p.m.']"
157,Mask Hair,"2 Grafton Street, Dublin, D02 Y527",53.3430367,-6.2592225,,maskhair.ie,4.9,"['11a.m.–7p.m.', '11a.m.–7p.m.', '10a.m.–6p.m.', '9:30a.m.–5p.m.', 'Closed', 'Closed', '10a.m.–6p.m.']"
158,Mont Ciara Hair and Beauty Salon,"76 Parnell St, Rotunda, Dublin 1, D01 W710",53.3526249,-6.2608893,(01) 558 0558,None,3.9,"['10:30a.m.–8p.m.', '10:30a.m.–8p.m.', '10:30a.m.–8p.m.', '10:30a.m.–8p.m.', '10:30a.m.–7:30p.m.', '10:30a.m.–8p.m.', '10:30a.m.–8p.m.']"
159,Hession Hairdressing,"108 Drumcondra Rd Upper, Ballybough, Dublin, D09 C576",53.3721967,-6.2525512,,,4.7,"['9:30a.m.–8p.m.', '9:30a.m.–8p.m.', '9:30a.m.–6p.m.', '9a.m.–5p.m.', 'Closed', '9:30a.m.–6p.m.', '9:30a.m.–6p.m.']"
160,World of Elegance,None,None,None,,,4.4,"['10a.m.–7p.m.', '10a.m.–8p.m.', '10a.m.–8p.m.', '9a.m.–5p.m.', 'Closed', '10a.m.–7p.m.', '10a.m.–7p.m.']"
161,Hillary.ie,None,None,None,,,4.8,"['9:30a.m.–8p.m.', '9:30a.m.–8p.m.', '9:30a.m.–8p.m.', '9a.m.–5:30p.m.', 'Closed', '9:30a.m.–6p.m.', '9:30a.m.–6p.m.']"
162,Cezanne Hair Studio,"34 Drury St, Dublin, D02 CF68",53.3427172,-6.2632124,(01) 679 4218,None,5.0,[]
163,Number 5 Andrew Street Hair Salon,"City Centre, 5 St Andrew's St, Dublin 2, D02 YD85",53.3432842,-6.2617854,,,4.9,"['10a.m.–7p.m.', '10a.m.–8p.m.', '10a.m.–7p.m.', '10a.m.–6p.m.', 'Closed', 'Closed', '10a.m.–6p.m.']"
164,Knights of the Green,"106, Stephens Green Shopping Centre, Dublin 2",53.340004,-6.2622729,,,4.5,"['9a.m.–6p.m.', '9a.m.–7p.m.', '9a.m.–7p.m.', '8:30a.m.–6p.m.', '11a.m.–6p.m.', '9a.m.–6p.m.', '9a.m.–6p.m.']"
165,Salon 14,None,None,None,,,4.1,"['10a.m.–7p.m.', '10a.m.–7p.m.', '10a.m.–7p.m.', '10a.m.–6p.m.', 'Closed', '10a.m.–6p.m.', '10a.m.–6p.m.']"
166,Rickyna Hair Salon Kimmage,"5 Sundrive Rd, Harold's Cross, Dublin, D12 VCW0",53.3198744,-6.2907041,,None,4.3,"['9:30a.m.–7p.m.', '9a.m.–7:30p.m.', '9a.m.–7:30p.m.', '9a.m.–7:30p.m.', '10a.m.–6p.m.', '9:30a.m.–7p.m.', '9:30a.m.–7p.m.']"
167,Youmei hair & beauty,None,None,None,,,4.5,"['10:30a.m.–7:30p.m.', '10a.m.–8p.m.', '10a.m.–8p.m.', '10a.m.–8p.m.', '10:30a.m.–7p.m.', '10:30a.m.–7:30p.m.', '10:30a.m.–7:30p.m.']"
168,Number 5 Andrew Street Hair Salon,"City Centre, 5 St Andrew's St, Dublin 2, D02 YD85",53.3432842,-6.2617854,,,4.9,"['10a.m.–7p.m.', '10a.m.–8p.m.', '10a.m.–7p.m.', '10a.m.–6p.m.', 'Closed', 'Closed', '10a.m.–6p.m.']"
169,Knights of the Green,"106, Stephens Green Shopping Centre, Dublin 2",53.340004,-6.2622729,(01) 478 0283,knightsbarbers.com,4.5,"['9a.m.–6p.m.', '9a.m.–7p.m.', '9a.m.–7p.m.', '8:30a.m.–6p.m.', '11a.m.–6p.m.', '9a.m.–6p.m.', '9a.m.–6p.m.']"
170,Salon 14,None,None,None,(01) 555 3596,salon14.mytreatwell.ie,4.1,"['10a.m.–7p.m.', '10a.m.–7p.m.', '10a.m.–7p.m.', '10a.m.–6p.m.', 'Closed', '10a.m.–6p.m.', '10a.m.–6p.m.']"
171,Rickyna Hair Salon Kimmage,"5 Sundrive Rd, Harold's Cross, Dublin, D12 VCW0",53.3198744,-6.2907041,(01) 406 7711,None,4.3,"['9:30a.m.–7p.m.', '9a.m.–7:30p.m.', '9a.m.–7:30p.m.', '9a.m.–7:30p.m.', '10a.m.–6p.m.', '9:30a.m.–7p.m.', '9:30a.m.–7p.m.']"
172,Youmei hair & beauty,None,None,None,089 982 3513,treatwell.ie,4.5,"['10:30a.m.–7:30p.m.', '10a.m.–8p.m.', '10a.m.–8p.m.', '10a.m.–8p.m.', '10:30a.m.–7p.m.', '10:30a.m.–7:30p.m.', '10:30a.m.–7:30p.m.']"
173,Number 5 Andrew Street Hair Salon,"City Centre, 5 St Andrew's St, Dublin 2, D02 YD85",53.3432842,-6.2617854,,,4.9,"['10a.m.–7p.m.', '10a.m.–8p.m.', '10a.m.–7p.m.', '10a.m.–6p.m.', 'Closed', 'Closed', '10a.m.–6p.m.']"
174,Knights of the Green,"106, Stephens Green Shopping Centre, Dublin 2",53.340004,-6.2622729,,,4.5,"['9a.m.–6p.m.', '9a.m.–7p.m.', '9a.m.–7p.m.', '8:30a.m.–6p.m.', '11a.m.–6p.m.', '9a.m.–6p.m.', '9a.m.–6p.m.']"
175,Salon 14,None,None,None,,,4.1,"['10a.m.–7p.m.', '10a.m.–7p.m.', '10a.m.–7p.m.', '10a.m.–6p.m.', 'Closed', '10a.m.–6p.m.', '10a.m.–6p.m.']"
176,Rickyna Hair Salon Kimmage,"5 Sundrive Rd, Harold's Cross, Dublin, D12 VCW0",53.3198744,-6.2907041,,None,4.3,"['9:30a.m.–7p.m.', '9a.m.–7:30p.m.', '9a.m.–7:30p.m.', '9a.m.–7:30p.m.', '10a.m.–6p.m.', '9:30a.m.–7p.m.', '9:30a.m.–7p.m.']"
177,Youmei hair & beauty,None,None,None,,,4.5,"['10:30a.m.–7:30p.m.', '10a.m.–8p.m.', '10a.m.–8p.m.', '10a.m.–8p.m.', '10:30a.m.–7p.m.', '10:30a.m.–7:30p.m.', '10:30a.m.–7:30p.m.']"
178,Number 5 Andrew Street Hair Salon,"City Centre, 5 St Andrew's St, Dublin 2, D02 YD85",53.3432842,-6.2617854,,,4.9,"['10a.m.–7p.m.', '10a.m.–8p.m.', '10a.m.–7p.m.', '10a.m.–6p.m.', 'Closed', 'Closed', '10a.m.–6p.m.']"
179,Knights of the Green,"106, Stephens Green Shopping Centre, Dublin 2",53.340004,-6.2622729,(01) 478 0283,knightsbarbers.com,4.5,"['9a.m.–6p.m.', '9a.m.–7p.m.', '9a.m.–7p.m.', '8:30a.m.–6p.m.', '11a.m.–6p.m.', '9a.m.–6p.m.', '9a.m.–6p.m.']"
180,Scruples Urban Hair Beauty Retreat,"54 Talbot St, Mountjoy, Dublin, D01 W6E5",53.3512217,-6.250621199999999,(01) 836 5994,scrupleshairsalon.ie,4.4,"['9a.m.–5:30p.m.', '9a.m.–7p.m.', '9a.m.–7p.m.', '9a.m.–5:30p.m.', 'Closed', '9a.m.–5:30p.m.', '9a.m.–5:30p.m.']"
181,The Crew,None,None,None,(01) 667 6099,None,4.4,"['9:30a.m.–7p.m.', '9:30a.m.–7p.m.', '9:30a.m.–7p.m.', '9a.m.–6p.m.', 'Closed', '9:30a.m.–7p.m.', '9:30a.m.–7p.m.']"
182,Origin Hair,"41 Ranelagh, Dublin 6, D06 AP97",53.3249068,-6.254327,(01) 497 1209,originhaircompany.com,4.7,"['9a.m.–7p.m.', '9a.m.–8p.m.', '9a.m.–7p.m.', '9a.m.–5p.m.', 'Closed', 'Closed', '9a.m.–6p.m.']"
183,Number 5 Andrew Street Hair Salon,"City Centre, 5 St Andrew's St, Dublin 2, D02 YD85",53.3432842,-6.2617854,,,4.9,"['10a.m.–7p.m.', '10a.m.–8p.m.', '10a.m.–7p.m.', '10a.m.–6p.m.', 'Closed', 'Closed', '10a.m.–6p.m.']"
184,Knights of the Green,"106, Stephens Green Shopping Centre, Dublin 2",53.340004,-6.2622729,,,4.5,"['9a.m.–6p.m.', '9a.m.–7p.m.', '9a.m.–7p.m.', '8:30a.m.–6p.m.', '11a.m.–6p.m.', '9a.m.–6p.m.', '9a.m.–6p.m.']"
185,Scruples Urban Hair Beauty Retreat,"54 Talbot St, Mountjoy, Dublin, D01 W6E5",53.3512217,-6.250621199999999,,,4.4,"['9a.m.–5:30p.m.', '9a.m.–7p.m.', '9a.m.–7p.m.', '9a.m.–5:30p.m.', 'Closed', '9a.m.–5:30p.m.', '9a.m.–5:30p.m.']"
186,The Crew,None,None,None,,None,4.4,"['9:30a.m.–7p.m.', '9:30a.m.–7p.m.', '9:30a.m.–7p.m.', '9a.m.–6p.m.', 'Closed', '9:30a.m.–7p.m.', '9:30a.m.–7p.m.']"
187,Origin Hair,"41 Ranelagh, Dublin 6, D06 AP97",53.3249068,-6.254327,,,4.7,"['9a.m.–7p.m.', '9a.m.–8p.m.', '9a.m.–7p.m.', '9a.m.–5p.m.', 'Closed', 'Closed', '9a.m.–6p.m.']"
188,Number 5 Andrew Street Hair Salon,"City Centre, 5 St Andrew's St, Dublin 2, D02 YD85",53.3432842,-6.2617854,,,4.9,"['10a.m.–7p.m.', '10a.m.–8p.m.', '10a.m.–7p.m.', '10a.m.–6p.m.', 'Closed', 'Closed', '10a.m.–6p.m.']"
189,Knights of the Green,"106, Stephens Green Shopping Centre, Dublin 2",53.340004,-6.2622729,(01) 478 0283,knightsbarbers.com,4.5,"['9a.m.–6p.m.', '9a.m.–7p.m.', '9a.m.–7p.m.', '8:30a.m.–6p.m.', '11a.m.–6p.m.', '9a.m.–6p.m.', '9a.m.–6p.m.']"
190,Scruples Urban Hair Beauty Retreat,"54 Talbot St, Mountjoy, Dublin, D01 W6E5",53.3512217,-6.250621199999999,(01) 836 5994,scrupleshairsalon.ie,4.4,"['9a.m.–5:30p.m.', '9a.m.–7p.m.', '9a.m.–7p.m.', '9a.m.–5:30p.m.', 'Closed', '9a.m.–5:30p.m.', '9a.m.–5:30p.m.']"
191,The Crew,None,None,None,(01) 667 6099,None,4.4,"['9:30a.m.–7p.m.', '9:30a.m.–7p.m.', '9:30a.m.–7p.m.', '9a.m.–6p.m.', 'Closed', '9:30a.m.–7p.m.', '9:30a.m.–7p.m.']"
192,Origin Hair,"41 Ranelagh, Dublin 6, D06 AP97",53.3249068,-6.254327,(01) 497 1209,originhaircompany.com,4.7,"['9a.m.–7p.m.', '9a.m.–8p.m.', '9a.m.–7p.m.', '9a.m.–5p.m.', 'Closed', 'Closed', '9a.m.–6p.m.']"
193,Number 5 Andrew Street Hair Salon,"City Centre, 5 St Andrew's St, Dublin 2, D02 YD85",53.3432842,-6.2617854,,,4.9,"['10a.m.–7p.m.', '10a.m.–8p.m.', '10a.m.–7p.m.', '10a.m.–6p.m.', 'Closed', 'Closed', '10a.m.–6p.m.']"
194,Knights of the Green,"106, Stephens Green Shopping Centre, Dublin 2",53.340004,-6.2622729,(01) 478 0283,knightsbarbers.com,4.5,"['9a.m.–6p.m.', '9a.m.–7p.m.', '9a.m.–7p.m.', '8:30a.m.–6p.m.', '11a.m.–6p.m.', '9a.m.–6p.m.', '9a.m.–6p.m.']"
195,Scruples Urban Hair Beauty Retreat,"54 Talbot St, Mountjoy, Dublin, D01 W6E5",53.3512217,-6.250621199999999,(01) 836 5994,scrupleshairsalon.ie,4.4,"['9a.m.–5:30p.m.', '9a.m.–7p.m.', '9a.m.–7p.m.', '9a.m.–5:30p.m.', 'Closed', '9a.m.–5:30p.m.', '9a.m.–5:30p.m.']"
196,The Crew,None,None,None,(01) 667 6099,None,4.4,"['9:30a.m.–7p.m.', '9:30a.m.–7p.m.', '9:30a.m.–7p.m.', '9a.m.–6p.m.', 'Closed', '9:30a.m.–7p.m.', '9:30a.m.–7p.m.']"
197,Origin Hair,"41 Ranelagh, Dublin 6, D06 AP97",53.3249068,-6.254327,(01) 497 1209,originhaircompany.com,4.7,"['9a.m.–7p.m.', '9a.m.–8p.m.', '9a.m.–7p.m.', '9a.m.–5p.m.', 'Closed', 'Closed', '9a.m.–6p.m.']"
198,Number 5 Andrew Street Hair Salon,"City Centre, 5 St Andrew's St, Dublin 2, D02 YD85",53.3432842,-6.2617854,,,4.9,"['10a.m.–7p.m.', '10a.m.–8p.m.', '10a.m.–7p.m.', '10a.m.–6p.m.', 'Closed', 'Closed', '10a.m.–6p.m.']"
199,Knights of the Green,"106, Stephens Green Shopping Centre, Dublin 2",53.340004,-6.2622729,(01) 478 0283,knightsbarbers.com,4.5,"['9a.m.–6p.m.', '9a.m.–7p.m.', '9a.m.–7p.m.', '8:30a.m.–6p.m.', '11a.m.–6p.m.', '9a.m.–6p.m.', '9a.m.–6p.m.']"
200,Scruples Urban Hair Beauty Retreat,"54 Talbot St, Mountjoy, Dublin, D01 W6E5",53.3512217,-6.250621199999999,(01) 836 5994,scrupleshairsalon.ie,4.4,"['9a.m.–5:30p.m.', '9a.m.–7p.m.', '9a.m.–7p.m.', '9a.m.–5:30p.m.', 'Closed', '9a.m.–5:30p.m.', '9a.m.–5:30p.m.']"
201,The Crew,None,None,None,(01) 667 6099,None,4.4,"['9:30a.m.–7p.m.', '9:30a.m.–7p.m.', '9:30a.m.–7p.m.', '9a.m.–6p.m.', 'Closed', '9:30a.m.–7p.m.', '9:30a.m.–7p.m.']"
202,Origin Hair,"41 Ranelagh, Dublin 6, D06 AP97",53.3249068,-6.254327,(01) 497 1209,originhaircompany.com,4.7,"['9a.m.–7p.m.', '9a.m.–8p.m.', '9a.m.–7p.m.', '9a.m.–5p.m.', 'Closed', 'Closed', '9a.m.–6p.m.']"
203,Number 5 Andrew Street Hair Salon,"City Centre, 5 St Andrew's St, Dublin 2, D02 YD85",53.3432842,-6.2617854,,,4.9,"['10a.m.–7p.m.', '10a.m.–8p.m.', '10a.m.–7p.m.', '10a.m.–6p.m.', 'Closed', 'Closed', '10a.m.–6p.m.']"
204,Knights of the Green,"106, Stephens Green Shopping Centre, Dublin 2",53.340004,-6.2622729,(01) 478 0283,knightsbarbers.com,4.5,"['9a.m.–6p.m.', '9a.m.–7p.m.', '9a.m.–7p.m.', '8:30a.m.–6p.m.', '11a.m.–6p.m.', '9a.m.–6p.m.', '9a.m.–6p.m.']"
205,Scruples Urban Hair Beauty Retreat,"54 Talbot St, Mountjoy, Dublin, D01 W6E5",53.3512217,-6.250621199999999,(01) 836 5994,scrupleshairsalon.ie,4.4,"['9a.m.–5:30p.m.', '9a.m.–7p.m.', '9a.m.–7p.m.', '9a.m.–5:30p.m.', 'Closed', '9a.m.–5:30p.m.', '9a.m.–5:30p.m.']"
206,The Crew,None,None,None,(01) 667 6099,None,4.4,"['9:30a.m.–7p.m.', '9:30a.m.–7p.m.', '9:30a.m.–7p.m.', '9a.m.–6p.m.', 'Closed', '9:30a.m.–7p.m.', '9:30a.m.–7p.m.']"
207,Origin Hair,"41 Ranelagh, Dublin 6, D06 AP97",53.3249068,-6.254327,(01) 497 1209,originhaircompany.com,4.7,"['9a.m.–7p.m.', '9a.m.–8p.m.', '9a.m.–7p.m.', '9a.m.–5p.m.', 'Closed', 'Closed', '9a.m.–6p.m.']"
208,Number 5 Andrew Street Hair Salon,"City Centre, 5 St Andrew's St, Dublin 2, D02 YD85",53.3432842,-6.2617854,,,4.9,"['10a.m.–7p.m.', '10a.m.–8p.m.', '10a.m.–7p.m.', '10a.m.–6p.m.', 'Closed', 'Closed', '10a.m.–6p.m.']"
209,Knights of the Green,"106, Stephens Green Shopping Centre, Dublin 2",53.340004,-6.2622729,(01) 478 0283,knightsbarbers.com,4.5,"['9a.m.–6p.m.', '9a.m.–7p.m.', '9a.m.–7p.m.', '8:30a.m.–6p.m.', '11a.m.–6p.m.', '9a.m.–6p.m.', '9a.m.–6p.m.']"
210,Scruples Urban Hair Beauty Retreat,"54 Talbot St, Mountjoy, Dublin, D01 W6E5",53.3512217,-6.250621199999999,(01) 836 5994,scrupleshairsalon.ie,4.4,"['9a.m.–5:30p.m.', '9a.m.–7p.m.', '9a.m.–7p.m.', '9a.m.–5:30p.m.', 'Closed', '9a.m.–5:30p.m.', '9a.m.–5:30p.m.']"
211,The Crew,None,None,None,(01) 667 6099,None,4.4,"['9:30a.m.–7p.m.', '9:30a.m.–7p.m.', '9:30a.m.–7p.m.', '9a.m.–6p.m.', 'Closed', '9:30a.m.–7p.m.', '9:30a.m.–7p.m.']"
212,Origin Hair,"41 Ranelagh, Dublin 6, D06 AP97",53.3249068,-6.254327,(01) 497 1209,originhaircompany.com,4.7,"['9a.m.–7p.m.', '9a.m.–8p.m.', '9a.m.–7p.m.', '9a.m.–5p.m.', 'Closed', 'Closed', '9a.m.–6p.m.']"
213,Number 5 Andrew Street Hair Salon,"City Centre, 5 St Andrew's St, Dublin 2, D02 YD85",53.3432842,-6.2617854,,,4.9,"['10a.m.–7p.m.', '10a.m.–8p.m.', '10a.m.–7p.m.', '10a.m.–6p.m.', 'Closed', 'Closed', '10a.m.–6p.m.']"
214,Knights of the Green,"106, Stephens Green Shopping Centre, Dublin 2",53.340004,-6.2622729,(01) 478 0283,knightsbarbers.com,4.5,"['9a.m.–6p.m.', '9a.m.–7p.m.', '9a.m.–7p.m.', '8:30a.m.–6p.m.', '11a.m.–6p.m.', '9a.m.–6p.m.', '9a.m.–6p.m.']"
215,Scruples Urban Hair Beauty Retreat,"54 Talbot St, Mountjoy, Dublin, D01 W6E5",53.3512217,-6.250621199999999,(01) 836 5994,scrupleshairsalon.ie,4.4,"['9a.m.–5:30p.m.', '9a.m.–7p.m.', '9a.m.–7p.m.', '9a.m.–5:30p.m.', 'Closed', '9a.m.–5:30p.m.', '9a.m.–5:30p.m.']"
216,The Crew,None,None,None,(01) 667 6099,None,4.4,"['9:30a.m.–7p.m.', '9:30a.m.–7p.m.', '9:30a.m.–7p.m.', '9a.m.–6p.m.', 'Closed', '9:30a.m.–7p.m.', '9:30a.m.–7p.m.']"
217,Origin Hair,"41 Ranelagh, Dublin 6, D06 AP97",53.3249068,-6.254327,(01) 497 1209,originhaircompany.com,4.7,"['9a.m.–7p.m.', '9a.m.–8p.m.', '9a.m.–7p.m.', '9a.m.–5p.m.', 'Closed', 'Closed', '9a.m.–6p.m.']"
218,Number 5 Andrew Street Hair Salon,"City Centre, 5 St Andrew's St, Dublin 2, D02 YD85",53.3432842,-6.2617854,,,4.9,"['10a.m.–7p.m.', '10a.m.–8p.m.', '10a.m.–7p.m.', '10a.m.–6p.m.', 'Closed', 'Closed', '10a.m.–6p.m.']"
219,Knights of the Green,"106, Stephens Green Shopping Centre, Dublin 2",53.340004,-6.2622729,(01) 478 0283,knightsbarbers.com,4.5,"['9a.m.–6p.m.', '9a.m.–7p.m.', '9a.m.–7p.m.', '8:30a.m.–6p.m.', '11a.m.–6p.m.', '9a.m.–6p.m.', '9a.m.–6p.m.']"
220,Scruples Urban Hair Beauty Retreat,"54 Talbot St, Mountjoy, Dublin, D01 W6E5",53.3512217,-6.250621199999999,(01) 836 5994,scrupleshairsalon.ie,4.4,"['9a.m.–5:30p.m.', '9a.m.–7p.m.', '9a.m.–7p.m.', '9a.m.–5:30p.m.', 'Closed', '9a.m.–5:30p.m.', '9a.m.–5:30p.m.']"
221,The Crew,None,None,None,(01) 667 6099,None,4.4,"['9:30a.m.–7p.m.', '9:30a.m.–7p.m.', '9:30a.m.–7p.m.', '9a.m.–6p.m.', 'Closed', '9:30a.m.–7p.m.', '9:30a.m.–7p.m.']"
222,Origin Hair,"41 Ranelagh, Dublin 6, D06 AP97",53.3249068,-6.254327,(01) 497 1209,originhaircompany.com,4.7,"['9a.m.–7p.m.', '9a.m.–8p.m.', '9a.m.–7p.m.', '9a.m.–5p.m.', 'Closed', 'Closed', '9a.m.–6p.m.']"
223,Number 5 Andrew Street Hair Salon,"City Centre, 5 St Andrew's St, Dublin 2, D02 YD85",53.3432842,-6.2617854,,,4.9,"['10a.m.–7p.m.', '10a.m.–8p.m.', '10a.m.–7p.m.', '10a.m.–6p.m.', 'Closed', 'Closed', '10a.m.–6p.m.']"
224,Knights of the Green,"106, Stephens Green Shopping Centre, Dublin 2",53.340004,-6.2622729,,,4.5,"['9a.m.–6p.m.', '9a.m.–7p.m.', '9a.m.–7p.m.', '8:30a.m.–6p.m.', '11a.m.–6p.m.', '9a.m.–6p.m.', '9a.m.–6p.m.']"
225,Scruples Urban Hair Beauty Retreat,"54 Talbot St, Mountjoy, Dublin, D01 W6E5",53.3512217,-6.250621199999999,,,4.4,"['9a.m.–5:30p.m.', '9a.m.–7p.m.', '9a.m.–7p.m.', '9a.m.–5:30p.m.', 'Closed', '9a.m.–5:30p.m.', '9a.m.–5:30p.m.']"
226,The Crew,None,None,None,,None,4.4,"['9:30a.m.–7p.m.', '9:30a.m.–7p.m.', '9:30a.m.–7p.m.', '9a.m.–6p.m.', 'Closed', '9:30a.m.–7p.m.', '9:30a.m.–7p.m.']"
227,Origin Hair,"41 Ranelagh, Dublin 6, D06 AP97",53.3249068,-6.254327,,,4.7,"['9a.m.–7p.m.', '9a.m.–8p.m.', '9a.m.–7p.m.', '9a.m.–5p.m.', 'Closed', 'Closed', '9a.m.–6p.m.']"
228,Foundation Hair,"18 Stephen Street Upper, Dublin, D08 PTD0",53.3414244,-6.2657444,,,4.9,"['9a.m.–5:30p.m.', '9a.m.–8p.m.', '9a.m.–5:30p.m.', '9a.m.–5:30p.m.', 'Closed', 'Closed', '9a.m.–5:30p.m.']"
229,Gabriel Professional Hair Salon,"59 King St N, Dublin",53.34973799999999,-6.27531,(01) 874 8290,None,5.0,[]
230,The Academy @ Robert Chambers Hairdressing,"Leverl 3, 69 Grafton Street, Dublin 2, D02 HC04",53.34107179999999,-6.2607051,,,None,"['9:30a.m.–5p.m.', '9:30a.m.–5p.m.', '9:30a.m.–5p.m.', 'Closed', 'Closed', '9:30a.m.–5p.m.', '9:30a.m.–5p.m.']"
231,Zeba Hairdressing Sandymount,"90 Sandymount Rd, Dublin 2, D04 X660",53.3328323,-6.215772299999999,,,4.4,"['9a.m.–6p.m.', '9a.m.–8p.m.', '9a.m.–7p.m.', '9a.m.–6p.m.', 'Closed', '9a.m.–6p.m.', '9a.m.–6p.m.']"
232,Rua Hair Salon,"52 Main St, Rathfarnham, Dublin 14, D14 YP66",53.29909610000001,-6.2850825,,,4.7,"['9a.m.–5:30p.m.', '9a.m.–8p.m.', '9a.m.–8p.m.', '9a.m.–5:30p.m.', 'Closed', 'Closed', '9a.m.–5:30p.m.']"
233,Number 5 Andrew Street Hair Salon,"City Centre, 5 St Andrew's St, Dublin 2, D02 YD85",53.3432842,-6.2617854,,,4.9,"['10a.m.–7p.m.', '10a.m.–8p.m.', '10a.m.–7p.m.', '10a.m.–6p.m.', 'Closed', 'Closed', '10a.m.–6p.m.']"
234,Knights of the Green,"106, Stephens Green Shopping Centre, Dublin 2",53.340004,-6.2622729,(01) 478 0283,knightsbarbers.com,4.5,"['9a.m.–6p.m.', '9a.m.–7p.m.', '9a.m.–7p.m.', '8:30a.m.–6p.m.', '11a.m.–6p.m.', '9a.m.–6p.m.', '9a.m.–6p.m.']"
235,Hair Performance Styling Salon,None,None,None,(01) 857 4028,facebook.com,4.9,[]
236,JH Hair Care,"84 Highfield Rd, Rathfarnham, Dublin 6, D06 RF97",53.3133606,-6.2648734,(01) 406 5522,jhhaircare.ie,5.0,"['9a.m.–6p.m.', '9a.m.–6p.m.', '9a.m.–6p.m.', '9a.m.–6p.m.', 'Closed', 'Closed', '9a.m.–5p.m.']"
237,Hair World Studio,"9 Moore St, North City, Dublin 1, D01 V227",53.35002300000001,-6.262162,None,None,None,"['Open 24 hours', 'Open 24 hours', 'Open 24 hours', 'Open 24 hours', 'Open 24 hours', 'Open 24 hours', 'Open 24 hours']"
238,Number 5 Andrew Street Hair Salon,"City Centre, 5 St Andrew's St, Dublin 2, D02 YD85",53.3432842,-6.2617854,,,4.9,"['10a.m.–7p.m.', '10a.m.–8p.m.', '10a.m.–7p.m.', '10a.m.–6p.m.', 'Closed', 'Closed', '10a.m.–6p.m.']"
239,Knights of the Green,"106, Stephens Green Shopping Centre, Dublin 2",53.340004,-6.2622729,(01) 478 0283,knightsbarbers.com,4.5,"['9a.m.–6p.m.', '9a.m.–7p.m.', '9a.m.–7p.m.', '8:30a.m.–6p.m.', '11a.m.–6p.m.', '9a.m.–6p.m.', '9a.m.–6p.m.']"
240,Hair Performance Styling Salon,None,None,None,(01) 857 4028,facebook.com,4.9,[]
241,JH Hair Care,"84 Highfield Rd, Rathfarnham, Dublin 6, D06 RF97",53.3133606,-6.2648734,(01) 406 5522,jhhaircare.ie,5.0,"['9a.m.–6p.m.', '9a.m.–6p.m.', '9a.m.–6p.m.', '9a.m.–6p.m.', 'Closed', 'Closed', '9a.m.–5p.m.']"
242,Hair World Studio,"9 Moore St, North City, Dublin 1, D01 V227",53.35002300000001,-6.262162,None,None,None,"['Open 24 hours', 'Open 24 hours', 'Open 24 hours', 'Open 24 hours', 'Open 24 hours', 'Open 24 hours', 'Open 24 hours']"
243,Number 5 Andrew Street Hair Salon,"City Centre, 5 St Andrew's St, Dublin 2, D02 YD85",53.3432842,-6.2617854,,,4.9,"['10a.m.–7p.m.', '10a.m.–8p.m.', '10a.m.–7p.m.', '10a.m.–6p.m.', 'Closed', 'Closed', '10a.m.–6p.m.']"
244,Knights of the Green,"106, Stephens Green Shopping Centre, Dublin 2",53.340004,-6.2622729,(01) 478 0283,knightsbarbers.com,4.5,"['9a.m.–6p.m.', '9a.m.–7p.m.', '9a.m.–7p.m.', '8:30a.m.–6p.m.', '11a.m.–6p.m.', '9a.m.–6p.m.', '9a.m.–6p.m.']"
245,Hair Performance Styling Salon,None,None,None,(01) 857 4028,facebook.com,4.9,[]
246,JH Hair Care,"84 Highfield Rd, Rathfarnham, Dublin 6, D06 RF97",53.3133606,-6.2648734,(01) 406 5522,jhhaircare.ie,5.0,"['9a.m.–6p.m.', '9a.m.–6p.m.', '9a.m.–6p.m.', '9a.m.–6p.m.', 'Closed', 'Closed', '9a.m.–5p.m.']"
247,Hair World Studio,"9 Moore St, North City, Dublin 1, D01 V227",53.35002300000001,-6.262162,None,None,None,"['Open 24 hours', 'Open 24 hours', 'Open 24 hours', 'Open 24 hours', 'Open 24 hours', 'Open 24 hours', 'Open 24 hours']"
248,Number 5 Andrew Street Hair Salon,"City Centre, 5 St Andrew's St, Dublin 2, D02 YD85",53.3432842,-6.2617854,,,4.9,"['10a.m.–7p.m.', '10a.m.–8p.m.', '10a.m.–7p.m.', '10a.m.–6p.m.', 'Closed', 'Closed', '10a.m.–6p.m.']"
249,Knights of the Green,"106, Stephens Green Shopping Centre, Dublin 2",53.340004,-6.2622729,(01) 478 0283,knightsbarbers.com,4.5,"['9a.m.–6p.m.', '9a.m.–7p.m.', '9a.m.–7p.m.', '8:30a.m.–6p.m.', '11a.m.–6p.m.', '9a.m.–6p.m.', '9a.m.–6p.m.']"
250,Hair Performance Styling Salon,None,None,None,(01) 857 4028,facebook.com,4.9,[]
251,JH Hair Care,"84 Highfield Rd, Rathfarnham, Dublin 6, D06 RF97",53.3133606,-6.2648734,(01) 406 5522,jhhaircare.ie,5.0,"['9a.m.–6p.m.', '9a.m.–6p.m.', '9a.m.–6p.m.', '9a.m.–6p.m.', 'Closed', 'Closed', '9a.m.–5p.m.']"
252,Hair World Studio,"9 Moore St, North City, Dublin 1, D01 V227",53.35002300000001,-6.262162,None,None,None,"['Open 24 hours', 'Open 24 hours', 'Open 24 hours', 'Open 24 hours', 'Open 24 hours', 'Open 24 hours', 'Open 24 hours']"
253,Number 5 Andrew Street Hair Salon,"City Centre, 5 St Andrew's St, Dublin 2, D02 YD85",53.3432842,-6.2617854,,,4.9,"['10a.m.–7p.m.', '10a.m.–8p.m.', '10a.m.–7p.m.', '10a.m.–6p.m.', 'Closed', 'Closed', '10a.m.–6p.m.']"
254,Knights of the Green,"106, Stephens Green Shopping Centre, Dublin 2",53.340004,-6.2622729,(01) 478 0283,knightsbarbers.com,4.5,"['9a.m.–6p.m.', '9a.m.–7p.m.', '9a.m.–7p.m.', '8:30a.m.–6p.m.', '11a.m.–6p.m.', '9a.m.–6p.m.', '9a.m.–6p.m.']"
255,Hair Performance Styling Salon,None,None,None,,,4.9,[]
256,JH Hair Care,"84 Highfield Rd, Rathfarnham, Dublin 6, D06 RF97",53.3133606,-6.2648734,,,5.0,"['9a.m.–6p.m.', '9a.m.–6p.m.', '9a.m.–6p.m.', '9a.m.–6p.m.', 'Closed', 'Closed', '9a.m.–5p.m.']"
257,Hair World Studio,"9 Moore St, North City, Dublin 1, D01 V227",53.35002300000001,-6.262162,None,None,None,"['Open 24 hours', 'Open 24 hours', 'Open 24 hours', 'Open 24 hours', 'Open 24 hours', 'Open 24 hours', 'Open 24 hours']"
258,Number 5 Andrew Street Hair Salon,"City Centre, 5 St Andrew's St, Dublin 2, D02 YD85",53.3432842,-6.2617854,,,4.9,"['10a.m.–7p.m.', '10a.m.–8p.m.', '10a.m.–7p.m.', '10a.m.–6p.m.', 'Closed', 'Closed', '10a.m.–6p.m.']"
259,Knights of the Green,"106, Stephens Green Shopping Centre, Dublin 2",53.340004,-6.2622729,(01) 478 0283,knightsbarbers.com,4.5,"['9a.m.–6p.m.', '9a.m.–7p.m.', '9a.m.–7p.m.', '8:30a.m.–6p.m.', '11a.m.–6p.m.', '9a.m.–6p.m.', '9a.m.–6p.m.']"
260,Hair Performance Styling Salon,None,None,None,(01) 857 4028,facebook.com,4.9,[]
261,JH Hair Care,"84 Highfield Rd, Rathfarnham, Dublin 6, D06 RF97",53.3133606,-6.2648734,(01) 406 5522,jhhaircare.ie,5.0,"['9a.m.–6p.m.', '9a.m.–6p.m.', '9a.m.–6p.m.', '9a.m.–6p.m.', 'Closed', 'Closed', '9a.m.–5p.m.']"
262,Hair World Studio,"9 Moore St, North City, Dublin 1, D01 V227",53.35002300000001,-6.262162,None,None,None,"['Open 24 hours', 'Open 24 hours', 'Open 24 hours', 'Open 24 hours', 'Open 24 hours', 'Open 24 hours', 'Open 24 hours']"
263,Number 5 Andrew Street Hair Salon,"City Centre, 5 St Andrew's St, Dublin 2, D02 YD85",53.3432842,-6.2617854,,,4.9,"['10a.m.–7p.m.', '10a.m.–8p.m.', '10a.m.–7p.m.', '10a.m.–6p.m.', 'Closed', 'Closed', '10a.m.–6p.m.']"
264,Knights of the Green,"106, Stephens Green Shopping Centre, Dublin 2",53.340004,-6.2622729,,,4.5,"['9a.m.–6p.m.', '9a.m.–7p.m.', '9a.m.–7p.m.', '8:30a.m.–6p.m.', '11a.m.–6p.m.', '9a.m.–6p.m.', '9a.m.–6p.m.']"
265,Hair Performance Styling Salon,None,None,None,,,4.9,[]
266,JH Hair Care,"84 Highfield Rd, Rathfarnham, Dublin 6, D06 RF97",53.3133606,-6.2648734,,,5.0,"['9a.m.–6p.m.', '9a.m.–6p.m.', '9a.m.–6p.m.', '9a.m.–6p.m.', 'Closed', 'Closed', '9a.m.–5p.m.']"
267,Hair World Studio,"9 Moore St, North City, Dublin 1, D01 V227",53.35002300000001,-6.262162,None,None,None,"['Open 24 hours', 'Open 24 hours', 'Open 24 hours', 'Open 24 hours', 'Open 24 hours', 'Open 24 hours', 'Open 24 hours']"
268,Number 5 Andrew Street Hair Salon,"City Centre, 5 St Andrew's St, Dublin 2, D02 YD85",53.3432842,-6.2617854,,,4.9,"['10a.m.–7p.m.', '10a.m.–8p.m.', '10a.m.–7p.m.', '10a.m.–6p.m.', 'Closed', 'Closed', '10a.m.–6p.m.']"
269,Knights of the Green,"106, Stephens Green Shopping Centre, Dublin 2",53.340004,-6.2622729,,,4.5,"['9a.m.–6p.m.', '9a.m.–7p.m.', '9a.m.–7p.m.', '8:30a.m.–6p.m.', '11a.m.–6p.m.', '9a.m.–6p.m.', '9a.m.–6p.m.']"
270,Hair Performance Styling Salon,None,None,None,,,4.9,[]
271,JH Hair Care,"84 Highfield Rd, Rathfarnham, Dublin 6, D06 RF97",53.3133606,-6.2648734,,,5.0,"['9a.m.–6p.m.', '9a.m.–6p.m.', '9a.m.–6p.m.', '9a.m.–6p.m.', 'Closed', 'Closed', '9a.m.–5p.m.']"
272,Hair World Studio,"9 Moore St, North City, Dublin 1, D01 V227",53.35002300000001,-6.262162,None,None,None,"['Open 24 hours', 'Open 24 hours', 'Open 24 hours', 'Open 24 hours', 'Open 24 hours', 'Open 24 hours', 'Open 24 hours']"
273,Number 5 Andrew Street Hair Salon,"City Centre, 5 St Andrew's St, Dublin 2, D02 YD85",53.3432842,-6.2617854,,,4.9,"['10a.m.–7p.m.', '10a.m.–8p.m.', '10a.m.–7p.m.', '10a.m.–6p.m.', 'Closed', 'Closed', '10a.m.–6p.m.']"
274,Knights of the Green,"106, Stephens Green Shopping Centre, Dublin 2",53.340004,-6.2622729,,,4.5,"['9a.m.–6p.m.', '9a.m.–7p.m.', '9a.m.–7p.m.', '8:30a.m.–6p.m.', '11a.m.–6p.m.', '9a.m.–6p.m.', '9a.m.–6p.m.']"
275,Hair Performance Styling Salon,None,None,None,,,4.9,[]
276,JH Hair Care,"84 Highfield Rd, Rathfarnham, Dublin 6, D06 RF97",53.3133606,-6.2648734,,,5.0,"['9a.m.–6p.m.', '9a.m.–6p.m.', '9a.m.–6p.m.', '9a.m.–6p.m.', 'Closed', 'Closed', '9a.m.–5p.m.']"
277,Hair World Studio,"9 Moore St, North City, Dublin 1, D01 V227",53.35002300000001,-6.262162,None,None,None,"['Open 24 hours', 'Open 24 hours', 'Open 24 hours', 'Open 24 hours', 'Open 24 hours', 'Open 24 hours', 'Open 24 hours']"
278,Number 5 Andrew Street Hair Salon,"City Centre, 5 St Andrew's St, Dublin 2, D02 YD85",53.3432842,-6.2617854,,,4.9,"['10a.m.–7p.m.', '10a.m.–8p.m.', '10a.m.–7p.m.', '10a.m.–6p.m.', 'Closed', 'Closed', '10a.m.–6p.m.']"
279,Knights of the Green,"106, Stephens Green Shopping Centre, Dublin 2",53.340004,-6.2622729,(01) 478 0283,knightsbarbers.com,4.5,"['9a.m.–6p.m.', '9a.m.–7p.m.', '9a.m.–7p.m.', '8:30a.m.–6p.m.', '11a.m.–6p.m.', '9a.m.–6p.m.', '9a.m.–6p.m.']"
280,Hair Performance Styling Salon,None,None,None,(01) 857 4028,facebook.com,4.9,[]
281,JH Hair Care,"84 Highfield Rd, Rathfarnham, Dublin 6, D06 RF97",53.3133606,-6.2648734,(01) 406 5522,jhhaircare.ie,5.0,"['9a.m.–6p.m.', '9a.m.–6p.m.', '9a.m.–6p.m.', '9a.m.–6p.m.', 'Closed', 'Closed', '9a.m.–5p.m.']"
282,Hair World Studio,"9 Moore St, North City, Dublin 1, D01 V227",53.35002300000001,-6.262162,None,None,None,"['Open 24 hours', 'Open 24 hours', 'Open 24 hours', 'Open 24 hours', 'Open 24 hours', 'Open 24 hours', 'Open 24 hours']"
283,Number 5 Andrew Street Hair Salon,"City Centre, 5 St Andrew's St, Dublin 2, D02 YD85",53.3432842,-6.2617854,,,4.9,"['10a.m.–7p.m.', '10a.m.–8p.m.', '10a.m.–7p.m.', '10a.m.–6p.m.', 'Closed', 'Closed', '10a.m.–6p.m.']"
284,Knights of the Green,"106, Stephens Green Shopping Centre, Dublin 2",53.340004,-6.2622729,(01) 478 0283,knightsbarbers.com,4.5,"['9a.m.–6p.m.', '9a.m.–7p.m.', '9a.m.–7p.m.', '8:30a.m.–6p.m.', '11a.m.–6p.m.', '9a.m.–6p.m.', '9a.m.–6p.m.']"
285,Hair Performance Styling Salon,None,None,None,(01) 857 4028,facebook.com,4.9,[]
286,JH Hair Care,"84 Highfield Rd, Rathfarnham, Dublin 6, D06 RF97",53.3133606,-6.2648734,(01) 406 5522,jhhaircare.ie,5.0,"['9a.m.–6p.m.', '9a.m.–6p.m.', '9a.m.–6p.m.', '9a.m.–6p.m.', 'Closed', 'Closed', '9a.m.–5p.m.']"
287,Hair World Studio,"9 Moore St, North City, Dublin 1, D01 V227",53.35002300000001,-6.262162,None,None,None,"['Open 24 hours', 'Open 24 hours', 'Open 24 hours', 'Open 24 hours', 'Open 24 hours', 'Open 24 hours', 'Open 24 hours']"
288,Number 5 Andrew Street Hair Salon,"City Centre, 5 St Andrew's St, Dublin 2, D02 YD85",53.3432842,-6.2617854,,,4.9,"['10a.m.–7p.m.', '10a.m.–8p.m.', '10a.m.–7p.m.', '10a.m.–6p.m.', 'Closed', 'Closed', '10a.m.–6p.m.']"
289,Knights of the Green,"106, Stephens Green Shopping Centre, Dublin 2",53.340004,-6.2622729,(01) 478 0283,knightsbarbers.com,4.5,"['9a.m.–6p.m.', '9a.m.–7p.m.', '9a.m.–7p.m.', '8:30a.m.–6p.m.', '11a.m.–6p.m.', '9a.m.–6p.m.', '9a.m.–6p.m.']"
290,Hair Performance Styling Salon,None,None,None,(01) 857 4028,facebook.com,4.9,[]
291,JH Hair Care,"84 Highfield Rd, Rathfarnham, Dublin 6, D06 RF97",53.3133606,-6.2648734,(01) 406 5522,jhhaircare.ie,5.0,"['9a.m.–6p.m.', '9a.m.–6p.m.', '9a.m.–6p.m.', '9a.m.–6p.m.', 'Closed', 'Closed', '9a.m.–5p.m.']"
292,Hair World Studio,"9 Moore St, North City, Dublin 1, D01 V227",53.35002300000001,-6.262162,None,None,None,"['Open 24 hours', 'Open 24 hours', 'Open 24 hours', 'Open 24 hours', 'Open 24 hours', 'Open 24 hours', 'Open 24 hours']"
293,Number 5 Andrew Street Hair Salon,"City Centre, 5 St Andrew's St, Dublin 2, D02 YD85",53.3432842,-6.2617854,,,4.9,"['10a.m.–7p.m.', '10a.m.–8p.m.', '10a.m.–7p.m.', '10a.m.–6p.m.', 'Closed', 'Closed', '10a.m.–6p.m.']"
294,Knights of the Green,"106, Stephens Green Shopping Centre, Dublin 2",53.340004,-6.2622729,(01) 478 0283,knightsbarbers.com,4.5,"['9a.m.–6p.m.', '9a.m.–7p.m.', '9a.m.–7p.m.', '8:30a.m.–6p.m.', '11a.m.–6p.m.', '9a.m.–6p.m.', '9a.m.–6p.m.']"
295,Hair Performance Styling Salon,None,None,None,(01) 857 4028,facebook.com,4.9,[]
296,JH Hair Care,"84 Highfield Rd, Rathfarnham, Dublin 6, D06 RF97",53.3133606,-6.2648734,(01) 406 5522,jhhaircare.ie,5.0,"['9a.m.–6p.m.', '9a.m.–6p.m.', '9a.m.–6p.m.', '9a.m.–6p.m.', 'Closed', 'Closed', '9a.m.–5p.m.']"
297,Hair World Studio,"9 Moore St, North City, Dublin 1, D01 V227",53.35002300000001,-6.262162,None,None,None,"['Open 24 hours', 'Open 24 hours', 'Open 24 hours', 'Open 24 hours', 'Open 24 hours', 'Open 24 hours', 'Open 24 hours']"
298,Number 5 Andrew Street Hair Salon,"City Centre, 5 St Andrew's St, Dublin 2, D02 YD85",53.3432842,-6.2617854,,,4.9,"['10a.m.–7p.m.', '10a.m.–8p.m.', '10a.m.–7p.m.', '10a.m.–6p.m.', 'Closed', 'Closed', '10a.m.–6p.m.']"
299,Knights of the Green,"106, Stephens Green Shopping Centre, Dublin 2",53.340004,-6.2622729,(01) 478 0283,knightsbarbers.com,4.5,"['9a.m.–6p.m.', '9a.m.–7p.m.', '9a.m.–7p.m.', '8:30a.m.–6p.m.', '11a.m.–6p.m.', '9a.m.–6p.m.', '9a.m.–6p.m.']"
300,Hair Performance Styling Salon,None,None,None,(01) 857 4028,facebook.com,4.9,[]
301,JH Hair Care,"84 Highfield Rd, Rathfarnham, Dublin 6, D06 RF97",53.3133606,-6.2648734,(01) 406 5522,jhhaircare.ie,5.0,"['9a.m.–6p.m.', '9a.m.–6p.m.', '9a.m.–6p.m.', '9a.m.–6p.m.', 'Closed', 'Closed', '9a.m.–5p.m.']"
302,Hair World Studio,"9 Moore St, North City, Dublin 1, D01 V227",53.35002300000001,-6.262162,None,None,None,"['Open 24 hours', 'Open 24 hours', 'Open 24 hours', 'Open 24 hours', 'Open 24 hours', 'Open 24 hours', 'Open 24 hours']"
303,Number 5 Andrew Street Hair Salon,"City Centre, 5 St Andrew's St, Dublin 2, D02 YD85",53.3432842,-6.2617854,,,4.9,"['10a.m.–7p.m.', '10a.m.–8p.m.', '10a.m.–7p.m.', '10a.m.–6p.m.', 'Closed', 'Closed', '10a.m.–6p.m.']"
304,Knights of the Green,"106, Stephens Green Shopping Centre, Dublin 2",53.340004,-6.2622729,(01) 478 0283,knightsbarbers.com,4.5,"['9a.m.–6p.m.', '9a.m.–7p.m.', '9a.m.–7p.m.', '8:30a.m.–6p.m.', '11a.m.–6p.m.', '9a.m.–6p.m.', '9a.m.–6p.m.']"
305,Hair Performance Styling Salon,None,None,None,(01) 857 4028,facebook.com,4.9,[]
306,JH Hair Care,"84 Highfield Rd, Rathfarnham, Dublin 6, D06 RF97",53.3133606,-6.2648734,(01) 406 5522,jhhaircare.ie,5.0,"['9a.m.–6p.m.', '9a.m.–6p.m.', '9a.m.–6p.m.', '9a.m.–6p.m.', 'Closed', 'Closed', '9a.m.–5p.m.']"
307,Hair World Studio,"9 Moore St, North City, Dublin 1, D01 V227",53.35002300000001,-6.262162,None,None,None,"['Open 24 hours', 'Open 24 hours', 'Open 24 hours', 'Open 24 hours', 'Open 24 hours', 'Open 24 hours', 'Open 24 hours']"
308,Number 5 Andrew Street Hair Salon,"City Centre, 5 St Andrew's St, Dublin 2, D02 YD85",53.3432842,-6.2617854,,,4.9,"['10a.m.–7p.m.', '10a.m.–8p.m.', '10a.m.–7p.m.', '10a.m.–6p.m.', 'Closed', 'Closed', '10a.m.–6p.m.']"
309,Knights of the Green,"106, Stephens Green Shopping Centre, Dublin 2",53.340004,-6.2622729,(01) 478 0283,knightsbarbers.com,4.5,"['9a.m.–6p.m.', '9a.m.–7p.m.', '9a.m.–7p.m.', '8:30a.m.–6p.m.', '11a.m.–6p.m.', '9a.m.–6p.m.', '9a.m.–6p.m.']"
310,Hair Performance Styling Salon,None,None,None,(01) 857 4028,facebook.com,4.9,[]
311,JH Hair Care,"84 Highfield Rd, Rathfarnham, Dublin 6, D06 RF97",53.3133606,-6.2648734,(01) 406 5522,jhhaircare.ie,5.0,"['9a.m.–6p.m.', '9a.m.–6p.m.', '9a.m.–6p.m.', '9a.m.–6p.m.', 'Closed', 'Closed', '9a.m.–5p.m.']"
312,Hair World Studio,"9 Moore St, North City, Dublin 1, D01 V227",53.35002300000001,-6.262162,None,None,None,"['Open 24 hours', 'Open 24 hours', 'Open 24 hours', 'Open 24 hours', 'Open 24 hours', 'Open 24 hours', 'Open 24 hours']"
313,Number 5 Andrew Street Hair Salon,"City Centre, 5 St Andrew's St, Dublin 2, D02 YD85",53.3432842,-6.2617854,,,4.9,"['10a.m.–7p.m.', '10a.m.–8p.m.', '10a.m.–7p.m.', '10a.m.–6p.m.', 'Closed', 'Closed', '10a.m.–6p.m.']"
314,Knights of the Green,"106, Stephens Green Shopping Centre, Dublin 2",53.340004,-6.2622729,(01) 478 0283,knightsbarbers.com,4.5,"['9a.m.–6p.m.', '9a.m.–7p.m.', '9a.m.–7p.m.', '8:30a.m.–6p.m.', '11a.m.–6p.m.', '9a.m.–6p.m.', '9a.m.–6p.m.']"
315,Hair Performance Styling Salon,None,None,None,(01) 857 4028,facebook.com,4.9,[]
316,JH Hair Care,"84 Highfield Rd, Rathfarnham, Dublin 6, D06 RF97",53.3133606,-6.2648734,(01) 406 5522,jhhaircare.ie,5.0,"['9a.m.–6p.m.', '9a.m.–6p.m.', '9a.m.–6p.m.', '9a.m.–6p.m.', 'Closed', 'Closed', '9a.m.–5p.m.']"
317,Hair World Studio,"9 Moore St, North City, Dublin 1, D01 V227",53.35002300000001,-6.262162,None,None,None,"['Open 24 hours', 'Open 24 hours', 'Open 24 hours', 'Open 24 hours', 'Open 24 hours', 'Open 24 hours', 'Open 24 hours']"
318,Number 5 Andrew Street Hair Salon,"City Centre, 5 St Andrew's St, Dublin 2, D02 YD85",53.3432842,-6.2617854,,,4.9,"['10a.m.–7p.m.', '10a.m.–8p.m.', '10a.m.–7p.m.', '10a.m.–6p.m.', 'Closed', 'Closed', '10a.m.–6p.m.']"
319,Knights of the Green,"106, Stephens Green Shopping Centre, Dublin 2",53.340004,-6.2622729,(01) 478 0283,knightsbarbers.com,4.5,"['9a.m.–6p.m.', '9a.m.–7p.m.', '9a.m.–7p.m.', '8:30a.m.–6p.m.', '11a.m.–6p.m.', '9a.m.–6p.m.', '9a.m.–6p.m.']"
320,Hair Performance Styling Salon,None,None,None,(01) 857 4028,facebook.com,4.9,[]
321,JH Hair Care,"84 Highfield Rd, Rathfarnham, Dublin 6, D06 RF97",53.3133606,-6.2648734,(01) 406 5522,jhhaircare.ie,5.0,"['9a.m.–6p.m.', '9a.m.–6p.m.', '9a.m.–6p.m.', '9a.m.–6p.m.', 'Closed', 'Closed', '9a.m.–5p.m.']"
322,Hair World Studio,"9 Moore St, North City, Dublin 1, D01 V227",53.35002300000001,-6.262162,None,None,None,"['Open 24 hours', 'Open 24 hours', 'Open 24 hours', 'Open 24 hours', 'Open 24 hours', 'Open 24 hours', 'Open 24 hours']"
323,Number 5 Andrew Street Hair Salon,"City Centre, 5 St Andrew's St, Dublin 2, D02 YD85",53.3432842,-6.2617854,,,4.9,"['10a.m.–7p.m.', '10a.m.–8p.m.', '10a.m.–7p.m.', '10a.m.–6p.m.', 'Closed', 'Closed', '10a.m.–6p.m.']"
324,Knights of the Green,"106, Stephens Green Shopping Centre, Dublin 2",53.340004,-6.2622729,(01) 478 0283,knightsbarbers.com,4.5,"['9a.m.–6p.m.', '9a.m.–7p.m.', '9a.m.–7p.m.', '8:30a.m.–6p.m.', '11a.m.–6p.m.', '9a.m.–6p.m.', '9a.m.–6p.m.']"
325,Hair Performance Styling Salon,None,None,None,(01) 857 4028,facebook.com,4.9,[]
326,JH Hair Care,"84 Highfield Rd, Rathfarnham, Dublin 6, D06 RF97",53.3133606,-6.2648734,(01) 406 5522,jhhaircare.ie,5.0,"['9a.m.–6p.m.', '9a.m.–6p.m.', '9a.m.–6p.m.', '9a.m.–6p.m.', 'Closed', 'Closed', '9a.m.–5p.m.']"
327,Hair World Studio,"9 Moore St, North City, Dublin 1, D01 V227",53.35002300000001,-6.262162,None,None,None,"['Open 24 hours', 'Open 24 hours', 'Open 24 hours', 'Open 24 hours', 'Open 24 hours', 'Open 24 hours', 'Open 24 hours']"
328,Number 5 Andrew Street Hair Salon,"City Centre, 5 St Andrew's St, Dublin 2, D02 YD85",53.3432842,-6.2617854,,,4.9,"['10a.m.–7p.m.', '10a.m.–8p.m.', '10a.m.–7p.m.', '10a.m.–6p.m.', 'Closed', 'Closed', '10a.m.–6p.m.']"
329,Knights of the Green,"106, Stephens Green Shopping Centre, Dublin 2",53.340004,-6.2622729,(01) 478 0283,knightsbarbers.com,4.5,"['9a.m.–6p.m.', '9a.m.–7p.m.', '9a.m.–7p.m.', '8:30a.m.–6p.m.', '11a.m.–6p.m.', '9a.m.–6p.m.', '9a.m.–6p.m.']"
330,Hair Performance Styling Salon,None,None,None,(01) 857 4028,facebook.com,4.9,[]
331,JH Hair Care,"84 Highfield Rd, Rathfarnham, Dublin 6, D06 RF97",53.3133606,-6.2648734,(01) 406 5522,jhhaircare.ie,5.0,"['9a.m.–6p.m.', '9a.m.–6p.m.', '9a.m.–6p.m.', '9a.m.–6p.m.', 'Closed', 'Closed', '9a.m.–5p.m.']"
332,Hair World Studio,"9 Moore St, North City, Dublin 1, D01 V227",53.35002300000001,-6.262162,None,None,None,"['Open 24 hours', 'Open 24 hours', 'Open 24 hours', 'Open 24 hours', 'Open 24 hours', 'Open 24 hours', 'Open 24 hours']"
333,Number 5 Andrew Street Hair Salon,"City Centre, 5 St Andrew's St, Dublin 2, D02 YD85",53.3432842,-6.2617854,,,4.9,"['10a.m.–7p.m.', '10a.m.–8p.m.', '10a.m.–7p.m.', '10a.m.–6p.m.', 'Closed', 'Closed', '10a.m.–6p.m.']"
334,Knights of the Green,"106, Stephens Green Shopping Centre, Dublin 2",53.340004,-6.2622729,(01) 478 0283,knightsbarbers.com,4.5,"['9a.m.–6p.m.', '9a.m.–7p.m.', '9a.m.–7p.m.', '8:30a.m.–6p.m.', '11a.m.–6p.m.', '9a.m.–6p.m.', '9a.m.–6p.m.']"
335,Hair Performance Styling Salon,None,None,None,(01) 857 4028,facebook.com,4.9,[]
336,JH Hair Care,"84 Highfield Rd, Rathfarnham, Dublin 6, D06 RF97",53.3133606,-6.2648734,(01) 406 5522,jhhaircare.ie,5.0,"['9a.m.–6p.m.', '9a.m.–6p.m.', '9a.m.–6p.m.', '9a.m.–6p.m.', 'Closed', 'Closed', '9a.m.–5p.m.']"
337,Hair World Studio,"9 Moore St, North City, Dublin 1, D01 V227",53.35002300000001,-6.262162,None,None,None,"['Open 24 hours', 'Open 24 hours', 'Open 24 hours', 'Open 24 hours', 'Open 24 hours', 'Open 24 hours', 'Open 24 hours']"
338,Number 5 Andrew Street Hair Salon,"City Centre, 5 St Andrew's St, Dublin 2, D02 YD85",53.3432842,-6.2617854,,,4.9,"['10a.m.–7p.m.', '10a.m.–8p.m.', '10a.m.–7p.m.', '10a.m.–6p.m.', 'Closed', 'Closed', '10a.m.–6p.m.']"
339,Knights of the Green,"106, Stephens Green Shopping Centre, Dublin 2",53.340004,-6.2622729,(01) 478 0283,knightsbarbers.com,4.5,"['9a.m.–6p.m.', '9a.m.–7p.m.', '9a.m.–7p.m.', '8:30a.m.–6p.m.', '11a.m.–6p.m.', '9a.m.–6p.m.', '9a.m.–6p.m.']"
340,Hair Performance Styling Salon,None,None,None,(01) 857 4028,facebook.com,4.9,[]
341,JH Hair Care,"84 Highfield Rd, Rathfarnham, Dublin 6, D06 RF97",53.3133606,-6.2648734,(01) 406 5522,jhhaircare.ie,5.0,"['9a.m.–6p.m.', '9a.m.–6p.m.', '9a.m.–6p.m.', '9a.m.–6p.m.', 'Closed', 'Closed', '9a.m.–5p.m.']"
342,Hair World Studio,"9 Moore St, North City, Dublin 1, D01 V227",53.35002300000001,-6.262162,None,None,None,"['Open 24 hours', 'Open 24 hours', 'Open 24 hours', 'Open 24 hours', 'Open 24 hours', 'Open 24 hours', 'Open 24 hours']"
343,Number 5 Andrew Street Hair Salon,"City Centre, 5 St Andrew's St, Dublin 2, D02 YD85",53.3432842,-6.2617854,,,4.9,"['10a.m.–7p.m.', '10a.m.–8p.m.', '10a.m.–7p.m.', '10a.m.–6p.m.', 'Closed', 'Closed', '10a.m.–6p.m.']"
344,Knights of the Green,"106, Stephens Green Shopping Centre, Dublin 2",53.340004,-6.2622729,(01) 478 0283,knightsbarbers.com,4.5,"['9a.m.–6p.m.', '9a.m.–7p.m.', '9a.m.–7p.m.', '8:30a.m.–6p.m.', '11a.m.–6p.m.', '9a.m.–6p.m.', '9a.m.–6p.m.']"
345,Hair Performance Styling Salon,None,None,None,(01) 857 4028,facebook.com,4.9,[]
346,JH Hair Care,"84 Highfield Rd, Rathfarnham, Dublin 6, D06 RF97",53.3133606,-6.2648734,(01) 406 5522,jhhaircare.ie,5.0,"['9a.m.–6p.m.', '9a.m.–6p.m.', '9a.m.–6p.m.', '9a.m.–6p.m.', 'Closed', 'Closed', '9a.m.–5p.m.']"
347,Hair World Studio,"9 Moore St, North City, Dublin 1, D01 V227",53.35002300000001,-6.262162,None,None,None,"['Open 24 hours', 'Open 24 hours', 'Open 24 hours', 'Open 24 hours', 'Open 24 hours', 'Open 24 hours', 'Open 24 hours']"
348,Number 5 Andrew Street Hair Salon,"City Centre, 5 St Andrew's St, Dublin 2, D02 YD85",53.3432842,-6.2617854,,,4.9,"['10a.m.–7p.m.', '10a.m.–8p.m.', '10a.m.–7p.m.', '10a.m.–6p.m.', 'Closed', 'Closed', '10a.m.–6p.m.']"
349,Knights of the Green,"106, Stephens Green Shopping Centre, Dublin 2",53.340004,-6.2622729,(01) 478 0283,knightsbarbers.com,4.5,"['9a.m.–6p.m.', '9a.m.–7p.m.', '9a.m.–7p.m.', '8:30a.m.–6p.m.', '11a.m.–6p.m.', '9a.m.–6p.m.', '9a.m.–6p.m.']"
350,Hair Performance Styling Salon,None,None,None,(01) 857 4028,facebook.com,4.9,[]
351,JH Hair Care,"84 Highfield Rd, Rathfarnham, Dublin 6, D06 RF97",53.3133606,-6.2648734,(01) 406 5522,jhhaircare.ie,5.0,"['9a.m.–6p.m.', '9a.m.–6p.m.', '9a.m.–6p.m.', '9a.m.–6p.m.', 'Closed', 'Closed', '9a.m.–5p.m.']"
352,Hair World Studio,"9 Moore St, North City, Dublin 1, D01 V227",53.35002300000001,-6.262162,None,None,None,"['Open 24 hours', 'Open 24 hours', 'Open 24 hours', 'Open 24 hours', 'Open 24 hours', 'Open 24 hours', 'Open 24 hours']"
353,Number 5 Andrew Street Hair Salon,"City Centre, 5 St Andrew's St, Dublin 2, D02 YD85",53.3432842,-6.2617854,,,4.9,"['10a.m.–7p.m.', '10a.m.–8p.m.', '10a.m.–7p.m.', '10a.m.–6p.m.', 'Closed', 'Closed', '10a.m.–6p.m.']"
354,Knights of the Green,"106, Stephens Green Shopping Centre, Dublin 2",53.340004,-6.2622729,(01) 478 0283,knightsbarbers.com,4.5,"['9a.m.–6p.m.', '9a.m.–7p.m.', '9a.m.–7p.m.', '8:30a.m.–6p.m.', '11a.m.–6p.m.', '9a.m.–6p.m.', '9a.m.–6p.m.']"
355,Hair Performance Styling Salon,None,None,None,(01) 857 4028,facebook.com,4.9,[]
356,JH Hair Care,"84 Highfield Rd, Rathfarnham, Dublin 6, D06 RF97",53.3133606,-6.2648734,(01) 406 5522,jhhaircare.ie,5.0,"['9a.m.–6p.m.', '9a.m.–6p.m.', '9a.m.–6p.m.', '9a.m.–6p.m.', 'Closed', 'Closed', '9a.m.–5p.m.']"
357,Hair World Studio,"9 Moore St, North City, Dublin 1, D01 V227",53.35002300000001,-6.262162,None,None,None,"['Open 24 hours', 'Open 24 hours', 'Open 24 hours', 'Open 24 hours', 'Open 24 hours', 'Open 24 hours', 'Open 24 hours']"
358,Number 5 Andrew Street Hair Salon,"City Centre, 5 St Andrew's St, Dublin 2, D02 YD85",53.3432842,-6.2617854,,,4.9,"['10a.m.–7p.m.', '10a.m.–8p.m.', '10a.m.–7p.m.', '10a.m.–6p.m.', 'Closed', 'Closed', '10a.m.–6p.m.']"
359,Knights of the Green,"106, Stephens Green Shopping Centre, Dublin 2",53.340004,-6.2622729,(01) 478 0283,knightsbarbers.com,4.5,"['9a.m.–6p.m.', '9a.m.–7p.m.', '9a.m.–7p.m.', '8:30a.m.–6p.m.', '11a.m.–6p.m.', '9a.m.–6p.m.', '9a.m.–6p.m.']"
360,Hair Performance Styling Salon,None,None,None,(01) 857 4028,facebook.com,4.9,[]
361,JH Hair Care,"84 Highfield Rd, Rathfarnham, Dublin 6, D06 RF97",53.3133606,-6.2648734,(01) 406 5522,jhhaircare.ie,5.0,"['9a.m.–6p.m.', '9a.m.–6p.m.', '9a.m.–6p.m.', '9a.m.–6p.m.', 'Closed', 'Closed', '9a.m.–5p.m.']"
362,Hair World Studio,"9 Moore St, North City, Dublin 1, D01 V227",53.35002300000001,-6.262162,None,None,None,"['Open 24 hours', 'Open 24 hours', 'Open 24 hours', 'Open 24 hours', 'Open 24 hours', 'Open 24 hours', 'Open 24 hours']"
363,Number 5 Andrew Street Hair Salon,"City Centre, 5 St Andrew's St, Dublin 2, D02 YD85",53.3432842,-6.2617854,,,4.9,"['10a.m.–7p.m.', '10a.m.–8p.m.', '10a.m.–7p.m.', '10a.m.–6p.m.', 'Closed', 'Closed', '10a.m.–6p.m.']"
364,Nu Aesthetics @Nuala Woulfe,None,None,None,(01) 230 0244,nualawoulfe.ie,5.0,[]
365,Flatiron by Carlin Doran,"24B Wicklow St, Dublin 2, D02 R981",53.3428946,-6.2605794,(01) 677 9005,flatirondublin.com,4.9,"['9:30a.m.–5:30p.m.', '9:30a.m.–8p.m.', '9:30a.m.–7p.m.', '9a.m.–5p.m.', 'Closed', 'Closed', '9:30a.m.–5:30p.m.']"
366,hair salon vip,"Moore St, North City, Dublin, D01 E0H3",53.3505079,-6.2628194,None,None,None,"['12a.m.–2p.m.', '12a.m.–2p.m.', 'Closed', 'Closed', '12a.m.–2p.m.', '12a.m.–2p.m.', '12a.m.–2p.m.']"
367,Kevilles Hair Care,"Loftus Ln, Rotunda, Dublin",53.35078189999999,-6.2683315,(01) 490 0997,None,None,[]
368,Number 5 Andrew Street Hair Salon,"City Centre, 5 St Andrew's St, Dublin 2, D02 YD85",53.3432842,-6.2617854,,,4.9,"['10a.m.–7p.m.', '10a.m.–8p.m.', '10a.m.–7p.m.', '10a.m.–6p.m.', 'Closed', 'Closed', '10a.m.–6p.m.']"
369,Solo Salon Supplies,None,None,None,(01) 276 4794,solosalonsupplies.ie,4.7,"['9a.m.–5:30p.m.', '9a.m.–5:30p.m.', '9a.m.–5:30p.m.', '9a.m.–5p.m.', 'Closed', '9a.m.–5:30p.m.', '9a.m.–5:30p.m.']"
370,Hair Matters,"49 Moat Ln, Clontarf East, Dublin 3, D03 C3H4",53.36162179999999,-6.1943297,(01) 833 0278,hairmatters.ie,4.6,"['9a.m.–6p.m.', '9a.m.–8p.m.', '9a.m.–6p.m.', '9a.m.–5:30p.m.', 'Closed', '9a.m.–6p.m.', '9a.m.–6p.m.']"
371,cool look hair salon,"48 Ballybough Rd, Ballybough, Dublin 3, D03 W866",53.3609568,-6.2429004,(01) 855 9855,None,4.7,"['9:30a.m.–6:30p.m.', '9:30a.m.–7p.m.', '9a.m.–7p.m.', '9a.m.–7p.m.', '10:30a.m.–6p.m.', '9:30a.m.–6:30p.m.', '9:30a.m.–6:30p.m.']"
372,All About Hair & Beauty,"465 S Circular Rd, Rialto, Dublin 8, D08 X2R4",53.3361309,-6.298869499999999,(01) 453 7316,None,3.8,[]
373,Hairfairy,"21 Wicklow St, Dublin, D02 XV83",53.34310139999999,-6.2615653,None,None,5.0,[]
374,Dry & Fly | Merrion Row,None,None,None,(01) 534 5509,dryandfly.com,4.9,"['7:30a.m.–7p.m.', '7:30a.m.–7p.m.', '7:30a.m.–7p.m.', '8a.m.–4p.m.', '9a.m.–5p.m.', 'Closed', 'Closed']"
375,SL Hair Design,None,None,None,(01) 444 1073,sl-hair-design.business.site,4.9,"['9:30a.m.–6p.m.', '9:30a.m.–7p.m.', '9:30a.m.–6p.m.', '9a.m.–5p.m.', 'Closed', 'Closed', '9:30a.m.–6p.m.']"
376,HAIRESS Hair Salon,"84 Ballymun Rd, Ballygall, Dublin",53.37952259999999,-6.2660962,085 860 1755,None,5.0,"['10a.m.–9p.m.', '10a.m.–9p.m.', '10a.m.–9p.m.', '9a.m.–8p.m.', '12:30–6p.m.', '10a.m.–9p.m.', '10a.m.–9p.m.']"
377,Salon 56,"56 Clontarf Rd, Clontarf, Dublin 3, D03 YN93",53.3627049,-6.2182548,(01) 853 2533,salon56.ie,4.7,"['9:30a.m.–6p.m.', '9:30a.m.–6p.m.', '9:30a.m.–6p.m.', '9a.m.–5p.m.', 'Closed', 'Closed', '9:30a.m.–6p.m.']"
378,Wildflower,"10 Ranelagh, Dublin 6, D06 K8Y2",53.32629009999999,-6.2557534,(01) 444 6708,wearewildflower.com,5.0,"['10a.m.–2p.m.', '3–9p.m.', '10a.m.–2p.m.', '3–9p.m.', '10a.m.–2p.m.', '3–9p.m.', '10a.m.–2p.m.', '3–9p.m.', 'Closed', '10a.m.–2p.m.', '3–9p.m.', '10a.m.–2p.m.', '3–9p.m.']"
379,Ballance Hair,"Leopardstown Shopping Centre, Ballyogan Rd, Ballyogan, Dublin 18, D18 P9X7",53.2592565,-6.196853099999999,(01) 294 8888,ballancehairandbeauty.com,4.9,"['9a.m.–8p.m.', '9a.m.–6p.m.', '9a.m.–8p.m.', '9a.m.–6p.m.', 'Closed', '9a.m.–6p.m.', '9a.m.–6p.m.']"
380,House of Colour,"33 Liffey St. Upper, North City, Dublin 1, D01 HW30",53.3481262,-6.2641466,(01) 889 7688,None,None,[]
381,Chyna Blu Hair & Beauty,"35 Benbulbin Rd, Drimnagh, Dublin 12, D12 AT22",53.3344793,-6.3116084,(01) 465 2785,chynablu.ie,4.7,"['9:30a.m.–6p.m.', '9:30a.m.–8p.m.', '9:30a.m.–6:30p.m.', '9a.m.–5p.m.', 'Closed', 'Closed', '9:30a.m.–6p.m.']"
382,Vogue Hair Studio,None,None,None,(01) 837 3046,voguehairstudio.ie,4.7,"['9:30a.m.–6p.m.', '9a.m.–8p.m.', '9a.m.–8p.m.', '9a.m.–5:30p.m.', 'Closed', 'Closed', '9:30a.m.–6p.m.']"
383,The Dublin Barber Shop,"10 Aston Quay, Temple Bar, Dublin",53.3463958,-6.2609429,085 231 6718,None,3.5,"['10a.m.–5p.m.', '10a.m.–5p.m.', '10a.m.–5p.m.', '10a.m.–2p.m.', '10a.m.–1p.m.', '10a.m.–5p.m.', '10a.m.–5p.m.']"
384,jenny's hair studio,"44 Kerlogue Rd, Dublin 4, D04 WK31",53.33867979999999,-6.2203427,None,None,None,[]
385,B's Hair Salon,"5 Malahide Rd, Beaumont, Dublin, D05 FH39",53.3842751,-6.2037252,None,None,None,[]
386,Blend Beauty Artisans,None,None,None,(01) 430 3546,facebook.com,4.7,"['10a.m.–7p.m.', '10a.m.–7p.m.', '10a.m.–7p.m.', '10a.m.–7p.m.', 'Closed', 'Closed', '10a.m.–7p.m.']"
387,GMALE Barbers,"73 Ranelagh, Main St, Ranelagh, Dublin, D06 PW96",53.3241612,-6.252560799999999,(01) 496 9954,gmale.ie,4.8,"['10a.m.–7:30p.m.', '10a.m.–7:30p.m.', '10a.m.–7:30p.m.', '9a.m.–6p.m.', '12–5p.m.', 'Closed', '10a.m.–7:30p.m.']"
388,V studio Walkinstown,None,None,None,(01) 429 9999,vstudio.ie,5.0,"['10a.m.–8p.m.', '10a.m.–7p.m.', '9a.m.–7p.m.', '8:30a.m.–5p.m.', 'Closed', '9a.m.–5p.m.', '10a.m.–6p.m.']"
389,Sunny Hair Salon,"4 Sundrive Rd, Kimmage, Dublin 12, D12 Y625",53.3196388,-6.291095700000001,087 346 7879,None,4.8,"['9a.m.–7:30p.m.', '9a.m.–7:30p.m.', '9a.m.–7:30p.m.', '9a.m.–7:30p.m.', '10a.m.–6p.m.', '9:30a.m.–7:30p.m.', '9:30a.m.–7:30p.m.']"
390,Number 5 Andrew Street Hair Salon,"City Centre, 5 St Andrew's St, Dublin 2, D02 YD85",53.3432842,-6.2617854,,,4.9,"['10a.m.–7p.m.', '10a.m.–8p.m.', '10a.m.–7p.m.', '10a.m.–6p.m.', 'Closed', 'Closed', '10a.m.–6p.m.']"
391,Nu Aesthetics @Nuala Woulfe,None,None,None,(01) 230 0244,nualawoulfe.ie,5.0,[]
392,Aline Belo Concept,None,None,None,083 845 4202,treatwell.ie,4.7,"['10a.m.–7p.m.', '10a.m.–7p.m.', '10a.m.–7p.m.', '9a.m.–5p.m.', 'Closed', 'Closed', '10a.m.–7p.m.']"
393,Peter Mark Hairdressers O'Connell St.,"11 O'Connell Street Upper, North City, Dublin 1, D01 A2KO",53.3506115,-6.260248700000001,(01) 874 5589,petermark.ie,4.5,"['9a.m.–6p.m.', '9a.m.–9p.m.', '9a.m.–6:30p.m.', '9a.m.–6p.m.', 'Closed', '9a.m.–6p.m.', '9a.m.–6p.m.']"
394,Aleksa Hair & Beauty Studio,None,None,None,086 218 7098,None,4.3,"['9a.m.–7p.m.', '9a.m.–7p.m.', '9a.m.–7p.m.', '9a.m.–7p.m.', 'Closed', 'Closed', '9a.m.–7p.m.']"
395,House of Colour,"St Margaret's Rd, Charlestown, Dublin 11, D11 CX84",53.39918249999999,-6.302629899999999,(01) 804 1725,houseofcolour.ie,4.4,"['10a.m.–8p.m.', '10a.m.–8p.m.', '10a.m.–8p.m.', '10a.m.–6p.m.', '12–5p.m.', '10a.m.–5:30p.m.', '10a.m.–5:30p.m.']"
396,Hair Boutique,"67 Vernon Ave, Clontarf East, Dublin 3, D03 N2H7",53.3622528,-6.19525,(01) 853 3228,hairboutique.ie,4.7,"['9a.m.–6p.m.', '9a.m.–9p.m.', '9a.m.–6p.m.', '9a.m.–5:30p.m.', 'Closed', '9a.m.–6p.m.', '9a.m.–6p.m.']"
397,The Sitting Room - Hair Boutique,"The Sitting Room, Sandyford Village, Sandyford, Dublin 18, D18 P2F7",53.2700814,-6.2247799,(01) 295 6923,thesittingroomhairboutique.ie,5.0,"['9a.m.–9p.m.', '9a.m.–9p.m.', '9a.m.–6p.m.', '9a.m.–6p.m.', 'Closed', 'Closed', '9a.m.–9p.m.']"
398,New Image,"81 Lower Kilmacud Rd, Stillorgan, Dublin, A94 E2A2",53.28909299999999,-6.2046605,(01) 278 0636,newimagestillorgan.com,4.9,"['9a.m.–6p.m.', '9a.m.–7p.m.', '9a.m.–7p.m.', '9a.m.–5:30p.m.', 'Closed', 'Closed', '9a.m.–6p.m.']"
399,Q&M Hair & Beauty Salon IFSC,"Capel St, North City, Dublin",53.3484666,-6.2687446,087 330 3666,qandm.ie,4.3,"['9:30a.m.–7a.m.', '9:30a.m.–8p.m.', '9:30a.m.–8p.m.', '9:30a.m.–8p.m.', 'Closed', '9:30a.m.–7p.m.', '9:30a.m.–7p.m.']"
400,dragon,"65 Meath St, The Liberties, Dublin 8, D08 E2P0",53.3407922,-6.2781439,None,None,5.0,[]
401,Studio Acardoso,"57 Mary St, North City, Dublin, D01 C6X5",53.3486815,-6.2678741,None,None,None,[]
402,Hermans Hairstylists,"Level 1M Dundrum Town Centre, Dublin 16",53.28698199999999,-6.242252,(01) 296 5514,hermans.ie,4.8,"['8:30a.m.–9p.m.', '8:30a.m.–9p.m.', '8:30a.m.–9p.m.', '8:30a.m.–6p.m.', '10a.m.–5p.m.', '8:30a.m.–9p.m.', '8:30a.m.–9p.m.']"
403,Alanis Hair Design & Barbers,"25-26 Mary Street Little, Smithfield, Dublin 7, D07 HN12",53.3482431,-6.2693335,(01) 872 8564,m.facebook.com,4.3,"['9a.m.–9p.m.', '9a.m.–9p.m.', '9a.m.–9p.m.', '9a.m.–9p.m.', '9a.m.–9p.m.', '9a.m.–9p.m.', '9a.m.–9p.m.']"
404,Romina Daniel Hair & Beauty Sandyford,"Unit 3 Sandyford Hall Shopping Centre, Kilgobbin Road, Sandyford, Dublin, D18 PA43",53.2638409,-6.215084399999999,(01) 564 9926,rominadaniel.ie,5.0,"['9:30a.m.–6p.m.', '9:30a.m.–9p.m.', '9:30a.m.–7p.m.', '8:30a.m.–5p.m.', 'Closed', 'Closed', '9:30a.m.–6p.m.']"
405,Pure Elegance Hair & Beauty Rooms,None,None,None,(01) 284 5405,None,4.9,[]
406,The Graduate Hair Salon,"65 Collins Ave E, Clontarf West, Killester, Co. Dublin, D05 HY96",53.3729228,-6.2099012,(01) 831 9966,graduatehairsalon.ie,4.8,"['9:30a.m.–8p.m.', '9:30a.m.–8p.m.', '9:30a.m.–6p.m.', '9a.m.–5:30p.m.', 'Closed', '9:30a.m.–6p.m.', '9:30a.m.–6p.m.']"
407,Style Club Hairdressing,"18 N Earl St, North City, Dublin, D01 E9C1",53.350209,-6.258627199999999,(01) 878 6663,styleclub.ie,4.4,"['9a.m.–6p.m.', '9a.m.–9p.m.', '9a.m.–7p.m.', '9a.m.–6p.m.', 'Closed', '9a.m.–6p.m.', '9a.m.–6p.m.']"
408,Debonair Hair & Beauty,"12 St Mary's Rd, Walkinstown, Dublin, D12 V62P",53.324592,-6.317973599999999,(01) 455 8065,debonairhairandbeauty.ie,4.9,"['9a.m.–5:30p.m.', '9a.m.–8p.m.', '9a.m.–8p.m.', '9a.m.–5:30p.m.', 'Closed', '9a.m.–5:30p.m.', '9a.m.–5:30p.m.']"
409,Salon 42,"42A Muckross Ave, Perrystown, Dublin, D12 R234",53.31135279999999,-6.3152431,(01) 465 2064,salon42.ie,4.9,"['9a.m.–8p.m.', '9a.m.–9p.m.', '9a.m.–9p.m.', '8a.m.–6p.m.', 'Closed', 'Closed', '9a.m.–9p.m.']"
410,Kris Morton Hair Salon Glasnevin,"44 Glasnevin Hill, Glasnevin, Dublin 9, D09 EN88",53.3750137,-6.2690771,(01) 837 0127,cloud.3dissue.com,4.5,"['9a.m.–5:30p.m.', '9a.m.–5:30p.m.', '9a.m.–5:30p.m.', '9a.m.–5p.m.', 'Closed', 'Closed', '9a.m.–5:30p.m.']"
411,Peter Mark Hairdressers Rathmines,"198 Rathmines Rd Lower, Rathmines, Dublin 6, D06 CC82",53.3242392,-6.2651819,(01) 497 2197,petermark.ie,4.3,"['9a.m.–6p.m.', '9a.m.–9p.m.', '9a.m.–9p.m.', '9a.m.–6p.m.', '11a.m.–5p.m.', '9a.m.–6p.m.', '9a.m.–6p.m.']"
412,Knights of the Green,"106, Stephens Green Shopping Centre, Dublin 2",53.340004,-6.2622729,,,4.5,"['9a.m.–6p.m.', '9a.m.–7p.m.', '9a.m.–7p.m.', '8:30a.m.–6p.m.', '11a.m.–6p.m.', '9a.m.–6p.m.', '9a.m.–6p.m.']"
413,Number 5 Andrew Street Hair Salon,"City Centre, 5 St Andrew's St, Dublin 2, D02 YD85",53.3432842,-6.2617854,(01) 670 5969,5andrewstreet.com,4.9,"['10a.m.–7p.m.', '10a.m.–8p.m.', '10a.m.–7p.m.', '10a.m.–6p.m.', 'Closed', 'Closed', '10a.m.–6p.m.']"
414,Platinum Hair Extensions,"Sackville House, The Times Building, D'Olier Street, Dublin",53.3462488,-6.258429,(01) 670 8639,platinumluxuryhairextensions.com,4.9,"['9a.m.–8p.m.', '9a.m.–8p.m.', '9a.m.–5p.m.', '9a.m.–5p.m.', 'Closed', '9a.m.–5p.m.', '9a.m.–5p.m.']"
415,Lisa Smyth | Makeup Artist | Hair Stylist,"Maven Hair Studio Esco House 9 Eustace St Temple Bar Dublin 2, D02 CK70, Dublin, D02 PK88",53.34475219999999,-6.2648958,None,lisasmythmakeup.com,5.0,"['10a.m.–6p.m.', '10a.m.–8p.m.', '10a.m.–6p.m.', '10a.m.–5p.m.', 'Closed', 'Closed', '10a.m.–6p.m.']"
416,Studio Re Fontes,None,None,None,089 230 5924,studiorefontes.business.site,4.8,"['10a.m.–7p.m.', '10a.m.–7p.m.', '10a.m.–7p.m.', '10a.m.–7p.m.', 'Closed', 'Closed', '10a.m.–7p.m.']"
417,Sakura Hair & Beauty,"The Laurkur House, Dean's Grange Rd, Deansgrange, Blackrock, Co. Dublin",53.2798603,-6.1643276,(01) 207 0605,sakurahair.ie,4.6,"['9a.m.–5:30p.m.', '9a.m.–7p.m.', '9a.m.–7p.m.', '9a.m.–5p.m.', 'Closed', '9a.m.–5:30p.m.', '9a.m.–5:30p.m.']"
418,Trends Hair & Beauty Salon,None,None,None,(01) 842 7647,None,3.8,[]
419,Vogue hairdressing,"140 Parnell St, Rotunda, Dublin 1, D01 RF34",53.3537344,-6.259144999999999,083 360 5871,voguehairdressing.com,4.4,"['10a.m.–6p.m.', '10a.m.–6p.m.', '10a.m.–6p.m.', '10a.m.–6p.m.', 'Closed', 'Closed', '10a.m.–6p.m.']"
420,Romina Daniel Hair & Beauty Palmerstown,"Palmerstown Shopping Centre, Units 7/16, Kennelsfort Rd Upper, Dublin 20",53.3502478,-6.3788494,(01) 623 1444,rominadaniel.ie,4.9,"['9:30a.m.–6p.m.', '9:30a.m.–9p.m.', '9:30a.m.–7p.m.', '8:30a.m.–5p.m.', 'Closed', 'Closed', '9:30a.m.–6p.m.']"
421,Colour Touch Hairdressing,None,None,None,(01) 429 8610,facebook.com,4.2,"['10a.m.–6p.m.', '10a.m.–9p.m.', '9a.m.–6p.m.', '9a.m.–5p.m.', 'Closed', 'Closed', '10a.m.–6p.m.']"
422,Hair Creations,"Unit 41 /42, Blackrock Shopping Centre, Rock Hill, Blackrock, Co. Dublin",53.3019361,-6.179875,(01) 288 4121,haircreations.ie,4.7,"['9a.m.–5:30p.m.', '9a.m.–7:30p.m.', '9a.m.–5:30p.m.', '9a.m.–5p.m.', 'Closed', '9a.m.–5:30p.m.', '9a.m.–5:30p.m.']"
423,The Spot Hair Salon,"Unit 2, The Stables, Booterstown, Dublin, A94 E025",53.3032121,-6.201994099999999,None,None,None,[]
424,Q&M Hair & Beauty Salon IFSC,"Capel St, North City, Dublin",53.3484666,-6.2687446,087 330 3666,qandm.ie,4.3,"['9:30a.m.–7a.m.', '9:30a.m.–8p.m.', '9:30a.m.–8p.m.', '9:30a.m.–8p.m.', 'Closed', '9:30a.m.–7p.m.', '9:30a.m.–7p.m.']"
425,Men's Grooming Ireland Barber Shop,None,None,None,(01) 288 2870,mensgrooming.ie,4.9,"['10a.m.–7p.m.', '10a.m.–8p.m.', '10a.m.–7p.m.', '9a.m.–6p.m.', 'Closed', '10a.m.–7p.m.', '10a.m.–7p.m.']"
426,Faith Hair And Beauty,"6A Whitehall Rd W, Perrystown, Dublin, D12 X528",53.3158728,-6.316816299999999,(01) 441 0304,faithhairandbeauty.ie,4.8,"['9a.m.–6p.m.', '9a.m.–8p.m.', '9a.m.–8p.m.', '9a.m.–5p.m.', 'Closed', '9a.m.–6p.m.', '9a.m.–6p.m.']"
427,Hermans Ballinteer,"Superquinn Shopping Centre, Ballinteer Ave, Ballinteer, Co. Dublin",53.2753467,-6.2531875,(01) 298 0415,hermans.ie,4.7,"['9a.m.–6p.m.', '9a.m.–8:30p.m.', '9a.m.–8:30p.m.', '9a.m.–6p.m.', '11a.m.–6p.m.', '9a.m.–6p.m.', '9a.m.–6p.m.']"
428,Fusion Hair & Beauty,"14 N Earl St, North City, Dublin, D01 NN70",53.350013,-6.2583428,(01) 555 3596,treatwell.ie,4.1,"['9a.m.–7p.m.', '9a.m.–7p.m.', '9a.m.–7p.m.', '10a.m.–6p.m.', 'Closed', '9a.m.–7p.m.', '9a.m.–7p.m.']"
429,House of colour,"Clarehall Shopping Centre, Donaghmede, Dublin",53.40112550000001,-6.179874799999999,(01) 848 1255,houseofcolour.ie,5.0,[]
430,Peter Mark Hairdressers Merrion Shopping Centre,"Merrion Shopping Centre Dublin 4, Ballsbridge, Co. Dublin",53.31855669999999,-6.213863,(01) 283 8300,petermark.ie,4.4,"['8a.m.–6p.m.', '8a.m.–9p.m.', '8a.m.–9p.m.', '8a.m.–6p.m.', '11a.m.–5p.m.', '8a.m.–6p.m.', '8a.m.–6p.m.']"
431,The Hair Room,"Deanstown House, Unit 7, Blanchardstown, Dublin",53.3858774,-6.373364,085 120 8321,thehairroom.ie,4.9,[]
432,Salon Aurora,None,None,None,(01) 464 0044,salon-aurora.com,4.8,"['9:30a.m.–6p.m.', '9:30a.m.–8p.m.', '9:30a.m.–7p.m.', '9a.m.–5:30p.m.', 'Closed', 'Closed', '9:30a.m.–6p.m.']"
433,Bellissimo Hair D4,"22A S Lotts Rd, Ringsend, Co. Dublin",53.33925139999999,-6.2336221,(01) 516 2318,None,4.4,"['10a.m.–5p.m.', '10a.m.–5p.m.', '10a.m.–5p.m.', '9a.m.–5p.m.', 'Closed', 'Closed', '10a.m.–5p.m.']"
434,Number 5 Andrew Street Hair Salon,"City Centre, 5 St Andrew's St, Dublin 2, D02 YD85",53.3432842,-6.2617854,,,4.9,"['10a.m.–7p.m.', '10a.m.–8p.m.', '10a.m.–7p.m.', '10a.m.–6p.m.', 'Closed', 'Closed', '10a.m.–6p.m.']"
435,Platinum Hair Extensions (Head Office),"Bluebell Business Park, 18 Old Naas Rd, Bluebell, Dublin 8, D12 RW52",53.3299211,-6.3427405,(01) 670 8639,platinumluxuryhairextensions.com,5.0,"['9a.m.–5p.m.', '9a.m.–5p.m.', '9a.m.–5p.m.', 'Closed', 'Closed', '9a.m.–5p.m.', '9a.m.–5p.m.']"
436,hair & beauty salon,"Rathfarnham, Dublin",53.3004978,-6.2838544,None,None,None,[]
437,Solo Hair,"Clontarf Rd, Clontarf, Dublin",53.3602729,-6.2030902,(01) 805 7849,solohair.ie,5.0,[]
438,La Mode Hair & Beauty Phibsborough,"155 Phibsborough Rd, Cabra East, Dublin, D07 N207",53.3612616,-6.272449099999999,(01) 811 7518,lamode.ie,4.5,"['9:30a.m.–6p.m.', '9:30a.m.–8p.m.', '9:30a.m.–7p.m.', '8:30a.m.–4:30p.m.', 'Closed', 'Closed', '9:30a.m.–6p.m.']"
439,Wandin Coiffeur,"28 Fishamble St, Temple Bar, Dublin 8",53.3446815,-6.2697392,083 158 4138,instagram.com,5.0,"['9a.m.–6p.m.', '9a.m.–6p.m.', '9a.m.–6p.m.', '10a.m.–5p.m.', 'Closed', 'Closed', '9a.m.–6p.m.']"
440,Ziggys Hair Studio,"30 Dolphin's Barn St, Saint James' (part of Phoenix Park), Dublin, D08 VR92",53.3335753,-6.2908371,(01) 454 4030,m.facebook.com,4.8,"['9a.m.–6p.m.', '9a.m.–8p.m.', '9a.m.–6p.m.', '9a.m.–6p.m.', 'Closed', 'Closed', '9a.m.–6p.m.']"
441,Fringe Hairdressing,"165 St Mobhi Rd, Botanic, Dublin, D09 CH22",53.3707016,-6.2681894,(01) 836 9564,fringe.ie,4.8,"['9:30a.m.–6p.m.', '9:30a.m.–7p.m.', '9:30a.m.–6p.m.', '9a.m.–5p.m.', 'Closed', 'Closed', '9:30a.m.–6p.m.']"
442,Kameleon Hairdressers,"78 Talbot St, Mountjoy, Dublin 1, D01 C868",53.35073670000001,-6.2536688,(01) 884 7921,None,4.3,"['9:30a.m.–7p.m.', '9:30a.m.–7p.m.', '9:30a.m.–7p.m.', '9:30a.m.–6p.m.', 'Closed', '9:30a.m.–7p.m.', '9:30a.m.–7p.m.']"
443,Mane Hair Salon,"16 William St S, Dublin 2, D02 NY90",53.3421645,-6.262685299999999,(01) 672 5177,hairbymane.ie,4.3,"['9a.m.–6p.m.', '9a.m.–7:30p.m.', '9a.m.–7p.m.', '9a.m.–5:30p.m.', 'Closed', 'Closed', '9a.m.–6p.m.']"
444,Hair & Beauty ZONE,"49 Mary St, North City, Dublin 1, D01 X860",53.3488213,-6.2669068,(01) 503 8833,None,4.4,"['10a.m.–8p.m.', '10a.m.–8p.m.', '10a.m.–8p.m.', '10a.m.–8p.m.', 'Closed', 'Closed', '10a.m.–8p.m.']"
445,GPO Arcade - Hair Shop,"25 Henry St, North City, Dublin 1, D01 XR79",53.3494614,-6.2618173,None,None,5.0,[]
446,Easilocks Dublin 2,"50 Wellington Quay, Temple Bar, Dublin, D08 N239",53.3460228,-6.2626965,(01) 677 8416,easilocks.com,4.8,"['10a.m.–6p.m.', '10a.m.–8p.m.', '10a.m.–8p.m.', '10a.m.–5p.m.', 'Closed', '10a.m.–6p.m.', '10a.m.–6p.m.']"
447,Salon Sia,"45 Woodpark, O'Rourke Park, Thomastown, Dublin, A96 R8FY",53.2778377,-6.1414738,(01) 202 3216,salonsia.ie,4.8,"['9:30a.m.–5p.m.', '9a.m.–5p.m.', '9a.m.–5p.m.', '9a.m.–5p.m.', 'Closed', '9:30a.m.–5p.m.', '9a.m.–5p.m.']"
448,Peter Mark Hairdressers Rathfarnham,"Rathfarnham Shopping Centre Level 2 Rathfarnham, Butterfield Ave, Co. Dublin",53.2967555,-6.297553,(01) 493 3653,petermark.ie,4.6,"['9a.m.–6p.m.', '9a.m.–9p.m.', '9a.m.–9p.m.', '9a.m.–5:30p.m.', 'Closed', '9a.m.–6p.m.', '9a.m.–6p.m.']"
449,Shampoo Hair and Beauty,None,None,None,(01) 451 8705,None,4.2,[]
450,Hot House Hair and Beauty,"Unit 7, Village Centre, Watery Ln, Clondalkin, Dublin 22",53.3226369,-6.3927473,(01) 457 7653,None,4.8,"['9:30a.m.–5:30p.m.', '9:30a.m.–7p.m.', '9:30a.m.–7p.m.', '9a.m.–5p.m.', 'Closed', 'Closed', '9:30a.m.–5:30p.m.']"
451,Hairorganic.ie,"16 Woodlands Rd, Glenageary, Dublin, A96 H5X8",53.2666419,-6.1418328,087 276 2248,hairorganic.ie,5.0,"['10a.m.–6a.m.', '10a.m.–6a.m.', '10a.m.–5p.m.', '9a.m.–1p.m.', 'Closed', 'Closed', '10a.m.–5:30a.m.']"
452,House of Colour Citywest,"Unit 26a/27, Citywest Shopping Centre, Citywest Rd, Citywest, Co. Dublin",53.2831929,-6.4229098,(01) 410 5860,houseofcolour.ie,4.4,"['10a.m.–6p.m.', '10a.m.–8p.m.', '10a.m.–8p.m.', '9a.m.–6p.m.', 'Closed', '10a.m.–6p.m.', '10a.m.–6p.m.']"
453,Q&M Hair Beauty Salon Capel,None,None,None,(01) 555 2276,qandm.ie,4.5,"['10a.m.–7p.m.', '10a.m.–8p.m.', '10a.m.–8p.m.', '10a.m.–8p.m.', 'Closed', '10a.m.–7p.m.', '10a.m.–7p.m.']"
454,Trends Hair and Beauty,None,None,None,(01) 210 8047,None,4.1,"['9a.m.–6p.m.', '9a.m.–7p.m.', '9a.m.–6p.m.', '9a.m.–6p.m.', 'Closed', '9a.m.–6p.m.', '9a.m.–6p.m.']"
455,Peter Mark Hairdressers Dundrum Main Street,"5 Main St, Dundrum, Dublin, D14 K7Y3",53.29155650000001,-6.245324,(01) 298 9500,petermark.ie,4.3,"['8a.m.–6p.m.', '8a.m.–9p.m.', '8a.m.–9p.m.', '8a.m.–6p.m.', 'Closed', '9a.m.–6p.m.', '8a.m.–6p.m.']"
456,Knights of the Green,"106, Stephens Green Shopping Centre, Dublin 2",53.340004,-6.2622729,,,4.5,"['9a.m.–6p.m.', '9a.m.–7p.m.', '9a.m.–7p.m.', '8:30a.m.–6p.m.', '11a.m.–6p.m.', '9a.m.–6p.m.', '9a.m.–6p.m.']"
457,thetruckwash.ie,None,None,None,(01) 844 4145,thetruckwash.ie,4.4,"['6a.m.–10p.m.', '6a.m.–10p.m.', '6a.m.–10p.m.', '7a.m.–7p.m.', '8a.m.–10p.m.', '6a.m.–10p.m.', '6a.m.–10p.m.']"
458,Hidden Hair & Beauty Studio,"73 John McCormack Ave, Walkinstown, Dublin, D12 P8X0",53.3194417,-6.3255897,None,hiddenhairandbeautystudio.com,5.0,"['10a.m.–7p.m.', '10a.m.–7p.m.', '11a.m.–8p.m.', '9a.m.–2p.m.', 'Closed', '10a.m.–7p.m.', '10a.m.–8p.m.']"
459,Dioclei Coelho Hairdresser,"147 Richmond Rd, Ballybough, Dublin, D03 FD99",53.3660559,-6.248071899999999,083 874 9446,instagram.com,5.0,"['10a.m.–8p.m.', '10a.m.–7p.m.', '10a.m.–7p.m.', '10a.m.–4p.m.', 'Closed', 'Closed', '10a.m.–8p.m.']"
460,Issonni Hair Extensions,"173 Kimmage Rd Lower, Kimmage, Dublin 6W, Co. Dublin, D6W CX94",53.3194279,-6.2910146,(01) 405 5822,issonni.ie,5.0,"['10a.m.–6p.m.', '10a.m.–6p.m.', '10a.m.–6p.m.', '10a.m.–6p.m.', 'Closed', 'Closed', '10a.m.–6p.m.']"
461,Reba Reborn Ongar,"32 Main St, Ongar Village, Dublin 15, D15 N2X9",53.39587599999999,-6.439660000000001,(01) 861 4830,rebahairandbeauty.ie,4.8,"['9a.m.–8:30p.m.', '9a.m.–8:30p.m.', '9a.m.–8:30p.m.', '9a.m.–5:30p.m.', 'Closed', '9:30a.m.–6p.m.', '9a.m.–6p.m.']"
462,Pamper Time Hair nails beauty salon,"230 Swords Rd, Whitehall, Dublin 9, D09 DD54",53.3884261,-6.2452141,(01) 862 5154,None,4.3,"['9:30a.m.–6p.m.', '9:30a.m.–7:30p.m.', '9:30a.m.–7:30p.m.', '9a.m.–5p.m.', 'Closed', 'Closed', '9:30a.m.–6p.m.']"
463,Sophie Li Hair Design,None,None,None,(01) 818 7502,business.site,4.4,"['9a.m.–6:30p.m.', '9a.m.–7p.m.', '9a.m.–7:30p.m.', '9a.m.–7p.m.', '10:30a.m.–5:30p.m.', '9:30a.m.–6p.m.', '9a.m.–6p.m.']"
464,Carlos Barbers,"Millennium Walkway, North City, Dublin",53.3472452,-6.2653579,None,None,None,"['10a.m.–7p.m.', '10a.m.–8p.m.', '10a.m.–8p.m.', '10a.m.–7p.m.', '11a.m.–7p.m.', '10a.m.–7p.m.', '10a.m.–7p.m.']"
465,Studio 6,"Terenure Rd N, Terenure, Dublin",53.31232869999999,-6.2824968,None,studio6hairandbeauty.com,5.0,[]
466,Mèche - Hair & Beauty Spa,"4 Clonkeen Rd, Deansgrange, Blackrock, Co. Dublin, A94 VW98",53.2782805,-6.163361099999999,(01) 289 5750,meche.ie,4.9,"['9a.m.–6p.m.', '9a.m.–8p.m.', '9a.m.–6p.m.', '9a.m.–5:30p.m.', 'Closed', '9a.m.–5:30p.m.', '9a.m.–6p.m.']"
467,Silke Hair and Beauty,"RA3 1P Beacon South Quarter, Sandyford, Dublin 18, Sandyford, Dublin 18, D18 VA43",53.27672889999999,-6.2158203,(01) 549 5996,silkehairandbeauty.com,4.8,"['9a.m.–7p.m.', '9a.m.–9p.m.', '9a.m.–7p.m.', '9a.m.–5p.m.', 'Closed', 'Closed', '9a.m.–6p.m.']"
468,Angels Hair & Beauty Salon,"13 Meath St, The Liberties, Dublin, D08 C821",53.3418948,-6.2791346,(01) 453 9956,None,3.9,[]
469,The Works,"162A Harold's Cross Rd, Harold's Cross, Dublin 6W, Co. Dublin, D6W YT44",53.3238251,-6.2802052,(01) 490 7178,theworkssalon.ie,4.9,"['10a.m.–8p.m.', '10a.m.–8p.m.', '10a.m.–8p.m.', '9a.m.–5p.m.', '10a.m.–5p.m.', '10a.m.–8p.m.', '10a.m.–8p.m.']"
470,Studio Dolls Hair and Beauty,"No 6, Lisle Rd, Crumlin Village, Crumlin, Dublin 12, D12 Y7P1",53.32048409999999,-6.316891099999999,085 721 6786,studiodolls.ie,4.9,"['9a.m.–9p.m.', '9a.m.–9p.m.', '9a.m.–9p.m.', '9a.m.–6p.m.', 'Closed', '10a.m.–7p.m.', '9a.m.–9p.m.']"
471,Collage Hair Group,"Laurel Lodge Shopping Centre, U.7, Dublin 15, D15 ND66",53.37775999999999,-6.377103,(01) 821 7363,collagehg.ie,4.8,"['9:30a.m.–5:30p.m.', '9:30a.m.–8p.m.', '9a.m.–7p.m.', '9a.m.–5p.m.', 'Closed', '9:30a.m.–5:30p.m.', '9:30a.m.–5:30p.m.']"
472,Pelo Hairdressing & Scalp Specialists,"95 Swords Rd, Whitehall, Dublin, D09 V840",53.3813876,-6.2454877,(01) 797 9358,pelohairdressing.ie,4.8,"['9a.m.–6p.m.', '9a.m.–8p.m.', '9a.m.–8p.m.', '9a.m.–5:30p.m.', 'Closed', 'Closed', '9a.m.–6p.m.']"
473,Lux Hair and Beauty,"Eden Centre, 3, The, Grange Rd, Rathfarnham, Dublin, D16 T293",53.2811069,-6.2745156,(01) 494 6726,luxhairandbeauty.ie,4.8,"['9a.m.–8p.m.', '9a.m.–8p.m.', '9a.m.–6p.m.', '9a.m.–6p.m.', 'Closed', 'Closed', '9a.m.–6p.m.']"
474,Kiddies Kuts,"Jervis Street Shopping Centre, Unit 100, Jervis St, Dublin 1",53.3482143,-6.2656231,083 814 8221,kiddieskuts.com,4.0,"['9a.m.–6p.m.', '9a.m.–6p.m.', '9a.m.–6p.m.', '9a.m.–6p.m.', '11a.m.–5p.m.', '9a.m.–6p.m.', '9a.m.–6p.m.']"
475,Kris Morton Hair Salons Omni Park,"Unit 228 Omni Park Shopping Centre Santry, Dublin 9, D09 AD86",53.39271950000001,-6.2473163,(01) 842 1980,cloud.3dissue.com,4.7,"['9a.m.–6p.m.', '9a.m.–9p.m.', '9a.m.–8p.m.', '9a.m.–5:30p.m.', 'Closed', '9a.m.–6p.m.', '9a.m.–6p.m.']"
476,Jenny B Hair Design,"1 Newtown Park, Newtownpark, Blackrock, Co. Dublin, A94 V0P1",53.28704990000001,-6.176883999999999,(01) 288 9520,jennyb.ie,5.0,[]
477,Rafael Hair Design,None,None,None,(01) 826 0980,facebook.com,4.6,"['9:30a.m.–6p.m.', '9:30a.m.–7p.m.', '9a.m.–7p.m.', '9a.m.–5:30p.m.', 'Closed', 'Closed', '9:30a.m.–6p.m.']"
478,Number 5 Andrew Street Hair Salon,"City Centre, 5 St Andrew's St, Dublin 2, D02 YD85",53.3432842,-6.2617854,,,4.9,"['10a.m.–7p.m.', '10a.m.–8p.m.', '10a.m.–7p.m.', '10a.m.–6p.m.', 'Closed', 'Closed', '10a.m.–6p.m.']"
479,Platinum Hair Extensions (Head Office),"Bluebell Business Park, 18 Old Naas Rd, Bluebell, Dublin 8, D12 RW52",53.3299211,-6.3427405,(01) 670 8639,platinumluxuryhairextensions.com,5.0,"['9a.m.–5p.m.', '9a.m.–5p.m.', '9a.m.–5p.m.', 'Closed', 'Closed', '9a.m.–5p.m.', '9a.m.–5p.m.']"
480,V2 Hair Design,"3A Orchard Rd, Clondalkin, Dublin, D22 KN60",53.3217011,-6.393338399999999,(01) 457 2465,v2hairdesign.ie,4.8,"['9:30a.m.–6p.m.', '9:30a.m.–8p.m.', '9:30a.m.–8p.m.', '9a.m.–6p.m.', 'Closed', 'Closed', '9:30a.m.–6p.m.']"
481,Dreadlocks Dublin Center,"132 Parnell St, Rotunda, Dublin 1, D01 XP78",53.35400780000001,-6.2582394,086 331 3212,None,2.7,"['10a.m.–7p.m.', '10a.m.–7p.m.', '10a.m.–7p.m.', 'Closed', 'Closed', '10a.m.–7p.m.', '10a.m.–7p.m.']"
482,Revive Hair & Beauty Clinic,None,None,None,(01) 465 2749,revivehbc.ie,4.4,"['9:30a.m.–6p.m.', '9:30a.m.–8p.m.', '9:30a.m.–8p.m.', '9:30a.m.–5p.m.', 'Closed', 'Closed', '9:30a.m.–6p.m.']"
483,L'OmBré Artane,"Unit 11 ARTANE CASTLE SHOPPING CENTRE, Kilmore Rd, Dublin, D05 Y751",53.38364199999999,-6.2149106,(01) 441 0171,lombre.ie,4.9,"['9a.m.–6p.m.', '9a.m.–8p.m.', '9a.m.–8p.m.', '9a.m.–6p.m.', '11a.m.–6p.m.', '9a.m.–6p.m.', '9a.m.–6p.m.']"
484,Dazzle Hair Nails and Tanning,"22 Marino Mart, Clontarf West, Dublin, D03 W1C8",53.3644352,-6.2308593,085 243 1650,None,4.9,"['9:30a.m.–7p.m.', '9:30a.m.–8p.m.', '9:30a.m.–8p.m.', '9a.m.–5p.m.', 'Closed', '9:30a.m.–7p.m.', '9:30a.m.–7p.m.']"
485,The Warehouse Ashtown,"Unit 1, The Capstan Building Ashtown, Royal Canal Park, Co. Dublin, D15 X0AE",53.3762351,-6.3118735,083 098 1100,thewarehouseashtown.ie,5.0,"['10a.m.–9p.m.', '10a.m.–9p.m.', '10a.m.–6p.m.', '9a.m.–5p.m.', 'Closed', 'Closed', '10a.m.–6p.m.']"
486,"Deluxe Hair, Nail & Beauty",None,None,None,(01) 856 1737,deluxenailandbeauty.com,4.8,"['10a.m.–6p.m.', '10a.m.–8p.m.', '10a.m.–6p.m.', '10a.m.–6p.m.', 'Closed', 'Closed', '10a.m.–6p.m.']"
487,MARU HAIR TOKYO,"4 Scarlet row, Essex St W, Temple Bar, Dublin, D08 E3P0",53.3445236,-6.269313899999999,(01) 561 9507,maru.ie,5.0,"['10:30a.m.–7p.m.', '10:30a.m.–7p.m.', '10:30a.m.–7p.m.', '11a.m.–6p.m.', 'Closed', 'Closed', '10:30a.m.–7p.m.']"
488,L'OmBré Essential,"F, Priorsgate 2 Main Street, Dublin 24",53.2876246,-6.3570359,(01) 515 2681,lombre.ie,4.7,"['9a.m.–6p.m.', '9a.m.–8p.m.', '9a.m.–8p.m.', '9a.m.–6p.m.', 'Closed', '9a.m.–6p.m.', '9a.m.–6p.m.']"
489,Rickyna Hair Salon Cabra,"94 Annamoe Terrace, Cabra East, Dublin, D07 Y393",53.36081160000001,-6.2864189,(01) 838 9218,business.site,4.7,"['9:30a.m.–7p.m.', '9a.m.–7:30p.m.', '9a.m.–7:30p.m.', '9a.m.–7:30p.m.', '10a.m.–6:30p.m.', '9:30a.m.–7p.m.', '9:30a.m.–7p.m.']"
490,Queen Hairdressing,"The Hill, Stillorgan, Dublin",53.2882494,-6.196335899999999,(01) 685 4266,queen.ie,4.9,"['10a.m.–7p.m.', '10a.m.–8p.m.', '10a.m.–6p.m.', '9a.m.–6p.m.', 'Closed', 'Closed', '10a.m.–6p.m.']"
491,The Salon Howth,"1a St Lawrence Rd, Howth, Dublin, D13 KF63",53.3859998,-6.065803,,,5.0,"['9a.m.–6p.m.', '9a.m.–9p.m.', '9a.m.–6p.m.', '9a.m.–6p.m.', 'Closed', '9a.m.–6p.m.', '9a.m.–6p.m.']"
492,Saphora Hair and Beauty,"6-7, The Village Centre, Main St, Dundrum, Dublin 14",53.290594,-6.245664,,None,4.6,"['9a.m.–9p.m.', '9a.m.–9p.m.', '9a.m.–9p.m.', '9a.m.–6p.m.', 'Closed', '9a.m.–6p.m.', '9a.m.–6p.m.']"
493,Harpers Salon,"2 Adelaide Rd, Glenageary, Sandycove, Dublin, A96 H7D2",53.286409,-6.1238414,(01) 230 1101,harperssalon.ie,4.4,"['9:30a.m.–6p.m.', '9:30a.m.–9p.m.', '9:30a.m.–6p.m.', '9a.m.–5:30p.m.', 'Closed', '9:30a.m.–6p.m.', '9:30a.m.–6p.m.']"
494,TONI&GUY Dundrum,"Building 1, UNIT 3, .1 Block 4 Dundrum Town Centre, Dundrum, Dublin",53.28698199999999,-6.242252,(01) 296 7160,toniandguy.ie,4.3,"['9a.m.–9p.m.', '9a.m.–9p.m.', '9a.m.–9p.m.', '9a.m.–6p.m.', '11a.m.–6p.m.', '9a.m.–6p.m.', '9a.m.–9p.m.']"
495,Ross Gibson,"18 Fitzgibbon St, Mountjoy, Dublin",53.3581294,-6.2548673,(01) 836 3207,None,5.0,[]
496,Thomas Kendall Hair,"Castleknock Rd, Castleknock, Dublin",53.3711773,-6.3540486,,,4.7,"['10a.m.–6p.m.', '10a.m.–8p.m.', '10a.m.–6p.m.', '9a.m.–6p.m.', 'Closed', 'Closed', '10a.m.–6p.m.']"
497,Peter Mark Hairdressers Finglas,"Unit 5, Finglas Main Centre, Main St, Finglas, Co. Dublin",53.388991,-6.297915,,,4.5,"['9:30a.m.–6p.m.', '9a.m.–8:30p.m.', '9a.m.–8:30p.m.', '9a.m.–5:30p.m.', 'Closed', '9a.m.–6p.m.', '9a.m.–6p.m.']"
498,L’OmBré Nutgrove,"Nutgrove shopping centre, Nutgrove Way, Rathfarnham, Dublin 14, D14 Y822",53.2897265,-6.2674656,,,4.9,"['9a.m.–8p.m.', '9a.m.–9p.m.', '9a.m.–9p.m.', '9a.m.–6p.m.', '11a.m.–6p.m.', '9a.m.–6p.m.', '9a.m.–6p.m.']"
499,Treatwell IE,"70 Sir John Rogerson's Quay, Dublin Docklands, Dublin 2, D02 R296",53.345419,-6.234947600000001,None,,2.7,"['Open 24 hours', 'Open 24 hours', 'Open 24 hours', 'Open 24 hours', 'Open 24 hours', 'Open 24 hours', 'Open 24 hours']"
500,Number 5 Andrew Street Hair Salon,"City Centre, 5 St Andrew's St, Dublin 2, D02 YD85",53.3432842,-6.2617854,,,4.9,"['10a.m.–7p.m.', '10a.m.–8p.m.', '10a.m.–7p.m.', '10a.m.–6p.m.', 'Closed', 'Closed', '10a.m.–6p.m.']"
501,Platinum Hair Extensions (Head Office),"Bluebell Business Park, 18 Old Naas Rd, Bluebell, Dublin 8, D12 RW52",53.3299211,-6.3427405,(01) 670 8639,platinumluxuryhairextensions.com,5.0,"['9a.m.–5p.m.', '9a.m.–5p.m.', '9a.m.–5p.m.', 'Closed', 'Closed', '9a.m.–5p.m.', '9a.m.–5p.m.']"
502,V2 Hair Design,"3A Orchard Rd, Clondalkin, Dublin, D22 KN60",53.3217011,-6.393338399999999,(01) 457 2465,v2hairdesign.ie,4.8,"['9:30a.m.–6p.m.', '9:30a.m.–8p.m.', '9:30a.m.–8p.m.', '9a.m.–6p.m.', 'Closed', 'Closed', '9:30a.m.–6p.m.']"
503,Dreadlocks Dublin Center,"132 Parnell St, Rotunda, Dublin 1, D01 XP78",53.35400780000001,-6.2582394,086 331 3212,None,2.7,"['10a.m.–7p.m.', '10a.m.–7p.m.', '10a.m.–7p.m.', 'Closed', 'Closed', '10a.m.–7p.m.', '10a.m.–7p.m.']"
504,Revive Hair & Beauty Clinic,None,None,None,(01) 465 2749,revivehbc.ie,4.4,"['9:30a.m.–6p.m.', '9:30a.m.–8p.m.', '9:30a.m.–8p.m.', '9:30a.m.–5p.m.', 'Closed', 'Closed', '9:30a.m.–6p.m.']"
505,L'OmBré Artane,"Unit 11 ARTANE CASTLE SHOPPING CENTRE, Kilmore Rd, Dublin, D05 Y751",53.38364199999999,-6.2149106,(01) 441 0171,lombre.ie,4.9,"['9a.m.–6p.m.', '9a.m.–8p.m.', '9a.m.–8p.m.', '9a.m.–6p.m.', '11a.m.–6p.m.', '9a.m.–6p.m.', '9a.m.–6p.m.']"
506,Dazzle Hair Nails and Tanning,"22 Marino Mart, Clontarf West, Dublin, D03 W1C8",53.3644352,-6.2308593,085 243 1650,None,4.9,"['9:30a.m.–7p.m.', '9:30a.m.–8p.m.', '9:30a.m.–8p.m.', '9a.m.–5p.m.', 'Closed', '9:30a.m.–7p.m.', '9:30a.m.–7p.m.']"
507,The Warehouse Ashtown,"Unit 1, The Capstan Building Ashtown, Royal Canal Park, Co. Dublin, D15 X0AE",53.3762351,-6.3118735,083 098 1100,thewarehouseashtown.ie,5.0,"['10a.m.–9p.m.', '10a.m.–9p.m.', '10a.m.–6p.m.', '9a.m.–5p.m.', 'Closed', 'Closed', '10a.m.–6p.m.']"
508,"Deluxe Hair, Nail & Beauty",None,None,None,(01) 856 1737,deluxenailandbeauty.com,4.8,"['10a.m.–6p.m.', '10a.m.–8p.m.', '10a.m.–6p.m.', '10a.m.–6p.m.', 'Closed', 'Closed', '10a.m.–6p.m.']"
509,MARU HAIR TOKYO,"4 Scarlet row, Essex St W, Temple Bar, Dublin, D08 E3P0",53.3445236,-6.269313899999999,(01) 561 9507,maru.ie,5.0,"['10:30a.m.–7p.m.', '10:30a.m.–7p.m.', '10:30a.m.–7p.m.', '11a.m.–6p.m.', 'Closed', 'Closed', '10:30a.m.–7p.m.']"
510,L'OmBré Essential,"F, Priorsgate 2 Main Street, Dublin 24",53.2876246,-6.3570359,(01) 515 2681,lombre.ie,4.7,"['9a.m.–6p.m.', '9a.m.–8p.m.', '9a.m.–8p.m.', '9a.m.–6p.m.', 'Closed', '9a.m.–6p.m.', '9a.m.–6p.m.']"
511,Rickyna Hair Salon Cabra,"94 Annamoe Terrace, Cabra East, Dublin, D07 Y393",53.36081160000001,-6.2864189,(01) 838 9218,business.site,4.7,"['9:30a.m.–7p.m.', '9a.m.–7:30p.m.', '9a.m.–7:30p.m.', '9a.m.–7:30p.m.', '10a.m.–6:30p.m.', '9:30a.m.–7p.m.', '9:30a.m.–7p.m.']"
512,Queen Hairdressing,"The Hill, Stillorgan, Dublin",53.2882494,-6.196335899999999,(01) 685 4266,queen.ie,4.9,"['10a.m.–7p.m.', '10a.m.–8p.m.', '10a.m.–6p.m.', '9a.m.–6p.m.', 'Closed', 'Closed', '10a.m.–6p.m.']"
513,The Salon Howth,"1a St Lawrence Rd, Howth, Dublin, D13 KF63",53.3859998,-6.065803,(01) 816 7080,thesalonhowth.com,5.0,"['9a.m.–6p.m.', '9a.m.–9p.m.', '9a.m.–6p.m.', '9a.m.–6p.m.', 'Closed', '9a.m.–6p.m.', '9a.m.–6p.m.']"
514,Saphora Hair and Beauty,"6-7, The Village Centre, Main St, Dundrum, Dublin 14",53.290594,-6.245664,(01) 298 3428,None,4.6,"['9a.m.–9p.m.', '9a.m.–9p.m.', '9a.m.–9p.m.', '9a.m.–6p.m.', 'Closed', '9a.m.–6p.m.', '9a.m.–6p.m.']"
515,Harpers Salon,"2 Adelaide Rd, Glenageary, Sandycove, Dublin, A96 H7D2",53.286409,-6.1238414,(01) 230 1101,harperssalon.ie,4.4,"['9:30a.m.–6p.m.', '9:30a.m.–9p.m.', '9:30a.m.–6p.m.', '9a.m.–5:30p.m.', 'Closed', '9:30a.m.–6p.m.', '9:30a.m.–6p.m.']"
516,TONI&GUY Dundrum,"Building 1, UNIT 3, .1 Block 4 Dundrum Town Centre, Dundrum, Dublin",53.28698199999999,-6.242252,(01) 296 7160,toniandguy.ie,4.3,"['9a.m.–9p.m.', '9a.m.–9p.m.', '9a.m.–9p.m.', '9a.m.–6p.m.', '11a.m.–6p.m.', '9a.m.–6p.m.', '9a.m.–9p.m.']"
517,Ross Gibson,"18 Fitzgibbon St, Mountjoy, Dublin",53.3581294,-6.2548673,(01) 836 3207,None,5.0,[]
518,Thomas Kendall Hair,"Castleknock Rd, Castleknock, Dublin",53.3711773,-6.3540486,(01) 640 5275,thomaskendallhair.com,4.7,"['10a.m.–6p.m.', '10a.m.–8p.m.', '10a.m.–6p.m.', '9a.m.–6p.m.', 'Closed', 'Closed', '10a.m.–6p.m.']"
519,Peter Mark Hairdressers Finglas,"Unit 5, Finglas Main Centre, Main St, Finglas, Co. Dublin",53.388991,-6.297915,(01) 834 5988,petermark.ie,4.5,"['9:30a.m.–6p.m.', '9a.m.–8:30p.m.', '9a.m.–8:30p.m.', '9a.m.–5:30p.m.', 'Closed', '9a.m.–6p.m.', '9a.m.–6p.m.']"
520,L’OmBré Nutgrove,"Nutgrove shopping centre, Nutgrove Way, Rathfarnham, Dublin 14, D14 Y822",53.2897265,-6.2674656,(01) 555 8997,lombre.ie,4.9,"['9a.m.–8p.m.', '9a.m.–9p.m.', '9a.m.–9p.m.', '9a.m.–6p.m.', '11a.m.–6p.m.', '9a.m.–6p.m.', '9a.m.–6p.m.']"
521,Treatwell IE,"70 Sir John Rogerson's Quay, Dublin Docklands, Dublin 2, D02 R296",53.345419,-6.234947600000001,None,treatwell.ie,2.7,"['Open 24 hours', 'Open 24 hours', 'Open 24 hours', 'Open 24 hours', 'Open 24 hours', 'Open 24 hours', 'Open 24 hours']"
