Index,Name,Address,latitude,longtitude,Phone,Website,Ranking,Open Hours,Images
1,Dylan Bradshaw Hair Salon,"56 William St S, Dublin 2, D02 Y897",53.3418767,-6.262522799999999,,,4.9,"['9a.m.–6p.m.', 'Closed', 'Closed', '9a.m.–6p.m.', '9a.m.–9p.m.', '9a.m.–9p.m.', '9a.m.–6p.m.']",https://lh5.googleusercontent.com/p/AF1QipMeZsBstU-9kY32EAIYq3Wvosl5moVc3j01le5v=w408-h603-k-no
2,Great Lengths Hair Salon,"Main St, Clare Commons, Kildysart, Co. Clare",52.8149824,-8.9637558,None,None,None,[],https://streetviewpixels-pa.googleapis.com/v1/thumbnail?panoid=DRiyFeAnNEWZuzMBzDjfag&cb_client=search.gws-prod.gps&w=408&h=240&yaw=224.32968&pitch=0&thumbfov=100
3,Aura Hair Specialists Ireland,"The Square, Townparks, Castlepollard, Co. Westmeath, N91 X625",53.6799203,-7.2986064,,,4.9,"['9a.m.–5p.m.', 'Closed', 'Closed', '9a.m.–5p.m.', '9a.m.–5p.m.', '9a.m.–5p.m.', '9a.m.–5p.m.']",https://lh5.googleusercontent.com/p/AF1QipMST5KiFCJMAEHdCObiLs8KF0bdX0SdWtz6HdKU=w426-h240-k-no
4,La Vita Hair & Beauty Salon | Bridal Services | Ennis | Ireland,"75 O'Connell Street, Clonroad Beg, Ennis, Co. Clare, V95 KD83",52.8417695,-8.9839442,,,4.7,"['9a.m.–6p.m.', 'Closed', '9:30a.m.–6p.m.', '9:30a.m.–6p.m.', '9:30a.m.–6p.m.', '9:30a.m.–8p.m.', '9:30a.m.–8p.m.']",https://lh5.googleusercontent.com/p/AF1QipP-3ooBvGw__uWf503zY7yYpxHkMPOJu_HobqMC=w506-h240-k-no
5,Hair Salon,"Ferbane, Co. Offaly",53.27195,-7.8278719,None,None,None,[],https://streetviewpixels-pa.googleapis.com/v1/thumbnail?panoid=l0ryBPmnQ6JpUlyujkSLeg&cb_client=search.gws-prod.gps&w=408&h=240&yaw=239.54172&pitch=0&thumbfov=100
6,Trim Hair Salon,"45 Shelbourne Rd, Dublin 4, D04 Y4A4",53.3304724,-6.231969899999999,,,4.9,"['9a.m.–6p.m.', '9a.m.–6p.m.', '7:30a.m.–6p.m.', '7:30a.m.–7:30p.m.', '7:30a.m.–7:30p.m.', '7:30a.m.–7:30p.m.', '7:30a.m.–7:30p.m.']",https://lh5.googleusercontent.com/p/AF1QipPls9In5kGYl1QcZWb7R40IAKlaoK4uzk4wkJfm=w408-h544-k-no
7,Downtown Hair Styles,"12 Castle St, Athlone, Co. Westmeath, N37 W9V4",53.4229893,-7.9426165,,None,5.0,[''],https://lh5.googleusercontent.com/p/AF1QipO8ZGgDIPdOp3EbwYQ90Dh489dj3bcTHnOZN3sz=w408-h276-k-no
8,Ultimate Hair & Beauty,"Unit 8, GPO Arcade, Henry St, North City, Dublin 1, D01 F6Y9",53.34922109999999,-6.261601499999999,,,4.7,"['9a.m.–5:30p.m.', 'Closed', '9a.m.–5:30p.m.', '9a.m.–5:30p.m.', '9a.m.–7p.m.', '9a.m.–8p.m.', '9a.m.–7p.m.']",https://lh5.googleusercontent.com/p/AF1QipOC1R9Xs9rm4ZfCEsyx1xGLSopygufVK_OQ2Ro8=w408-h408-k-no
9,Peter Mark Hairdressers Newry,"Albert Basin, Newry BT35 8QS, United Kingdom",54.1687155,-6.3391426,,,4.5,"['9a.m.–6p.m.', 'Closed', '9a.m.–6p.m.', '9a.m.–6p.m.', '9a.m.–6p.m.', '9a.m.–9p.m.', '9a.m.–9p.m.']",https://lh5.googleusercontent.com/p/AF1QipMrzn1OJqJ8CeEoc-n2NspjP5jzMxDdIzuWMF_6=w408-h271-k-no
10,Kazumi Hair Salon,"36 Molesworth St, Dublin 2, D02 HY45",53.3410089,-6.2569998,,,4.9,"['9a.m.–5p.m.', 'Closed', '9:30a.m.–6p.m.', '9:30a.m.–6p.m.', '9:30a.m.–6p.m.', '9:30a.m.–8p.m.', '9:30a.m.–6p.m.']",https://lh5.googleusercontent.com/p/AF1QipP8Qy4rfFJZdnTbqV3DxCzs1xqQeGStjpjEQJca=w408-h306-k-no
11,Robert Chambers Hair Salon,"69 Grafton Street, Dublin 2, D02 HC04",53.34107179999999,-6.2607051,,,4.9,"['9:15a.m.–5:30p.m.', 'Closed', '9:30a.m.–6p.m.', '9:30a.m.–6p.m.', '9:30a.m.–6p.m.', '9:30a.m.–8:30p.m.', '9:30a.m.–7p.m.']",https://lh5.googleusercontent.com/p/AF1QipMY6rwY1gHaEQjuhXVafrwS6flSX8YS2gJJveTl=w539-h240-k-no
12,Pelo Hairdressing,"Newbridge Retail Park, Unit 11 Athgarvan Rd., Kilbelin, Newbridge, Co. Kildare",53.1757244,-6.8015311,,,4.8,"['8a.m.–5:30p.m.', 'Closed', '9a.m.–6p.m.', '9a.m.–6p.m.', '9a.m.–6p.m.', '9a.m.–9p.m.', '9a.m.–9p.m.']",https://lh5.googleusercontent.com/p/AF1QipOkREb1I9rj_ufaRy7Gxqf-SfS-1BCUfcS0Lp92=w408-h382-k-no
13,Rachyl's Hairstudio,"28 Pearse St, Athlone, Co. Westmeath, N37 P523",53.4219813,-7.9455939,085 810 0950,None,None,[],https://streetviewpixels-pa.googleapis.com/v1/thumbnail?panoid=M6GnDRYVTrPDuQ1hUtKQ_g&cb_client=search.gws-prod.gps&w=408&h=240&yaw=88.93345&pitch=0&thumbfov=100
14,Great Lengths Ireland,"1 Knapton Ct, York Rd, Dún Laoghaire, Dublin",53.2913532,-6.144366499999999,(01) 284 4982,None,None,[],https://streetviewpixels-pa.googleapis.com/v1/thumbnail?panoid=DfUK_g10DzwmgZwCBlUxrg&cb_client=search.gws-prod.gps&w=408&h=240&yaw=309.253&pitch=0&thumbfov=100
15,Irish Hairdressers Federation,"Suite 1 4th Floor Marine Point, Belview Port, Co. Waterford, X91 W0XW",52.2666625,-7.037745200000001,,,4.8,"['Closed', 'Closed', '9a.m.–1p.m.', '9a.m.–1p.m.', '9a.m.–1p.m.', '9a.m.–1p.m.', '9a.m.–1p.m.']",https://lh5.googleusercontent.com/p/AF1QipOBP2fnS2sYXcUfgCmtUYIRvH4IP0GsyTosMjrG=w408-h271-k-no
16,Irish College of Hairdressing,"Unit 14J Liosban, Tuam Road, Galway, H91 P236",53.28633900000001,-9.034415000000001,,,4.0,"['Closed', 'Closed', '9a.m.–5p.m.', '9a.m.–5p.m.', '9a.m.–5p.m.', '9a.m.–5p.m.', '9a.m.–5p.m.']",https://streetviewpixels-pa.googleapis.com/v1/thumbnail?panoid=okwwWUGff75SPnhtXGJtpA&cb_client=search.gws-prod.gps&w=408&h=240&yaw=11.984134&pitch=0&thumbfov=100
17,Natural Cut,"34 Wicklow St, Dublin 2, D02 F431",53.3428688,-6.2609892,,,4.7,"['10a.m.–6:30p.m.', 'Closed', '10a.m.–6:30p.m.', '10a.m.–6:30p.m.', '10a.m.–6:30p.m.', '10a.m.–6:30p.m.', '10a.m.–6:30p.m.']",https://lh5.googleusercontent.com/p/AF1QipPS6VzokRVCmERQlZwxPcAIfkHGrEiK1VWxfGE_=w408-h544-k-no
18,Mobile Hairdresser Ashbourne - Ireland,"Killegland, Ashbourne, Co. Meath",53.5112676,-6.4003688,,,None,"['Open 24 hours', 'Open 24 hours', 'Open 24 hours', 'Open 24 hours', 'Open 24 hours', 'Open 24 hours', 'Open 24 hours']",https://streetviewpixels-pa.googleapis.com/v1/thumbnail?panoid=D_R7uowzTVKgFajrlU8gmg&cb_client=search.gws-prod.gps&w=408&h=240&yaw=52.90132&pitch=0&thumbfov=100
19,Brown Sugar,"50 William St S, Dublin 2, D02 DE93",53.3415338,-6.2627596,,,4.7,"['9a.m.–5p.m.', 'Closed', '9a.m.–5:30p.m.', '9a.m.–5:30p.m.', '9a.m.–7:30p.m.', '9a.m.–8p.m.', '9a.m.–6p.m.']",https://lh5.googleusercontent.com/p/AF1QipPP01bh6iugokEOIyOZ1_La6SQokxa2IWXUMrFw=w543-h240-k-no
20,Charming Hair and Beauty Salon,"D02 ED72, County Dublin, Dublin, IE Ground floor and basement 3 Burgh Quay",53.3469979,-6.257962999999999,,,4.2,[],https://lh5.googleusercontent.com/p/AF1QipN3tsLKN-FlF7Nx2_HB81Pzi7CoXtwS9IbUVDiP=w408-h306-k-no
21,Individual Hair Salon,"Apartment 2, Dalgan House, Sráid Chiaráin, Gairdíní San Eoin, Kilkenny",52.65194140000001,-7.251851899999999,(056) 778 9856,None,None,[],https://maps.gstatic.com/tactile/pane/default_geocode-2x.png
22,Brown Sugar,"50 William St S, Dublin 2, D02 DE93",53.3415338,-6.2627596,(01) 616 9967,brownsugar.ie,4.7,"['9a.m.–5p.m.', 'Closed', '9a.m.–5:30p.m.', '9a.m.–5:30p.m.', '9a.m.–7:30p.m.', '9a.m.–8p.m.', '9a.m.–6p.m.']",https://lh5.googleusercontent.com/p/AF1QipPP01bh6iugokEOIyOZ1_La6SQokxa2IWXUMrFw=w543-h240-k-no
23,Blow Salons,None,None,None,(01) 607 0222,blow.ie,4.1,"['8:30a.m.–6p.m.', '9:30a.m.–4p.m.', '6:30a.m.–7:30p.m.', '6:30a.m.–7:30p.m.', '6:30a.m.–7:30p.m.', '6:30a.m.–7:30p.m.', '6:30a.m.–7:30p.m.']",https://lh5.googleusercontent.com/p/AF1QipPnzXqlNi0pZrwJ14IBVKzcOLgj4BPkcwq1H48t=w567-h240-k-no
24,David Marshall Salon & School of Hairdressing,"27 S Great, George's Street Arcade, Dublin",53.34217109999999,-6.26448,(01) 677 0598,None,4.2,"['9a.m.–6p.m.', 'Closed', 'Closed', '9a.m.–6p.m.', '9a.m.–6p.m.', '9a.m.–7p.m.', '9a.m.–6p.m.']",https://lh5.googleusercontent.com/p/AF1QipPX4QWO9Y4vsso9Fxdl82oFZfl5eFbXhF4D0vhW=w426-h240-k-no
25,Barry's Hair & Beauty Studio,"34 Shop St, Galway, H91 WY2H",53.2728877,-9.0528667,(091) 561 392,barryshairstudio.ie,4.6,"['9a.m.–5p.m.', 'Closed', '9a.m.–5:30p.m.', '9a.m.–5:30p.m.', '9a.m.–5:30p.m.', '9a.m.–7p.m.', '9a.m.–7p.m.']",https://lh5.googleusercontent.com/p/AF1QipPj_EGRFob92IbpJ8wyIH2A20CJ8iU5LUwYR1NH=w408-h272-k-no
26,DaveyDavey Hair Salon,"24 Stephen Street Lower, Dublin 2",53.3412461,-6.2647717,(01) 607 8999,daveydavey.com,4.9,"['9a.m.–6p.m.', 'Closed', '9a.m.–6p.m.', '9a.m.–6p.m.', '9a.m.–6p.m.', '9a.m.–8p.m.', '9a.m.–7p.m.']",https://lh5.googleusercontent.com/p/AF1QipOqpb_Jz8bzjmNLyVQG1e57Kq-NF7r_Uj2zv0AU=w426-h240-k-no
27,Pure Aveda Salon,None,None,None,(01) 678 9864,pureavedasalon.ie,4.3,"['9a.m.–7p.m.', 'Closed', 'Closed', '9a.m.–7p.m.', '9a.m.–7p.m.', '9a.m.–7p.m.', '9a.m.–7p.m.']",https://lh5.googleusercontent.com/p/AF1QipPRewewO-Wx_NMxKVWSlkaDhYHOESU7QLLuOcbe=w408-h271-k-no
28,Blow Salons,None,None,None,(01) 611 2664,blow.ie,4.3,"['8:30a.m.–7p.m.', '10a.m.–6p.m.', '8:30a.m.–7p.m.', '8:30a.m.–7p.m.', '8:30a.m.–7p.m.', '8:30a.m.–8p.m.', '8:30a.m.–7p.m.']",https://lh5.googleusercontent.com/p/AF1QipPn-O4tzsOb543Z0a9t3sM1LXx6vg_6myJx3T8Y=w567-h240-k-no
29,La Vita Hair & Beauty Salon | Bridal Services | Ennis | Ireland,"75 O'Connell Street, Clonroad Beg, Ennis, Co. Clare, V95 KD83",52.8417695,-8.9839442,(065) 684 8515,lavitasalons.ie,4.7,"['9a.m.–6p.m.', 'Closed', '9:30a.m.–6p.m.', '9:30a.m.–6p.m.', '9:30a.m.–6p.m.', '9:30a.m.–8p.m.', '9:30a.m.–8p.m.']",https://lh5.googleusercontent.com/p/AF1QipP-3ooBvGw__uWf503zY7yYpxHkMPOJu_HobqMC=w506-h240-k-no
30,The Hair Lounge,"84 Glaslough St, Roosky, Monaghan, H18 KR83",54.24953379999999,-6.9683952,(047) 75289,thehairloungemonaghan.com,4.8,"['8a.m.–5p.m.', 'Closed', 'Closed', '9a.m.–6p.m.', '9a.m.–8p.m.', '9a.m.–8p.m.', '9a.m.–7p.m.']",https://lh5.googleusercontent.com/p/AF1QipMniWjSAq2VYZrUSBk1aJ-ViqrlylTPeqEW2T3V=w408-h415-k-no
31,Natural Cut,"34 Wicklow St, Dublin 2, D02 F431",53.3428688,-6.2609892,(01) 679 7130,thenaturalcut.ie,4.7,"['10a.m.–6:30p.m.', 'Closed', '10a.m.–6:30p.m.', '10a.m.–6:30p.m.', '10a.m.–6:30p.m.', '10a.m.–6:30p.m.', '10a.m.–6:30p.m.']",https://lh5.googleusercontent.com/p/AF1QipPS6VzokRVCmERQlZwxPcAIfkHGrEiK1VWxfGE_=w408-h544-k-no
32,The hair lounge,"Unit 9 The Plaza Village, Forster Way, Swords, Co. Dublin",53.45660040000001,-6.2200175,(01) 694 7000,thehairloungeswords.ie,4.9,"['9a.m.–5:30p.m.', 'Closed', '9:30a.m.–6p.m.', '9:30a.m.–6p.m.', '9:30a.m.–6p.m.', '9:30a.m.–8p.m.', '9:30a.m.–8p.m.']",https://lh5.googleusercontent.com/p/AF1QipO8pBBcGoZ48DEPJDE7tlWuTfdjbTFNFd9kFuaT=w426-h240-k-no
33,LE viva hair salon,"21 Bridge St, Castlelands, Mallow, Co. Cork, P51 NH70",52.1346974,-8.6409512,087 452 9666,facebook.com,5.0,"['10a.m.–5p.m.', 'Closed', 'Closed', 'Closed', '10a.m.–6p.m.', '10a.m.–6p.m.', '10a.m.–6p.m.']",https://lh5.googleusercontent.com/p/AF1QipMymzJF1TTeSuL32tCqKaJbFm5ZvAbgUSwZJxb5=w408-h244-k-no
34,Powder Room Hair & Makeup Salon,"1 Brownsbarn Ct, Kingswood Cross, Dublin, D22 K237",53.2980168,-6.4197517,(01) 403 3030,business.site,4.7,"['8a.m.–6p.m.', '9a.m.–1p.m.', 'Closed', '9a.m.–5p.m.', '9a.m.–5p.m.', '9a.m.–5p.m.', '9a.m.–6p.m.']",https://lh5.googleusercontent.com/p/AF1QipMZRNlOinHu9hbSst3_bst4h6Ws0t7r65nMc-G2=w408-h314-k-no
35,Style Club Hairdressing,"12 William St S, Dublin",53.3424902,-6.262440799999999,(01) 472 2444,styleclub.ie,4.4,"['9a.m.–6p.m.', 'Closed', '10a.m.–6p.m.', '10a.m.–9p.m.', '10a.m.–9p.m.', '10a.m.–9p.m.', '9a.m.–9p.m.']",https://lh5.googleusercontent.com/p/AF1QipPDjuaogQYFuUCyYa-IKsk9v2PD8xNTWyg88Fqm=w408-h271-k-no
36,Peter Mark Hairdressers Letterkenny,"Unit B, Fort Lynne House, Letterkenny, Co. Donegal",54.94789429999999,-7.7313006,(074) 912 8657,petermark.ie,4.7,"['9a.m.–5:30p.m.', 'Closed', '9a.m.–6p.m.', '9a.m.–6p.m.', '9a.m.–6p.m.', '9a.m.–8:30p.m.', '9a.m.–8:30p.m.']",https://lh5.googleusercontent.com/p/AF1QipMLeQf9V_RHQs8Ed_q_Z6_D6Ea2v9a9i0S58cPT=w408-h272-k-no
37,Vanilla Browns Hair Salon at The Absolute Hotel,"Sir Harry's Mall, Limerick",52.6677118,-8.619161199999999,(061) 463 608,vanillabrowns.com,3.8,"['10a.m.–8p.m.', 'Closed', '10a.m.–8p.m.', '10a.m.–6p.m.', 'Closed', '10a.m.–8p.m.', '10a.m.–8p.m.']",https://lh5.googleusercontent.com/p/AF1QipN6KMVfCi7HrahLEVsOR_5gKwzdcj-pCGW8ROfD=w426-h240-k-no
38,Aura Hair Specialists Ireland,"The Square, Townparks, Castlepollard, Co. Westmeath, N91 X625",53.6799203,-7.2986064,(044) 966 1234,aurahairdesign.ie,4.9,"['9a.m.–5p.m.', 'Closed', 'Closed', '9a.m.–5p.m.', '9a.m.–5p.m.', '9a.m.–5p.m.', '9a.m.–5p.m.']",https://lh5.googleusercontent.com/p/AF1QipMST5KiFCJMAEHdCObiLs8KF0bdX0SdWtz6HdKU=w426-h240-k-no
39,Shear Perfection Hair Salon,"Sineile House, Main Street Virginia, Virginia, Ireland, Co. Cavan",53.8345035,-7.0823538,083 866 1471,facebook.com,4.3,[],https://lh5.googleusercontent.com/p/AF1QipNl7cOKVENBPpU9mk47zlAi0SXcu3Uux0ta1uSL=w408-h725-k-no
40,Reds Hair Salon,"1st Floor, 21 Dawson St, Dublin, D02 TK33",53.33965749999999,-6.2585532,(01) 678 8211,reds.ie,4.4,"['9:30a.m.–4:30p.m.', 'Closed', 'Closed', '9:30a.m.–5:30p.m.', '9:30a.m.–5:30p.m.', '9:30a.m.–6:30p.m.', '9:30a.m.–6:30p.m.']",https://lh5.googleusercontent.com/p/AF1QipO-jndXTjXFa9aFOXWEt5mcL_nblW7lf8JyCpjo=w408-h306-k-no
41,The Company Hair Salon,"Old Mill, 5 Church St, Moneyballytyrrell, Portlaoise, Co. Laois",53.03598650000001,-7.296929,,,4.9,"['9a.m.–5p.m.', 'Closed', 'Closed', '9a.m.–6p.m.', '9a.m.–6p.m.', '9a.m.–9p.m.', '9a.m.–9p.m.']",https://lh5.googleusercontent.com/p/AF1QipMJGUSGYbdDzaDRxweSFXsvVuTlsknRwBBR5ZPd=w408-h408-k-no
42,CHAIR Hair Salon,None,None,None,(021) 424 8710,chair.ie,4.9,"['9:30a.m.–8:30p.m.', 'Closed', '9:30a.m.–5:30p.m.', '9:30a.m.–5:30p.m.', '9:30a.m.–5:30p.m.', '9:30a.m.–6:30p.m.', '9:30a.m.–7:30p.m.']",https://lh5.googleusercontent.com/p/AF1QipNDMX8-RBlYnCakka4a6JvYxHdrMXqYGT-WfAyo=w408-h408-k-no
43,Ceira Lambert Hair Consultancy,"Violet House, Main St, Shankill, Dublin",53.2310506,-6.1241749,(01) 442 0560,ceiralambert.com,5.0,"['9a.m.–6p.m.', 'Closed', 'Closed', '9a.m.–6p.m.', '9a.m.–9p.m.', '9a.m.–9p.m.', '9a.m.–6p.m.']",https://lh5.googleusercontent.com/p/AF1QipMzDYQAMdDNPNJ3cHwYY_jFWViDt_6rbD7Q97sL=w408-h510-k-no
44,Platinum Hair Extensions,"Sackville House, The Times Building, D'Olier Street, Dublin",53.3462488,-6.258429,(01) 670 8639,platinumluxuryhairextensions.com,4.9,"['9a.m.–5p.m.', 'Closed', '9a.m.–5p.m.', '9a.m.–5p.m.', '9a.m.–8p.m.', '9a.m.–8p.m.', '9a.m.–5p.m.']",https://lh5.googleusercontent.com/p/AF1QipMrrBk1vbTG20zNRjQznOSzwiy3Aq8dEf2Pltz-=w408-h271-k-no
45,Niall Colgan Hairdressing,"O'Callaghan Strand, Limerick, V94 WK27",52.6647439,-8.6325862,(061) 582 240,niallcolganhairdressing.ie,4.8,"['8:30a.m.–5:30p.m.', 'Closed', '9a.m.–6p.m.', '9a.m.–6p.m.', '9a.m.–6p.m.', '9a.m.–8p.m.', '9a.m.–8p.m.']",https://lh5.googleusercontent.com/p/AF1QipPwBeMAYHH0O-sgclG2WFbUamkb2-0RumSeEJ3m=w426-h240-k-no
46,The Hair Salon,"Riverside Wharf, West Beach, Kilgarvan, Cobh, Co. Cork",51.8500289,-8.2922618,(021) 485 5866,thehairsalon.ie,5.0,"['8a.m.–4p.m.', 'Closed', 'Closed', '9a.m.–6p.m.', '9a.m.–6p.m.', '9a.m.–6p.m.', '9a.m.–6p.m.']",https://lh5.googleusercontent.com/p/AF1QipPDZWgS4RoFTCK3ZH49OoMhIdimKvnD6v6j08r9=w408-h271-k-no
47,Blow Salons,None,None,None,(01) 614 4526,blow.ie,4.3,"['9a.m.–6p.m.', '10a.m.–4p.m.', '6:30a.m.–7p.m.', '6:30a.m.–7p.m.', '6:30a.m.–7p.m.', '6:30a.m.–7p.m.', '6:30a.m.–7p.m.']",https://lh5.googleusercontent.com/p/AF1QipPlbuCu_BK8wzFqhbZ3TiGrAfdQTbLWv-Sz-25j=w567-h240-k-no
48,Aviary Lane,"24 Anne St S, Dublin 2",53.34097939999999,-6.2591131,(01) 611 1101,aviarylane.com,4.8,"['9a.m.–6p.m.', 'Closed', 'Closed', '10a.m.–6p.m.', '10a.m.–6p.m.', '10a.m.–8p.m.', '10a.m.–8p.m.']",https://lh5.googleusercontent.com/p/AF1QipMe42Js8Pv_-eqxirDgRzXkyMbd3qqWliuS5P1-=w426-h240-k-no
49,Alan Keville For Hair,"2 Anne St S, Dublin, D02 KR65",53.34127909999999,-6.2600554,None,None,None,[],https://streetviewpixels-pa.googleapis.com/v1/thumbnail?panoid=IRtTO1O_TRQseKzcKJ0cEQ&cb_client=search.gws-prod.gps&w=408&h=240&yaw=12.339397&pitch=0&thumbfov=100
50,bozena sarek hairdressing,"58 Academy St, Dillonsland, Navan, Co. Meath",53.6502522,-6.6812402,(046) 907 2517,bozenasarekhairdressing.ie,4.7,"['8a.m.–4p.m.', 'Closed', 'Closed', '9:30a.m.–5p.m.', '11a.m.–8p.m.', '11a.m.–8p.m.', '9a.m.–8p.m.']",https://lh5.googleusercontent.com/p/AF1QipPt9tVrJsnmMKaBTs0SKJ2vkK0GOC19GY_o1iof=w408-h411-k-no
51,Peter Mark Hairdressers Grafton St.,"74 Grafton Street, Dublin 2, D02 PD81",53.3414571,-6.2604505,(01) 671 4136,petermark.ie,4.3,"['9a.m.–6p.m.', '11a.m.–5:30p.m.', '9a.m.–6p.m.', '9a.m.–8p.m.', '8a.m.–8p.m.', '8a.m.–8p.m.', '8a.m.–8p.m.']",https://lh5.googleusercontent.com/p/AF1QipNdaAFGPfXDZuQc_40FMMPZmP5GAuCXE3tqGDhP=w408-h272-k-no
52,Gorgeous Hair Salon,"5 Maryfield Ave, Beaumont, Artane, Co. Dublin, D05 V2R2",53.3864736,-6.2117097,(01) 867 4643,None,4.5,"['8a.m.–3p.m.', 'Closed', 'Closed', '9a.m.–5:30p.m.', '9a.m.–5:30p.m.', '8a.m.–8p.m.', '8a.m.–8p.m.']",https://lh5.googleusercontent.com/p/AF1QipPgdlQGewsYdJNXsXWfPRuem-JRwGlysf7UbS8=w408-h408-k-no
53,Cabello Hair Design,"20 Sandycove Road, Sandycove, Dublin, A96 WY23",53.2859574,-6.117262600000001,(01) 230 1160,cabellohairdesign.ie,4.6,"['9a.m.–6p.m.', 'Closed', 'Closed', '9a.m.–6p.m.', '9a.m.–6p.m.', '9a.m.–6p.m.', '9a.m.–6p.m.']",https://streetviewpixels-pa.googleapis.com/v1/thumbnail?panoid=tAsnkJFVJHAUdau43tR0sg&cb_client=search.gws-prod.gps&w=408&h=240&yaw=194.0775&pitch=0&thumbfov=100
54,Locks Of Hair Salon,"36 Barrack St, Loughrea, Co. Galway, H62 CX31",53.1975328,-8.569016,(091) 880 915,business.site,5.0,"['9a.m.–5p.m.', 'Closed', 'Closed', '9:30a.m.–6p.m.', '9:30a.m.–6p.m.', '9:30a.m.–6p.m.', '9:30a.m.–7p.m.']",https://lh5.googleusercontent.com/p/AF1QipMB3j46OYdC1LBIa8y-K9tLm_2tLWB319CP7y0o=w408-h544-k-no
55,Black Amber - Templeogue,"10 Cypress Park, Templeogue Village, Dublin",53.2995749,-6.3083775,(01) 499 1910,blackamber.ie,4.9,"['9a.m.–6p.m.', 'Closed', '9a.m.–6p.m.', '9a.m.–6p.m.', '9a.m.–6p.m.', '9a.m.–9p.m.', '9a.m.–6p.m.']",https://lh5.googleusercontent.com/p/AF1QipO1VJEXByKydW1s-gluiDLPq2GJyyse3Jxu8sze=w408-h240-k-no-pi0-ya180.71716-ro-0-fo100
56,Peter Mark Hairdressers Rathfarnham,"Rathfarnham Shopping Centre Level 2 Rathfarnham, Butterfield Ave, Co. Dublin",53.2967555,-6.297553,(01) 493 3653,petermark.ie,4.6,"['9a.m.–5:30p.m.', 'Closed', '9a.m.–6p.m.', '9a.m.–6p.m.', '9a.m.–6p.m.', '9a.m.–9p.m.', '9a.m.–9p.m.']",https://lh5.googleusercontent.com/p/AF1QipNM0supKxO-hm7E925vQrL4hFR8ms9C6fNCPQbl=w408-h272-k-no
57,Hair Cafe Salon,"8a Thundercut Alley, Smithfield, Dublin 7",53.34926549999999,-6.2795195,(01) 878 8198,haircafesalon.ie,4.8,"['9a.m.–5p.m.', 'Closed', 'Closed', '10a.m.–6p.m.', '10a.m.–7p.m.', '9a.m.–8p.m.', '9a.m.–8p.m.']",https://lh5.googleusercontent.com/p/AF1QipMldtIdL2mfVDssmciHsKOEiKz2A6UAv9ZKP0k=w408-h272-k-no
58,Hairorganic.ie,"16 Woodlands Rd, Glenageary, Dublin, A96 H5X8",53.2666419,-6.1418328,087 276 2248,hairorganic.ie,5.0,"['9a.m.–1p.m.', 'Closed', 'Closed', '10a.m.–5:30a.m.', '10a.m.–6a.m.', '10a.m.–6a.m.', '10a.m.–5p.m.']",https://lh5.googleusercontent.com/p/AF1QipPCW9XHGzdIfPQb7nV4RdzxJFn4NEDxOI3JFDPf=w408-h274-k-no
59,The Hair Boutique,"5 Elmwood, Meelick, Co. Clare, V94 D5K8",52.7039386,-8.649293499999999,None,None,5.0,[],https://streetviewpixels-pa.googleapis.com/v1/thumbnail?panoid=gFCOlKimzx1szoZLbuEr_Q&cb_client=search.gws-prod.gps&w=408&h=240&yaw=131.08972&pitch=0&thumbfov=100
60,Peter Mark Hairdressers Blanchardstown Village,"SuperValu Shopping Centre Main Street Blanchardstown, D15 TYF3",53.38617559999999,-6.378282,(01) 821 0903,petermark.ie,4.6,"['9a.m.–6p.m.', 'Closed', '9a.m.–6p.m.', '9a.m.–6p.m.', '9a.m.–6p.m.', '9a.m.–8:30p.m.', '9a.m.–8:30p.m.']",https://lh5.googleusercontent.com/p/AF1QipNAcGWMoE8DW8FIk4zpaB5RLf9Z6TqiLSH48VsX=w408-h272-k-no
61,Salon 2 Hairdressing,"5 Adelaide St, Abbeyquarter North, Sligo",54.2710399,-8.4795389,,,5.0,"['9a.m.–5:30p.m.', 'Closed', '9a.m.–6p.m.', '9a.m.–6p.m.', '9a.m.–8p.m.', '9a.m.–8p.m.', '9a.m.–7p.m.']",https://lh5.googleusercontent.com/p/AF1QipMPDHgC16BBROxIDNQYCP7fStvUKyUqfntWZ9Km=w408-h620-k-no
62,Cathriona's Hairsalon,"Mary Street, Tralee, Co. Kerry",52.26802929999999,-9.7080333,(066) 714 4626,cathrionashairsalon.com,4.5,"['8a.m.–8p.m.', 'Closed', '8a.m.–8p.m.', '8a.m.–8p.m.', '8a.m.–8p.m.', '8a.m.–8p.m.', '8a.m.–8p.m.']",https://lh5.googleusercontent.com/p/AF1QipOJBHmAvDL-QH2fQ9h4kwl7LYQKAHbIB2ylJL7W=w408-h515-k-no
63,Cats Hair Salon,"1 Clarendon St, Dublin, D02 TA43",53.3420584,-6.2613078,(01) 679 9417,catshairsalon.ie,4.9,"['9a.m.–6p.m.', 'Closed', '9a.m.–6p.m.', '9a.m.–6p.m.', '9a.m.–6p.m.', '9a.m.–8p.m.', '9a.m.–6p.m.']",https://lh5.googleusercontent.com/p/AF1QipPxW6ZDSiUCMlT-CD3grLtMtm5OooDU1hY6MXdk=w408-h520-k-no
64,Great Lengths Ireland,"1 Knapton Ct, York Rd, Dún Laoghaire, Dublin",53.2913532,-6.144366499999999,(01) 284 4982,None,None,[],https://streetviewpixels-pa.googleapis.com/v1/thumbnail?panoid=DfUK_g10DzwmgZwCBlUxrg&cb_client=search.gws-prod.gps&w=408&h=240&yaw=309.253&pitch=0&thumbfov=100
65,Obsessed Hair Salon,None,None,None,(061) 210 768,obsessedhairsalon.ie,4.7,"['9a.m.–7:30p.m.', 'Closed', 'Closed', '9a.m.–5:30p.m.', '9a.m.–5:30p.m.', '9a.m.–7:30p.m.', '9a.m.–7:30p.m.']",https://lh5.googleusercontent.com/p/AF1QipPUzIuFtKGS9FuWAvb-3jiswSOI0vOTCEVQ38Dk=w408-h272-k-no
66,Black Amber - Rathfarnham,"3 St Enda's Dr, Rathfarnham, Dublin 14, D14 N7C6",53.2891482,-6.283426599999999,(01) 493 2987,blackamber.ie,4.9,"['9a.m.–6p.m.', 'Closed', '9a.m.–6p.m.', '9a.m.–6p.m.', '9a.m.–6p.m.', '9a.m.–9p.m.', '9a.m.–8:30p.m.']",https://lh5.googleusercontent.com/p/AF1QipPZtg8fQF6_TnSxtuJbxP3jAiPbMETsfW4RUO-K=w408-h240-k-no-pi-0-ya204.66734-ro0-fo100
67,TONI&GUY Blackrock,"14 Main St, Blackrock, Co. Dublin, A94 Y406",53.3015785,-6.177512999999999,(01) 288 3240,toniandguy.ie,4.6,"['8:30a.m.–5p.m.', 'Closed', '9a.m.–6p.m.', '9a.m.–6p.m.', '9a.m.–6p.m.', '9a.m.–8p.m.', '9a.m.–7p.m.']",https://lh5.googleusercontent.com/p/AF1QipPuH26UmYeu9p3htyyOkN4gLz95VBagnm159NY3=w408-h244-k-no
68,Patrick Gildea Hairdressing & Beauty,"Unit 2b, Riverside Retail Park, Neil T Blaney Rd, Letterkenny, Co. Donegal",54.9459439,-7.7275993,(074) 912 5476,patrickgildea.ie,4.6,"['8a.m.–7p.m.', 'Closed', '9a.m.–8p.m.', '9a.m.–8p.m.', '9a.m.–8p.m.', '9a.m.–8p.m.', '9a.m.–8p.m.']",https://lh5.googleusercontent.com/p/AF1QipNUkAyicQQGhYmzs12l3i-3Z0voyHLNI6uYurnl=w408-h270-k-no
69,Alan Keville for Hair,"Balcony Level Powerscourt Townhouse Centre, William St S, Dublin 2, DO2 HF95",53.3421854,-6.2625291,(01) 675 0022,kevillehair.com,4.7,"['9a.m.–5:30p.m.', 'Closed', '9:30a.m.–6p.m.', '9:30a.m.–6p.m.', '9:30a.m.–6p.m.', '9:30a.m.–8p.m.', '9:30a.m.–8p.m.']",https://lh5.googleusercontent.com/p/AF1QipOI3K3IKrjuxxFvAx-6OyTx8gwrY2x9KBf1_3eh=w408-h507-k-no
70,Koka Hair Salon,"Left Bank Mall, Pearse St, Athlone, Co. Westmeath",53.4225748,-7.9448487,(090) 649 0361,None,4.9,[],https://streetviewpixels-pa.googleapis.com/v1/thumbnail?panoid=PaW4MlroBHaFgMY_5OWPEQ&cb_client=search.gws-prod.gps&w=408&h=240&yaw=78.22123&pitch=0&thumbfov=100
71,K.Hair,"4 Kennedy Ave, Carlow, R93 NP63",52.8343831,-6.927975999999999,(059) 914 0433,None,4.6,"['8a.m.–6p.m.', 'Closed', '8a.m.–6p.m.', '8a.m.–6p.m.', '8a.m.–6p.m.', '8a.m.–8p.m.', '8a.m.–8p.m.']",https://lh5.googleusercontent.com/p/AF1QipNkAdI2RIDKCKSG54Qh8Sn1nJ4eyBuia4cTiK_h=w408-h306-k-no
72,Mobile Hairdresser Ashbourne - Ireland,"Killegland, Ashbourne, Co. Meath",53.5112676,-6.4003688,089 226 4559,facebook.com,None,"['Open 24 hours', 'Open 24 hours', 'Open 24 hours', 'Open 24 hours', 'Open 24 hours', 'Open 24 hours', 'Open 24 hours']",https://streetviewpixels-pa.googleapis.com/v1/thumbnail?panoid=D_R7uowzTVKgFajrlU8gmg&cb_client=search.gws-prod.gps&w=408&h=240&yaw=52.90132&pitch=0&thumbfov=100
73,Ritzys Hair Salon,"William Street, Puttaghan, Tullamore, Co. Offaly, R35 FY92",53.2768127,-7.491416699999998,(057) 934 1036,ritzyshairsalon.ie,4.5,"['9a.m.–6p.m.', 'Closed', 'Closed', '9:30a.m.–6p.m.', '9:30a.m.–6p.m.', '9:30a.m.–7p.m.', '9:30a.m.–7p.m.']",https://lh5.googleusercontent.com/p/AF1QipOYgQMR9EL1LGyoaBwXfCAqM1UvBWiO8Oc19roP=w450-h240-k-no
74,Annette Hair Salon,"Dean St, Merchants Quay, Dublin",53.3390809,-6.2731328,087 225 7063,None,4.5,"['10a.m.–6p.m.', 'Closed', 'Closed', '10a.m.–8p.m.', '10a.m.–8p.m.', '10a.m.–8p.m.', '10a.m.–8p.m.']",https://lh5.googleusercontent.com/p/AF1QipNA2FX1m0km4RFGjIPOK9OSTDxLOXuDbefEcUS7=w408-h408-k-no
75,House Of Colour,"64 Middle Abbey St, North City, Dublin 1, D01 X4C6",53.3480431,-6.2613185,(01) 878 3633,houseofcolour.ie,4.2,"['9a.m.–5p.m.', 'Closed', '10a.m.–5:30p.m.', '10a.m.–5:30p.m.', '10a.m.–5:30p.m.', '10a.m.–8p.m.', '10a.m.–7p.m.']",https://lh5.googleusercontent.com/p/AF1QipNyyhIymxFokUAMfPVWXq-I626CS5C3tlFW6PI-=w408-h272-k-no
76,Shinelle Hair Salon,"Rathronan, Bridgetown, Co. Wexford, Y35 N2H1",52.2438515,-6.553645299999999,087 995 2506,None,4.6,"['9a.m.–5:30p.m.', '11a.m.–5p.m.', 'Closed', '9a.m.–6p.m.', '9a.m.–6p.m.', '9a.m.–6p.m.', '9a.m.–6p.m.']",https://lh5.googleusercontent.com/p/AF1QipPgzjIDBpR6USo4wDsFMI7xHo693ldy_ELijeae=w425-h240-k-no
77,Monicas Hair Salon,"8 Slaney St, Enniscorthy, Co. Wexford, Y21 D634",52.5020914,-6.567948299999999,087 712 2899,None,4.7,"['9a.m.–5:30p.m.', 'Closed', '9:30a.m.–4p.m.', '9:30a.m.–5:30p.m.', '9:30a.m.–5:30p.m.', '9:30a.m.–5p.m.', '9a.m.–5:30p.m.']",https://lh5.googleusercontent.com/p/AF1QipMZIL8l2vtI71H0p1BTeF2SR9VcbEMoaNU3J5Lp=w408-h544-k-no
78,Aidan Fitzgerald Hair Salon & Private Wig Boutique,"12 Main St, Blackrock, Co. Dublin, A94 W582",53.3016178,-6.1775794,(01) 288 6479,aidanfitzgerald.ie,4.7,"['8a.m.–8p.m.', 'Closed', '8a.m.–6p.m.', '8a.m.–6p.m.', '8a.m.–6p.m.', '8a.m.–8p.m.', '8a.m.–8p.m.']",https://lh5.googleusercontent.com/p/AF1QipNAq-JB47Mpwk8g1QV_p1cMd__7wV4oOniS4UMW=w408-h544-k-no
79,Steel Magnolias Hairdressing Salon,"13 Aughrim St, Stoneybatter, Dublin, D07 NA49",53.3536136,-6.2871039,(01) 827 6161,m.facebook.com,4.9,"['9a.m.–5p.m.', 'Closed', 'Closed', 'Closed', '10a.m.–2p.m.', '10a.m.–8p.m.', '10a.m.–6p.m.']",https://lh5.googleusercontent.com/p/AF1QipNPHYEFVAACavoGqbBNr48gWl4kWcG0m_c6Imoq=w426-h240-k-no
80,Pelo Hairdressing & Scalp Specialists,"95 Swords Rd, Whitehall, Dublin, D09 V840",53.3813876,-6.2454877,(01) 797 9358,pelohairdressing.ie,4.8,"['9a.m.–5:30p.m.', 'Closed', 'Closed', '9a.m.–6p.m.', '9a.m.–6p.m.', '9a.m.–8p.m.', '9a.m.–8p.m.']",https://lh5.googleusercontent.com/p/AF1QipOeVSks1WKonCXWdTgwj5A5Wu7pTgyrbvM1p-DJ=w408-h544-k-no
81,Hair World Studio,"9 Moore St, North City, Dublin 1, D01 V227",53.35002300000001,-6.262162099999999,None,None,None,"['Open 24 hours', 'Open 24 hours', 'Open 24 hours', 'Open 24 hours', 'Open 24 hours', 'Open 24 hours', 'Open 24 hours']",https://streetviewpixels-pa.googleapis.com/v1/thumbnail?panoid=Wg_ARq8XYzcwBSaTPQOtzg&cb_client=search.gws-prod.gps&w=408&h=240&yaw=88.65024&pitch=0&thumbfov=100
82,Whetstone Aveda Concept Salon,"7 Parliament St, Temple Bar, Dublin, D02 RK76",53.3445052,-6.267202999999999,(01) 671 1344,whetstone.ie,4.1,"['9a.m.–6p.m.', 'Closed', 'Closed', '10a.m.–7p.m.', '10a.m.–8p.m.', '10a.m.–8p.m.', '9a.m.–8p.m.']",https://lh5.googleusercontent.com/p/AF1QipOpdJpDIR4eKOTBCYU16Zd2EkZpJoCu0EUFcvip=w426-h240-k-no
83,Silke Hair and Beauty,"RA3 1P Beacon South Quarter, Sandyford, Dublin 18, Sandyford, Dublin 18, D18 VA43",53.2770608,-6.2162752,(01) 549 5996,silkehairandbeauty.com,4.8,"['9a.m.–5p.m.', 'Closed', 'Closed', '9a.m.–6p.m.', '9a.m.–7p.m.', '9a.m.–9p.m.', '9a.m.–7p.m.']",https://lh5.googleusercontent.com/p/AF1QipNBLhOT-7dTtqXsFKjN96g2aYEsNCaqnEoL98_M=w408-h862-k-no
84,Cocochoco Professional Ireland,"15 Anne St, Limerick, V94 NN93",52.6621708,-8.625419899999999,083 018 4097,cocochoco.ie,5.0,"['10a.m.–5p.m.', 'Closed', 'Closed', '10a.m.–5p.m.', '10a.m.–5p.m.', '10a.m.–5p.m.', '10a.m.–5p.m.']",https://lh5.googleusercontent.com/p/AF1QipOf8G-OcS0xrC8PMLaT7hyKF7arRXerWFs4y67d=w426-h240-k-no
85,Bellissimo Limerick,"Mount Kenneth Pl, Dock Rd, Limerick",52.6606459,-8.6343798,(061) 317 541,bellissimo.ie,4.6,"['9a.m.–5:30p.m.', 'Closed', '9a.m.–9p.m.', '9a.m.–9p.m.', '9a.m.–9p.m.', '9a.m.–9p.m.', '9a.m.–9p.m.']",https://lh5.googleusercontent.com/p/AF1QipOODwBMIb5DM-525M7pyrvdnNY31fYUgvooi0HN=w426-h240-k-no
86,Siobhans Hair Salon,"Emlaghfad Church of Ireland, Lord Edward St, Ballymote, Co. Sligo",54.0893315,-8.516332499999999,(071) 918 9099,None,5.0,[],https://streetviewpixels-pa.googleapis.com/v1/thumbnail?panoid=WVE5cdXknbDOFFpZK3FLSQ&cb_client=search.gws-prod.gps&w=408&h=240&yaw=284.25864&pitch=0&thumbfov=100
87,Cathrionas hair group Dingle,"NO 3, The Tracks, Dingle, Co. Kerry, V92 F449",52.1389763,-10.2719014,(066) 915 1744,cathrionashairsalon.com,5.0,"['8a.m.–4p.m.', 'Closed', 'Closed', '9:30a.m.–5p.m.', '9:30a.m.–5p.m.', '9:30a.m.–7p.m.', '8:30a.m.–6p.m.']",https://lh5.googleusercontent.com/p/AF1QipN2BD1GKNmYMOwAdp_7uB8R-1BJrUkd3_Z4t4We=w408-h271-k-no
88,House of Colour Academy,"The Times Building, D'Olier Street, Dublin",53.3460759,-6.258297,(01) 604 0717,houseofcolour.ie,4.4,"['9a.m.–5p.m.', 'Closed', '10a.m.–5:30p.m.', '10a.m.–5:30p.m.', '10a.m.–5:30p.m.', '10a.m.–8p.m.', '10a.m.–7p.m.']",https://lh5.googleusercontent.com/p/AF1QipMPpFO3L-F7BkswgjgSQE1-2uy_rrBkihH0DgmK=w408-h612-k-no
89,Conlemany by Organic Italian Hairdressing,"64A George's Street Upper, Dún Laoghaire, Dublin, A96 VK02",53.2894855,-6.1299586,087 719 4495,organicitalianhair.bio,4.6,"['9a.m.–5p.m.', '11a.m.–5p.m.', 'Closed', '9a.m.–5:30p.m.', '9a.m.–5:30p.m.', '10a.m.–7:30p.m.', '9:30a.m.–6:30p.m.']",https://lh5.googleusercontent.com/p/AF1QipOZHEyHEKDxJEyefobBdQHWBntzVE7l_Vyu2ZMD=w426-h240-k-no
90,Stylistic Hair Salon,"Unit 2, Roscam House, Roscam, Co. Galway, H91 VH32",53.2765486,-8.974511699999999,(091) 763 777,stylistic.ie,5.0,"['9a.m.–6p.m.', 'Closed', 'Closed', '10a.m.–6p.m.', '10a.m.–6p.m.', '9a.m.–8p.m.', '9a.m.–8p.m.']",https://lh5.googleusercontent.com/p/AF1QipOEEYrbInEXIES_JwkB8BW4YyaNru_jPdq8oSB6=w408-h612-k-no
91,Hidden Hair & Beauty Studio,"73 John McCormack Ave, Walkinstown, Dublin, D12 P8X0",53.3194417,-6.3255897,None,hiddenhairandbeautystudio.com,5.0,"['9a.m.–2p.m.', 'Closed', '10a.m.–7p.m.', '10a.m.–8p.m.', '10a.m.–7p.m.', '10a.m.–7p.m.', '11a.m.–8p.m.']",https://lh5.googleusercontent.com/p/AF1QipPtyGuBROubweGFyLZoyN2OvNlmnDskqxQbdEzx=w426-h240-k-no
92,The Makeover Studio,"Bridge St, Townparks, Carrick-On-Shannon, Co. Republic of Ireland",53.9445534,-8.0949384,(071) 961 6111,themakeoverstudios.com,4.8,"['9:30a.m.–6p.m.', 'Closed', 'Closed', '9:30a.m.–6p.m.', '9:30a.m.–6p.m.', '9:30a.m.–6p.m.', '9:30a.m.–6p.m.']",https://lh5.googleusercontent.com/p/AF1QipMeV1pr-M23DKiyZs9GPcw09a6OA8WEJ4voZVDK=w720-h240-k-no
93,Zeba Hairdressing @ Arnotts,"12 Henry St, North City, Dublin 1",53.3492212,-6.2630526,(01) 873 5858,zeba.ie,4.4,"['9a.m.–7p.m.', '11a.m.–5p.m.', '9:30a.m.–7p.m.', '9:30a.m.–7p.m.', '9:30a.m.–7p.m.', '9:30a.m.–9p.m.', '9:30a.m.–8p.m.']",https://lh5.googleusercontent.com/p/AF1QipMcyBYHbDdZphhjUftTXEnNuVxw0ixfMIHJIeyn=w408-h272-k-no
94,The Academy @ Robert Chambers Hairdressing,"Leverl 3, 69 Grafton Street, Dublin 2, D02 HC04",53.34107179999999,-6.2607051,(01) 677 1323,robertchambersacademy.ie,None,"['Closed', 'Closed', '9:30a.m.–5p.m.', '9:30a.m.–5p.m.', '9:30a.m.–5p.m.', '9:30a.m.–5p.m.', '9:30a.m.–5p.m.']",https://lh5.googleusercontent.com/p/AF1QipN3NX5j2DD_mLlI0vRBKEuZoCEM1NyRmIqTfuEG=w480-h240-k-no
95,Peter Mark Hairdressers Corrib Shopping Centre Galway,"Corrib Shopping Centre, Eyre St, Galway, H91 DP6R",53.2759459,-9.0503477,(091) 561 977,petermark.ie,4.4,"['9a.m.–6p.m.', 'Closed', '9a.m.–6p.m.', '9a.m.–6p.m.', '9a.m.–6p.m.', '9a.m.–9p.m.', '9a.m.–9p.m.']",https://lh5.googleusercontent.com/p/AF1QipM-nViwrnH5gz4NFDarfDkUQ4gI7XO-AHQReW7k=w408-h272-k-no
96,The Salon,"73/74 Patrick St, Dublin 8, D08 XT28",53.3414362,-6.2720334,(01) 416 4898,None,4.5,"['9a.m.–5:30p.m.', 'Closed', 'Closed', '9a.m.–6p.m.', '9a.m.–6p.m.', '9a.m.–6p.m.', '9a.m.–6p.m.']",https://lh5.googleusercontent.com/p/AF1QipN0CVjAwiIachltuaj-FTO4u3WeHUeMQQ-mqaii=w408-h306-k-no
97,Rachyl's Hairstudio,"28 Pearse St, Athlone, Co. Westmeath, N37 P523",53.4219813,-7.9455939,085 810 0950,None,None,[],https://streetviewpixels-pa.googleapis.com/v1/thumbnail?panoid=M6GnDRYVTrPDuQ1hUtKQ_g&cb_client=search.gws-prod.gps&w=408&h=240&yaw=88.93345&pitch=0&thumbfov=100
98,The Greene Room Hair & Makeup Salon,"Royal Parade, Shantraud, Killaloe, Co. Clare, V94 V024",52.8066039,-8.4397261,(061) 622 575,greeneroom.ie,5.0,"['9a.m.–6p.m.', 'Closed', 'Closed', '10a.m.–6p.m.', '10a.m.–6p.m.', '10a.m.–8p.m.', '9a.m.–6p.m.']",https://lh5.googleusercontent.com/p/AF1QipOuTb1kSiIXkp7Xv11iAkLvXZyk-OizShh93rI3=w426-h240-k-no
99,The Hair Room,"Deanstown House, Unit 7, Blanchardstown, Dublin",53.3859062,-6.373466000000001,085 120 8321,thehairroom.ie,4.9,[],https://lh5.googleusercontent.com/p/AF1QipPAVKBZUYNP28vFbunbI5Wk7JH7TpZFpvSxE3IF=w408-h408-k-no
100,Elite Hair Extensions,None,None,None,(01) 814 0835,eliteextensions.ie,4.7,"['9a.m.–5p.m.', 'Closed', '9:30a.m.–6p.m.', '9:30a.m.–6p.m.', '9:30a.m.–8p.m.', '9:30a.m.–8p.m.', '9:30a.m.–6p.m.']",https://lh5.googleusercontent.com/p/AF1QipPuInKx8r0wptVyHCPuHmCpiE8DfXDu1y5bBZEE=w408-h408-k-no
101,Fringe Hair Salon,"41 Thomas St, Limerick, V94 W188",52.6620411,-8.624721,None,None,None,[],https://streetviewpixels-pa.googleapis.com/v1/thumbnail?panoid=sLEI2swywlrn8UBXBdqNRQ&cb_client=search.gws-prod.gps&w=408&h=240&yaw=218.48357&pitch=0&thumbfov=100
102,KD Hair Salon,"16 Mourne Rise, Newcastle BT33 0HE, United Kingdom",54.2228833,-5.8923889,+44 7549 958060,kdhairsalon.com,5.0,"['8a.m.–1p.m.', 'Closed', '8a.m.–5p.m.', '8a.m.–8p.m.', '8a.m.–5p.m.', '8a.m.–8p.m.', '8a.m.–2p.m.']",https://lh5.googleusercontent.com/p/AF1QipNDqZIALJHSBxEeXeqMekoVYLoaip8Kkd9xt9pw=w426-h240-k-no
103,Sunshine Hair Salon,"County Offaly, Tullamore, The Shopping mall, Market Square, Tullamore, Co. Offaly",53.2754797,-7.490365799999999,(057) 932 6861,None,4.1,"['9a.m.–6p.m.', 'Closed', '9a.m.–6p.m.', '9a.m.–6p.m.', '9a.m.–6p.m.', '9a.m.–6p.m.', '9a.m.–6p.m.']",https://lh5.googleusercontent.com/p/AF1QipO3qErI__bweF0nn4Fh9bKDGDii4atrZCju6nge=w408-h306-k-no
104,La Mode Hair & Beauty Phibsborough,"155 Phibsborough Rd, Cabra East, Dublin, D07 N207",53.3612616,-6.272449099999999,(01) 811 7518,lamode.ie,4.5,"['8:30a.m.–4:30p.m.', 'Closed', 'Closed', '9:30a.m.–6p.m.', '9:30a.m.–6p.m.', '9:30a.m.–8p.m.', '9:30a.m.–7p.m.']",https://lh5.googleusercontent.com/p/AF1QipMylUyMZmkCz_ee6qEZRZ1G7aI6PyGjxhfz3Os=w408-h408-k-no
105,Hairfairy,"21 Wicklow St, Dublin, D02 XV83",53.34310139999999,-6.2615653,None,None,5.0,[],https://streetviewpixels-pa.googleapis.com/v1/thumbnail?panoid=0jfyE37SeXY_ldRwVKAl3w&cb_client=search.gws-prod.gps&w=408&h=240&yaw=332.6541&pitch=0&thumbfov=100
106,Hairdressing Ana Elisa,None,None,None,None,None,None,[],https://streetviewpixels-pa.googleapis.com/v1/thumbnail?panoid=73V1cLVd-o0FjUH6z8dC2A&cb_client=search.gws-prod.gps&w=408&h=240&yaw=123.269684&pitch=0&thumbfov=100
107,Headcase Hair Studio,"33 Parnell St, Waterford, X91 C1HC",52.2577209,-7.110946900000001,(051) 879 424,facebook.com,4.6,"['9a.m.–6p.m.', 'Closed', 'Closed', '9a.m.–6p.m.', '9a.m.–6p.m.', '9a.m.–6p.m.', '9a.m.–6p.m.']",https://lh5.googleusercontent.com/p/AF1QipNdFy_M43VwCjh48zhISz8mugFsfBEhswt8Rs5M=w408-h306-k-no
108,TONI&GUY Dawson Street,"51A Dawson St, Dublin 2, D02 YK66",53.34252900000001,-6.257663699999999,(01) 671 4401,toniandguy.ie,4.7,"['9a.m.–6p.m.', 'Closed', '9a.m.–6p.m.', '9a.m.–6p.m.', '9a.m.–8p.m.', '9a.m.–8p.m.', '9a.m.–6p.m.']",https://lh5.googleusercontent.com/p/AF1QipP4MyrM6rN_TIQ0fephKqckDF06SSmUJHjXsxOZ=w408-h240-k-no-pi0-ya180-ro0-fo100
109,Rua Hair Salon,"52 Main St, Rathfarnham, Dublin 14, D14 YP66",53.29909610000001,-6.2850825,(01) 405 5652,ruahair.ie,4.7,"['9a.m.–5:30p.m.', 'Closed', 'Closed', '9a.m.–5:30p.m.', '9a.m.–5:30p.m.', '9a.m.–8p.m.', '9a.m.–8p.m.']",https://lh5.googleusercontent.com/p/AF1QipPEMDu5DLU1VNl2uztRWuGwNo_S6jb_2vb5bLX3=w408-h344-k-no
110,Black Amber,"68 Main St, Gorey corporation lands, Gorey, Co. Wexford, Y25 CY83",52.6753227,-6.2953183,(053) 942 0419,blackamber.ie,4.9,"['9a.m.–6p.m.', 'Closed', '9a.m.–6p.m.', '9a.m.–6p.m.', '9a.m.–6p.m.', '9a.m.–9p.m.', '9a.m.–9p.m.']",https://lh5.googleusercontent.com/p/AF1QipOEpC9XQvLCfEDmGjZyCG6pJKIrdVzr_k4cCJI7=w408-h544-k-no
111,Streetlife Hair Salon,"5 William St, Gardens, Kilkenny, R95 FD79",52.6514804,-7.2538434,(056) 776 3877,streetlifehair.ie,5.0,"['9a.m.–5p.m.', 'Closed', 'Closed', '9a.m.–6p.m.', '9a.m.–6p.m.', '9a.m.–6p.m.', '9a.m.–6p.m.']",https://lh5.googleusercontent.com/p/AF1QipP9xrYZjZM0H11WMPWbiVf5jivq5T6eKRgByz3I=w426-h240-k-no
112,Ilona's Hair Salon,"Tullyvarraga, Shannon, Co. Clare",52.7084909,-8.8790099,(061) 360 970,facebook.com,4.7,"['9a.m.–5p.m.', 'Closed', '9a.m.–6p.m.', '9a.m.–6p.m.', '9a.m.–6p.m.', '9a.m.–7p.m.', '9a.m.–7p.m.']",https://lh5.googleusercontent.com/p/AF1QipNPQKh4y_AlXL1o3g-DrY9XVAdRitVRw1MubLZ8=w408-h839-k-no
113,1501 Hair Salon,"Unit 2 Exchange Buildings, Long Walk, Dundalk, Co. Louth",54.004966,-6.403654,(042) 935 1510,1501.ie,4.6,"['9a.m.–5p.m.', 'Closed', '9a.m.–5:30p.m.', '9a.m.–5:30p.m.', '9a.m.–8p.m.', '9a.m.–5:30p.m.', '9a.m.–8p.m.']",https://lh5.googleusercontent.com/p/AF1QipMWqa955XbUxvoGEFHrWg0QzTvfIkq_gU9U9814=w468-h240-k-no
114,Lemons Hair & Beauty Salon,"47/48 Clontarf Rd, Clontarf, Dublin, D03 N6K8",53.3630317,-6.219280299999999,(01) 833 7907,lemons.ie,4.3,"['9:30a.m.–5:30p.m.', 'Closed', '9:30a.m.–5:30p.m.', '9:30a.m.–8:30p.m.', '9:30a.m.–8:30p.m.', '9:30a.m.–8:30p.m.', '9:30a.m.–7p.m.']",https://lh5.googleusercontent.com/p/AF1QipM63iWUbrkGBIfhqyWFhOiaXnJPvmfyctv750WE=w408-h255-k-no
115,Salon Glow,"Roslevan Shopping Centre, Tulla Road, Ennis, Co. Clare",52.8566897,-8.9596093,(065) 686 8251,glow.ie,4.9,"['9a.m.–5:30p.m.', 'Closed', '9a.m.–7p.m.', '9a.m.–7p.m.', '9a.m.–7p.m.', '9a.m.–7p.m.', '9a.m.–8p.m.']",https://lh5.googleusercontent.com/p/AF1QipPIHLYRsajnngZMm0bidYXJwpeBcJIeCDhtTcs=w426-h240-k-no
116,Hair & Co,"1 Meadow Brook, Carrownageelaun, Tulsk, Co. Roscommon, F45 HP68",53.7778164,-8.2486642,083 333 0802,hairandco.ie,4.8,"['8:30a.m.–5p.m.', 'Closed', 'Closed', '9:30a.m.–6p.m.', '9:30a.m.–6p.m.', '9:30a.m.–6p.m.', '9a.m.–6p.m.']",https://streetviewpixels-pa.googleapis.com/v1/thumbnail?panoid=L2Tg0rVlt_70npcGSf41bg&cb_client=search.gws-prod.gps&w=408&h=240&yaw=92.11032&pitch=0&thumbfov=100
117,Karen's Unisex Hair Salon,"3 Meadow View, Whitehall, Dublin, D14 V125",53.2881497,-6.264353900000001,(01) 626 4325,mytown.ie,5.0,[],https://streetviewpixels-pa.googleapis.com/v1/thumbnail?panoid=JtgL-AEdYuVQOPrDUTfKjg&cb_client=search.gws-prod.gps&w=408&h=240&yaw=259.0211&pitch=0&thumbfov=100
118,The Collective By Lloyds,"40-44 Patrick St, Waterford, X91 X3KF",52.2599149,-7.112879899999999,(051) 878 964,thecollectivebylloyds.ie,4.8,"['9a.m.–3p.m.', 'Closed', '9a.m.–8p.m.', '9a.m.–8p.m.', '9a.m.–5p.m.', '9a.m.–5p.m.', '9a.m.–5p.m.']",https://lh5.googleusercontent.com/p/AF1QipNjlcSBygDXKKNl0ntp7kOLn-ZkG0sQuYaJgsWS=w425-h240-k-no
119,Wildflower,"10 Ranelagh, Dublin 6, D06 K8Y2",53.32629009999999,-6.2557534,(01) 444 6708,wearewildflower.com,5.0,"['10a.m.–2p.m.', '3–9p.m.', 'Closed', '10a.m.–2p.m.', '3–9p.m.', '10a.m.–2p.m.', '3–9p.m.', '10a.m.–2p.m.', '3–9p.m.', '10a.m.–2p.m.', '3–9p.m.', '10a.m.–2p.m.', '3–9p.m.']",https://lh5.googleusercontent.com/p/AF1QipP9_ioxCMQy9exCNE-x2ZarbL4uqGM36rLGc7z-=w408-h271-k-no
120,Karma hair & beauty,"the w91ae81, 6 Blessington Rd, Naas, Co. Kildare, W91 T6CN",53.2097774,-6.6460272,(045) 857 597,facebook.com,4.2,"['Closed', 'Closed', 'Open 24 hours', 'Open 24 hours', 'Open 24 hours', 'Open 24 hours', 'Open 24 hours']",https://lh5.googleusercontent.com/p/AF1QipMEtm3aTXc4PpsrS2KfNkw3DTXxc38uVbdvZloe=w408-h544-k-no
121,Angelz Hair Salon,None,None,None,,None,3.8,[],https://streetviewpixels-pa.googleapis.com/v1/thumbnail?panoid=7wnvqxzGpazH-CDv4NoJdQ&cb_client=search.gws-prod.gps&w=408&h=240&yaw=285.7866&pitch=0&thumbfov=100
122,Pauline's Hair Salon,"131C, Slaney Rd, Dublin Industrial Estate, Dublin 11",53.3718598,-6.285756699999999,086 050 5826,None,4.8,"['8a.m.–6p.m.', 'Closed', '8a.m.–6p.m.', '8a.m.–6p.m.', '8a.m.–6p.m.', '8a.m.–6p.m.', '8a.m.–6p.m.']",https://maps.gstatic.com/tactile/pane/default_geocode-2x.png
123,Capelli Hair & Beauty,"Octagon, Cahernamart, Westport, Co. Mayo",53.7993259,-9.524533,(098) 50520,capelli.ie,4.4,"['9a.m.–6p.m.', 'Closed', 'Closed', '9a.m.–6p.m.', '9a.m.–6p.m.', '9a.m.–6p.m.', '9a.m.–6p.m.']",https://lh5.googleusercontent.com/p/AF1QipNJOJaGLIAyHK2NpqbY4M_qmSFJxj9YxyBmX2es=w427-h240-k-no
124,ZINC Hair & Beauty,"637 S Circular Rd, Kilmainham, Dublin, D08 FY54",53.34021569999999,-6.3078397,(01) 454 4225,zinchairandbeauty.com,4.8,"['9a.m.–4:30p.m.', 'Closed', '9:30a.m.–8p.m.', '9:30a.m.–6p.m.', '9:30a.m.–6p.m.', '9:30a.m.–8p.m.', '9:30a.m.–8p.m.']",https://lh5.googleusercontent.com/p/AF1QipOR_XcnWz6ahznJlBBZx27cZbYepbc_7DItv0V_=w408-h839-k-no
125,Black Angel hair salon ltd,"23 Main St, Leixlip, Co. Kildare, W23 V8X4",53.3641392,-6.488195699999999,(01) 624 4602,None,5.0,"['9a.m.–5p.m.', 'Closed', '9a.m.–5p.m.', '9a.m.–5p.m.', '9a.m.–5p.m.', '9a.m.–9p.m.', '9a.m.–7:30p.m.']",https://lh5.googleusercontent.com/p/AF1QipPtLm1GeTl5v2z997BCaInrqau3uTHjs3ZMNoAR=w408-h414-k-no
126,Men's Grooming Ireland Barber Shop,None,None,None,(01) 288 2870,mensgrooming.ie,4.9,"['9a.m.–6p.m.', 'Closed', '10a.m.–7p.m.', '10a.m.–7p.m.', '10a.m.–7p.m.', '10a.m.–8p.m.', '10a.m.–7p.m.']",https://lh5.googleusercontent.com/p/AF1QipMP3o2qzAjd-7dfTZW0nHu_PnIyZaeF-IsiTliF=w408-h306-k-no
127,Fusion Hair Salon,"53A George's Street Upper, Dún Laoghaire, Dublin, A96 YR76",53.2898559,-6.1307538,(01) 284 5016,fusionhairsalon.ie,4.4,"['9a.m.–5p.m.', 'Closed', '9a.m.–5:15p.m.', '9a.m.–5:15p.m.', '9a.m.–5:15p.m.', '9a.m.–7:15p.m.', '9a.m.–7:15p.m.']",https://lh5.googleusercontent.com/p/AF1QipNWCVmg1B3EEJ7BIilXQCRlg5CLp3H8V5zzKkuK=w408-h510-k-no
128,Momento Hair Salon - Ennis,"Bank Place, O'Connell Street, Ennis, Co. Clare",52.8446205,-8.9837881,(065) 684 4417,momentohair.ie,4.6,"['9a.m.–6p.m.', 'Closed', 'Closed', '9a.m.–6p.m.', '9a.m.–6p.m.', '9a.m.–7p.m.', '9a.m.–7p.m.']",https://lh5.googleusercontent.com/p/AF1QipP8D4fEbwQaCjsWJPBo0x_zZxJKZGnbw-ij4x_J=w408-h544-k-no
129,Karens Hair Design | Hairdressing in Kildare,"Bride St, Kildare, R51 FP62",53.1556667,-6.911423999999999,(045) 531 934,None,4.9,"['9a.m.–5p.m.', 'Closed', 'Closed', '9a.m.–5:30p.m.', '9a.m.–5:30p.m.', '9a.m.–5:30p.m.', '9a.m.–8p.m.']",https://lh5.googleusercontent.com/p/AF1QipOuQG1av3ev3klJV_bWRE43vcULHYFqRp0DIyE2=w408-h544-k-no
130,The Art Team,"75 Grafton Street, Dublin 2, D02 PD81",53.34155190000001,-6.260502199999999,None,theartteam.ie,2.3,[],https://streetviewpixels-pa.googleapis.com/v1/thumbnail?panoid=rqj7iJWzDc_2hfuSYUuWAA&cb_client=search.gws-prod.gps&w=408&h=240&yaw=282.46814&pitch=0&thumbfov=100
131,Carmeo Hair Salon,"44 Dorset Street Lower, Dublin, D01 F3C6",53.3600982,-6.2606209,(01) 855 8843,carmeosalon.wixsite.com,4.6,"['9:30a.m.–7p.m.', 'Closed', '9:30a.m.–6p.m.', '9:30a.m.–6p.m.', '9:30a.m.–6p.m.', '9:30a.m.–7p.m.', '9:30a.m.–7p.m.']",https://lh5.googleusercontent.com/p/AF1QipMhxmfr4CDcq8OH4A1URmyMX3Rqt04vaaQvYBNg=w408-h544-k-no
132,Boshka Hair & Beauty Salon,"Unit 42, Coolmine Industrial Estate, Blanchardstown, Dublin 15",53.3829758,-6.4012001,(01) 824 9548,boshka.ie,4.7,"['9a.m.–5p.m.', 'Closed', '9:30a.m.–8p.m.', '9:30a.m.–8p.m.', '9:30a.m.–8p.m.', '9:30a.m.–8p.m.', '9:30a.m.–8p.m.']",https://lh5.googleusercontent.com/p/AF1QipPCgeufFwa65d0yXcb3BvGiIvIWHEFrbg4aO31Y=w408-h267-k-no
133,In Trim Hair salon,"Loughrea, Co. Galway",53.1989136,-8.5660931,None,intrimhairsalon.wix.com,4.6,"['9a.m.–6p.m.', 'Closed', '9a.m.–6p.m.', '9a.m.–6p.m.', '9a.m.–6p.m.', '9a.m.–6p.m.', '9a.m.–6p.m.']",https://lh5.googleusercontent.com/p/AF1QipONMf8ePI6zHeg9LRxD_eNJdryvOPqtNZK6nvJM=w408-h306-k-no
134,S.P.Y. Hair & Beauty Salon,None,None,None,(01) 830 6919,spysalon.ie,4.3,"['9a.m.–6p.m.', 'Closed', '12a.m.–6p.m.', '10a.m.–8p.m.', '10a.m.–8p.m.', '10a.m.–8p.m.', '10a.m.–8p.m.']",https://lh5.googleusercontent.com/p/AF1QipO8pCRGXxa1pxfO7sUin63-6VrhXg2lEFgHmgvb=w408-h397-k-no
135,Addictions Hair Salon,"Bellaghy, Charlestown, Co. Mayo",53.9683692,-8.7960476,(094) 905 3766,None,5.0,[],https://streetviewpixels-pa.googleapis.com/v1/thumbnail?panoid=_m14-tJlaMOUuXQ2Dso5Bg&cb_client=search.gws-prod.gps&w=408&h=240&yaw=198.51434&pitch=0&thumbfov=100
136,Peter Mark Hairdressers Rathmines,"198 Rathmines Rd Lower, Rathmines, Dublin 6, D06 CC82",53.3242392,-6.2651819,(01) 497 2197,petermark.ie,4.3,"['9a.m.–6p.m.', '11a.m.–5p.m.', '9a.m.–6p.m.', '9a.m.–6p.m.', '9a.m.–6p.m.', '9a.m.–9p.m.', '9a.m.–9p.m.']",https://lh5.googleusercontent.com/p/AF1QipNI2TyqmFYMXBmzGgv0-jP-g4FGWeGGLsS5cPLq=w408-h272-k-no
137,Mont Ciara Hair and Beauty Salon,"76 Parnell St, Rotunda, Dublin 1, D01 W710",53.3526249,-6.2608893,(01) 558 0558,None,3.9,"['10:30a.m.–8p.m.', '10:30a.m.–7:30p.m.', '10:30a.m.–8p.m.', '10:30a.m.–8p.m.', '10:30a.m.–8p.m.', '10:30a.m.–8p.m.', '10:30a.m.–8p.m.']",https://lh5.googleusercontent.com/p/AF1QipOahUDOPITLizCaWbflwf4f4kgZ58qj02JPNf3A=w408-h306-k-no
138,Harvard Hair,"5 Manor St, Stoneybatter, Dublin 7, D07 NC56",53.351567,-6.2828919,(01) 868 9416,harvardhair.ie,4.9,"['9a.m.–5p.m.', 'Closed', '10a.m.–5:30p.m.', '10a.m.–5:30p.m.', '10a.m.–5:30p.m.', '10a.m.–8p.m.', '10a.m.–6p.m.']",https://streetviewpixels-pa.googleapis.com/v1/thumbnail?panoid=CkDwrQ2yYXOgUgTdWcWHCg&cb_client=search.gws-prod.gps&w=408&h=240&yaw=76.4754&pitch=0&thumbfov=100
139,Seagrass Hairdressing,"Marine Parade, Dough, Lahinch, Co. Clare",52.9328617,-9.3469929,(065) 708 2855,None,None,"['9:30a.m.–6p.m.', 'Closed', 'Closed', '9a.m.–6p.m.', '9a.m.–6p.m.', '9a.m.–6p.m.', '9a.m.–6p.m.']",https://streetviewpixels-pa.googleapis.com/v1/thumbnail?panoid=Ze659KcxlW7k1Jl3TXoxuw&cb_client=search.gws-prod.gps&w=408&h=240&yaw=285.1192&pitch=0&thumbfov=100
140,Oonagh's Hair Studio,"Unit 3 College Court, Townparks, Skerries, Co. Dublin, K34 C426",53.58104789999999,-6.107298999999999,(01) 849 0111,None,5.0,"['9a.m.–5:30p.m.', 'Closed', '9a.m.–5:30p.m.', '9a.m.–5:30p.m.', '9a.m.–5:30p.m.', '9a.m.–5:30p.m.', '9a.m.–5:30p.m.']",https://lh5.googleusercontent.com/p/AF1QipOOmgloVU6Ool8WQ-enevBgEX0oGxsjyqKvWK7q=w408-h306-k-no
141,Salon 19,"19 Drury St, Dublin, D02 WK51",53.3420759,-6.263614,,None,5.0,[],https://lh5.googleusercontent.com/p/AF1QipM45psfSoSSY8KiQrJSJTzWAaJF3CKdjAWO7nit=w408-h306-k-no
142,New image hair and beauty salon,None,None,None,(01) 453 8835,newimagedublin8.wixsite.com,4.3,"['9:30a.m.–8p.m.', '9:30a.m.–8p.m.', '9:30a.m.–8p.m.', '9:30a.m.–8p.m.', '9:30a.m.–8p.m.', '9:30a.m.–8p.m.', '9:30a.m.–8p.m.']",https://lh5.googleusercontent.com/p/AF1QipOIny62IJZsrlGymcsabr22Mkfn1i_2QwoZAMQp=w408-h544-k-no
143,Fusion Hair Salon,"Blackrock Village Center, Main Street, Blackrock, Co. Louth, A91 VP0A",53.9604556,-6.3674548,(042) 932 3747,None,4.3,"['9:30a.m.–5p.m.', 'Closed', 'Closed', '9:30a.m.–5:30p.m.', '9:30a.m.–5:30p.m.', '9:30a.m.–5:30p.m.', '9:30a.m.–7p.m.']",https://lh5.googleusercontent.com/p/AF1QipOySJsegIGz9-CFh9BfHhaMkPrwdcUJYMJb57-4=w408-h271-k-no
144,Alan Keville for Hair,"4 Selskar St, Ferrybank South, Wexford, Y35 AK28",52.3413019,-6.4634408,(053) 912 2102,kevillehair.com,4.9,"['9a.m.–5:30p.m.', 'Closed', '9:30a.m.–6p.m.', '9:30a.m.–6p.m.', '9:30a.m.–6p.m.', '9:30a.m.–8p.m.', '9:30a.m.–8p.m.']",https://lh5.googleusercontent.com/p/AF1QipO6CrO5otfsFpZ8Jl8ZNSkkJFyCIFU7sKB2sXPW=w426-h240-k-no
145,Cheveux Hair Salon,"11 O'Carroll Street, Tullamore, Co. Offaly, R35 AX74",53.27539770000001,-7.488020999999999,(057) 932 3885,cheveuxhairsalon.ie,4.8,"['8a.m.–6p.m.', 'Closed', 'Closed', '9:30a.m.–6p.m.', '9:30a.m.–6p.m.', '9a.m.–7p.m.', '9a.m.–7p.m.']",https://lh5.googleusercontent.com/p/AF1QipPFk_e399rQxpuAvpn0xi4drS3F0wqBtYvVgdJC=w426-h240-k-no
146,Newport Hair salon,"Medicott street, Carrowbaun, Newport, Co. Mayo, F28 E0F2",53.8831405,-9.5469751,(098) 41583,None,None,"['9a.m.–5p.m.', 'Closed', 'Closed', '9:30a.m.–6p.m.', '9:30a.m.–6p.m.', '9a.m.–7p.m.', '9a.m.–6p.m.']",https://streetviewpixels-pa.googleapis.com/v1/thumbnail?panoid=6ObANQ37SGIQgrx-w_mXwQ&cb_client=search.gws-prod.gps&w=408&h=240&yaw=187.90974&pitch=0&thumbfov=100
147,karina's hair salon,"Sallins, Co. Kildare",53.251067,-6.665231299999999,None,None,None,[],https://streetviewpixels-pa.googleapis.com/v1/thumbnail?panoid=0nutBFhepTioJc1lcqu23g&cb_client=search.gws-prod.gps&w=408&h=240&yaw=70.66528&pitch=0&thumbfov=100
148,Visage hair salon limerick,"5 Sarsfield St, Limerick, V94 X282",52.6640156,-8.627732,(061) 609 847,visagehairlimerick.com,4.9,"['8:30a.m.–5:30p.m.', 'Closed', '9a.m.–6p.m.', '9a.m.–6p.m.', '9a.m.–6p.m.', '9a.m.–8p.m.', '9a.m.–8p.m.']",https://lh5.googleusercontent.com/p/AF1QipM8Mh8fn2Pxy2_o8_BNzPmXJuE8FmmS6a-aT75Y=w426-h240-k-no
149,Great lengths ladies and gents hair salon,"Unit 1, Main Street, Kildysart Rd, Ennis, Co. Clare",52.8146348,-8.9643129,(065) 683 2878,None,5.0,"['9a.m.–5p.m.', 'Closed', 'Closed', '10:30a.m.–4p.m.', '9a.m.–6p.m.', '9a.m.–8p.m.', '9a.m.–6p.m.']",https://streetviewpixels-pa.googleapis.com/v1/thumbnail?panoid=ui8OyErDm3TM_ZwU6jTESg&cb_client=search.gws-prod.gps&w=408&h=240&yaw=92.95164&pitch=0&thumbfov=100
150,My Hair Malahide Salon,"37 Yellow Walls Rd, Malahide Demesne, Malahide, Co. Dublin, K36 V597",53.4510444,-6.168038,(01) 845 4496,myhairmalahide.ie,4.7,"['9a.m.–5:30p.m.', 'Closed', '9:30a.m.–6p.m.', '9a.m.–6p.m.', '9a.m.–6p.m.', '9a.m.–8p.m.', '9a.m.–8p.m.']",https://lh5.googleusercontent.com/p/AF1QipOo1Uaiul9m45AHv-1JrZfUOGssMwfuchlhqKwN=w408-h272-k-no
151,Yourells Hair Salon,"23-25 Eyre St, Galway, H91 YV48",53.27526630000001,-9.0515244,(091) 563 545,yourells.com,4.6,"['9a.m.–5:30p.m.', 'Closed', '9a.m.–6p.m.', '9a.m.–6p.m.', '9a.m.–6p.m.', '9a.m.–8p.m.', '9a.m.–6p.m.']",https://lh5.googleusercontent.com/p/AF1QipMir3I5_wr2EZcn4TrlTKHI0IUO3j0YxoqcnI0J=w408-h504-k-no
152,La Punk Beauty Hair Salon,"19 Henry Pl, North City, Dublin",53.3503896,-6.2616344,087 296 3905,None,4.0,"['9a.m.–8:30p.m.', 'Closed', '9a.m.–8:30p.m.', '9a.m.–8:30p.m.', '9a.m.–8:30p.m.', '9a.m.–8:30p.m.', '9a.m.–8:30p.m.']",https://streetviewpixels-pa.googleapis.com/v1/thumbnail?panoid=iuwilewXl7xxhaSHcZKmDA&cb_client=search.gws-prod.gps&w=408&h=240&yaw=345.8047&pitch=0&thumbfov=100
153,House of Colour,"St Margaret's Rd, Charlestown, Dublin 11, D11 CX84",53.39918249999999,-6.302629899999999,(01) 804 1725,houseofcolour.ie,4.4,"['10a.m.–6p.m.', '12–5p.m.', '10a.m.–5:30p.m.', '10a.m.–5:30p.m.', '10a.m.–8p.m.', '10a.m.–8p.m.', '10a.m.–8p.m.']",https://lh5.googleusercontent.com/p/AF1QipOP5oFg9AqgeJ4PDv1nIKZSRu9gl_EEW7q-mMgw=w408-h544-k-no
154,Ruby Reds Hair Salon,"Newpark Shopping Centre, Newpark, Kilkenny",52.6601035,-7.241073299999999,(056) 775 6055,rubyreds.ie,5.0,[],https://maps.gstatic.com/tactile/pane/default_geocode-2x.png
155,Bridget's Hair Salon,"Bridget's Hair Salon, 30 Court St, Enniscorthy, Co. Wexford, Y21 XY04",52.500597,-6.5688018,(053) 923 5713,business.site,4.9,"['9a.m.–6p.m.', 'Closed', 'Closed', '9a.m.–6p.m.', '9a.m.–6p.m.', '9a.m.–6p.m.', '9a.m.–6p.m.']",https://lh5.googleusercontent.com/p/AF1QipNgevIkj8h5v8KlPLFCz7Lxfz6L1RBIjbYr4NOs=w426-h240-k-no
156,Urban Angels Hair Salon,"The Gallery Mall, Glin, Co. Limerick, V94 V8N2",52.5690248,-9.2820958,(068) 26811,urbanangelshairsalon.com,5.0,"['9a.m.–5p.m.', 'Closed', 'Closed', '9a.m.–5:30p.m.', '9a.m.–5:30p.m.', '9a.m.–8p.m.', '9a.m.–5:30p.m.']",https://lh5.googleusercontent.com/p/AF1QipPMutXp-a4uFr0dbdPFm3rCOuGwFPoxT5iebCUX=w408-h408-k-no
157,David Marshall Hair Salon,"S Great, 12 Fade St, George's Street Arcade, Dublin 2, D02 AT25",53.3421272,-6.2643156,(01) 677 0106,None,4.9,"['9a.m.–6p.m.', 'Closed', 'Closed', '9a.m.–6p.m.', '9a.m.–7:30p.m.', '9a.m.–7:30p.m.', '9a.m.–6:30p.m.']",https://lh5.googleusercontent.com/p/AF1QipPf8Aid_nKOH02qmOV8rSdfeOCIzQj3FNBAX-QB=w408-h240-k-no-pi-0-ya329.4544-ro-0-fo100
158,ELITA Hair Salon,"4 Patrick St, Gardens, Kilkenny, R95 YV6X",52.65016809999999,-7.251210299999999,(056) 776 4249,None,5.0,"['9a.m.–5:30p.m.', 'Closed', '9a.m.–6p.m.', '9a.m.–6p.m.', 'Closed', '9a.m.–7p.m.', '9a.m.–8p.m.']",https://lh5.googleusercontent.com/p/AF1QipMH0FLSwu1yG7I7J6EAc1peaXgcLvZSXGDWxRnu=w408-h533-k-no
159,Hairspray Dundrum,"2/34 Dundrum Town Centre, Dublin",53.2871385,-6.2425894,(01) 298 8115,hairspray.ie,4.3,"['10:30a.m.–6:30p.m.', 'Closed', '10:30a.m.–6:30p.m.', '10:30a.m.–6:30p.m.', '10:30a.m.–6:30p.m.', '10:30a.m.–6:30p.m.', '10:30a.m.–6:30p.m.']",https://lh5.googleusercontent.com/p/AF1QipNo_QHIEije2yD9LACE8JQuyZ73eRgiyqFke1Ml=w408-h408-k-no
160,Anthony Murray Hair & Beauty Group,"5 Crow St, Temple Bar, Dublin 2, D02 FN25",53.34473269999999,-6.2638815,None,None,None,[],https://streetviewpixels-pa.googleapis.com/v1/thumbnail?panoid=Wsq3kjh1ku0NAnhxSmQdpQ&cb_client=search.gws-prod.gps&w=408&h=240&yaw=265.5827&pitch=0&thumbfov=100
161,Avail Hair & Beauty,"2nd Floor, Avoca Building, Rathcoole, Co. Dublin",53.2842099,-6.456317899999999,,,5.0,"['9a.m.–5p.m.', '11a.m.–5p.m.', '9:30a.m.–5p.m.', '9:30a.m.–6p.m.', '9:30a.m.–6p.m.', '9:30a.m.–8p.m.', '9:30a.m.–8p.m.']",https://streetviewpixels-pa.googleapis.com/v1/thumbnail?panoid=K-d6TDvi8uXCHZ1mzyA-0Q&cb_client=search.gws-prod.gps&w=408&h=240&yaw=305.42084&pitch=0&thumbfov=100
162,TONI&GUY Malahide,"Manor House, Unit 10, Church Rd, Malahide, Dublin",53.4500527,-6.1536946,(01) 845 8700,toniandguy.ie,4.6,"['9a.m.–5p.m.', 'Closed', '9a.m.–6p.m.', '9a.m.–6p.m.', '9a.m.–6p.m.', '9a.m.–9p.m.', '9a.m.–6p.m.']",https://lh5.googleusercontent.com/p/AF1QipNcJNNDrQP7x0FQjVJcUxdaIhyDhotIG6QVjwcC=w408-h725-k-no
163,The Colour Palette Hair & Beauty,"Fortunestown Way, Tallaght, Dublin, D24 P299",53.28316239999999,-6.399678799999999,089 475 6669,None,4.7,"['9a.m.–5p.m.', 'Closed', '9a.m.–5p.m.', '9a.m.–5p.m.', '9a.m.–5p.m.', '9a.m.–7p.m.', '9a.m.–7p.m.']",https://lh5.googleusercontent.com/p/AF1QipMj9-WTQe7kdnLg_6nIingcu27xVNAOcgEGDtLH=w754-h240-k-no
164,Sassoons hair beauty salon,"First Floor Bawnogue Shopping Centre, IE, Unit 12 Bawnogue Rd, Clonburris Great, BawnogueD22 RD28",53.32455,-6.411187,089 200 0410,None,4.6,"['9a.m.–6p.m.', 'Closed', '9a.m.–6p.m.', '9a.m.–6p.m.', '9a.m.–6p.m.', '9a.m.–6p.m.', '9a.m.–6p.m.']",https://lh5.googleusercontent.com/p/AF1QipMA_BEVnZUbV9G9XBoMRAHYShWBGCR4lSxYUoAi=w426-h240-k-no
165,Sheerlock Combs Hair Salon,"Cherry Orchard, Dublin 10",53.33705,-6.368396700000001,None,None,None,[],https://streetviewpixels-pa.googleapis.com/v1/thumbnail?panoid=NCXlgj-Q6XLtHC-1oYoUcQ&cb_client=search.gws-prod.gps&w=408&h=240&yaw=100.242805&pitch=0&thumbfov=100
166,Hair By Leo,"49d, 22 Tower Road, Clondalkin, Co. Dublin",53.3206632,-6.3945099,089 449 3388,treatwell.ie,5.0,[],https://streetviewpixels-pa.googleapis.com/v1/thumbnail?panoid=sl48DHfw2xZwSe-_zeuY3Q&cb_client=search.gws-prod.gps&w=408&h=240&yaw=74.54377&pitch=0&thumbfov=100
167,Bijou hair salon,"209 Decies Rd, Decies, Dublin, D10 FH22",53.3391312,-6.3449256,(01) 623 3305,None,4.2,"['9:30a.m.–5p.m.', 'Closed', 'Closed', '9:30a.m.–5p.m.', '9:30a.m.–5p.m.', '9:30a.m.–5p.m.', '9:30a.m.–5p.m.']",https://streetviewpixels-pa.googleapis.com/v1/thumbnail?panoid=w3bC1dbMLm3nH59PrJ119Q&cb_client=search.gws-prod.gps&w=408&h=240&yaw=163.4261&pitch=0&thumbfov=100
168,Peter Mark Hairdressers Newry,"Albert Basin, Newry BT35 8QS, United Kingdom",54.1687155,-6.3391426,+44 28 3026 3133,petermark.ie,4.5,"['9a.m.–6p.m.', 'Closed', '9a.m.–6p.m.', '9a.m.–6p.m.', '9a.m.–6p.m.', '9a.m.–9p.m.', '9a.m.–9p.m.']",https://lh5.googleusercontent.com/p/AF1QipMrzn1OJqJ8CeEoc-n2NspjP5jzMxDdIzuWMF_6=w408-h271-k-no
169,AG Hairstylist,None,None,None,None,None,5.0,[],https://streetviewpixels-pa.googleapis.com/v1/thumbnail?panoid=WA1q2iTsWd0BqRUt3P9QZg&cb_client=search.gws-prod.gps&w=408&h=240&yaw=179.11136&pitch=0&thumbfov=100
170,Beautique Beauty Studio,"Fashion City, Unit 31, Ballymount Rd Upper, Tallaght, Dublin, D24 TX46",53.3069333,-6.352073499999999,(01) 429 5926,beautiquebeautystudio.ie,4.9,"['8:45a.m.–4:45p.m.', 'Closed', 'Closed', '9a.m.–9p.m.', '9a.m.–9p.m.', '9a.m.–9p.m.', '9a.m.–9p.m.']",https://lh5.googleusercontent.com/p/AF1QipOk91GwGVOhSzPrQcFziNWiYtpjZ_tvNXdIRblb=w427-h240-k-no
171,Revive Hair & Beauty Clinic,None,None,None,(01) 465 2749,revivehbc.ie,4.4,"['9:30a.m.–5p.m.', 'Closed', 'Closed', '9:30a.m.–6p.m.', '9:30a.m.–6p.m.', '9:30a.m.–8p.m.', '9:30a.m.–8p.m.']",https://streetviewpixels-pa.googleapis.com/v1/thumbnail?panoid=tzm8zeYK4UysON2e2RwBPg&cb_client=search.gws-prod.gps&w=408&h=240&yaw=191.24597&pitch=0&thumbfov=100
172,K.Hair,"4 Kennedy Ave, Carlow, R93 NP63",52.8343831,-6.927975999999999,(059) 914 0433,None,4.6,"['8a.m.–6p.m.', 'Closed', '8a.m.–6p.m.', '8a.m.–6p.m.', '8a.m.–6p.m.', '8a.m.–8p.m.', '8a.m.–8p.m.']",https://lh5.googleusercontent.com/p/AF1QipNkAdI2RIDKCKSG54Qh8Sn1nJ4eyBuia4cTiK_h=w408-h306-k-no
173,Karens Hair Design | Hairdressing in Kildare,"Bride St, Kildare, R51 FP62",53.1556667,-6.911423999999999,(045) 531 934,None,4.9,"['9a.m.–5p.m.', 'Closed', 'Closed', '9a.m.–5:30p.m.', '9a.m.–5:30p.m.', '9a.m.–5:30p.m.', '9a.m.–8p.m.']",https://lh5.googleusercontent.com/p/AF1QipOuQG1av3ev3klJV_bWRE43vcULHYFqRp0DIyE2=w408-h544-k-no
174,Blanc Quigley Hair Salon,"54 S Main St, Naas East, Naas, Co. Kildare, W91 D7YW",53.2175532,-6.6635502,(045) 901 848,blancquigley.com,5.0,"['9a.m.–3p.m.', 'Closed', 'Closed', '9a.m.–5p.m.', '9a.m.–5p.m.', '10a.m.–7p.m.', '9a.m.–5p.m.']",https://lh5.googleusercontent.com/p/AF1QipPE9FpprGi2NyxdlUANcs3KBMhGezA8uiLdXQ5V=w426-h240-k-no
175,Youmei hair & beauty,None,None,None,089 982 3513,treatwell.ie,4.5,"['10a.m.–8p.m.', '10:30a.m.–7p.m.', '10:30a.m.–7:30p.m.', '10:30a.m.–7:30p.m.', '10:30a.m.–7:30p.m.', '10a.m.–8p.m.', '10a.m.–8p.m.']",https://lh5.googleusercontent.com/p/AF1QipMAH2gAoNeuLNCqV5D8vakqaHjyC69x2oD_CVHa=w408-h544-k-no
176,The Hair Box,"15 Patrick St, Dún Laoghaire, Dublin, A96 XT98",53.2916713,-6.1372466,(01) 280 4550,hairbox.ie,4.6,"['9a.m.–5p.m.', 'Closed', '9a.m.–6p.m.', '9a.m.–6p.m.', 'Closed', '9a.m.–6p.m.', '9a.m.–6p.m.']",https://streetviewpixels-pa.googleapis.com/v1/thumbnail?panoid=cWqiU5QjboUYXpEn_MwNbw&cb_client=search.gws-prod.gps&w=408&h=240&yaw=332.55362&pitch=0&thumbfov=100
177,L & L Hair Studio Crumlin Village,"Unit 1 windmill lodge, Windmill Rd, Crumlin, Dublin, D12 YRK2",53.3211512,-6.3157962,(01) 441 3510,landlhairstudio.ie,5.0,"['9a.m.–5p.m.', 'Closed', 'Closed', '10a.m.–6p.m.', '10a.m.–6p.m.', '10a.m.–8p.m.', '10a.m.–6p.m.']",https://lh5.googleusercontent.com/p/AF1QipPxddKRmsxcgQLGD3I8Iryry2vXh4r_0-EtI4H3=w408-h400-k-no
178,Colour Touch Hairdressing,None,None,None,(01) 429 8610,facebook.com,4.2,"['9a.m.–5p.m.', 'Closed', 'Closed', '10a.m.–6p.m.', '10a.m.–6p.m.', '10a.m.–9p.m.', '9a.m.–6p.m.']",https://lh5.googleusercontent.com/p/AF1QipM7_0xbZ_IMP3z9F9n6OU5WWEFHtR2imDieckh4=w408-h408-k-no
179,RAINBOW,None,None,None,None,None,None,[],https://streetviewpixels-pa.googleapis.com/v1/thumbnail?panoid=gHRg56RSyTOjlHW7vKK9MQ&cb_client=search.gws-prod.gps&w=408&h=240&yaw=61.646736&pitch=0&thumbfov=100
180,Brown Sugar,"68 Ranelagh, Dublin, D06 V3F8",53.3249528,-6.2538715,(01) 485 1988,brownsugar.ie,4.6,"['8a.m.–8p.m.', 'Closed', '8a.m.–8p.m.', '8a.m.–8p.m.', '8a.m.–8p.m.', '8a.m.–8p.m.', '8a.m.–8p.m.']",https://lh5.googleusercontent.com/p/AF1QipO1x17IQrtSMLAJNuoN_Kh8tr9Qt95fSsDisINk=w531-h240-k-no
181,Aida's Hair salon,"e, Tower Commercial Centre, Monastery Road, Bushelloaf, Dublin",53.3210568,-6.392701499999999,,,4.5,"['10a.m.–6p.m.', '11a.m.–3p.m.', 'Closed', '10a.m.–7p.m.', '10a.m.–7p.m.', '10a.m.–7p.m.', '10a.m.–7p.m.']",https://lh5.googleusercontent.com/p/AF1QipNGAebj_R-qH8ugrdZO5krSf0jRmbyd8nabJYoO=w408-h725-k-no
182,Debonair Hair & Beauty,"12 St Mary's Rd, Walkinstown, Dublin, D12 V62P",53.324592,-6.317973599999999,(01) 455 8065,debonairhairandbeauty.ie,4.9,"['9a.m.–5:30p.m.', 'Closed', '9a.m.–5:30p.m.', '9a.m.–5:30p.m.', '9a.m.–5:30p.m.', '9a.m.–8p.m.', '9a.m.–8p.m.']",https://streetviewpixels-pa.googleapis.com/v1/thumbnail?panoid=ivMnRMH3GtvBUTAQzVwFCA&cb_client=search.gws-prod.gps&w=408&h=240&yaw=307.3556&pitch=0&thumbfov=100
183,Studio 44 Hair & Beauty Salon,Dublin,53.3498053,-6.2603097,None,None,5.0,[],https://streetviewpixels-pa.googleapis.com/v1/thumbnail?panoid=PJUU0jVZ9o2f5OK2LVMBOA&cb_client=search.gws-prod.gps&w=408&h=240&yaw=335.37958&pitch=0&thumbfov=100
184,Tallaght Hair & Beauty Academy,"Whitestown Rd, Whitestown, Dublin",53.28209649999999,-6.381142499999999,(01) 452 5917,None,4.7,"['9a.m.–5p.m.', 'Closed', 'Closed', '9:30a.m.–6p.m.', '9:30a.m.–6p.m.', '9:30a.m.–7p.m.', '9:30a.m.–7p.m.']",https://streetviewpixels-pa.googleapis.com/v1/thumbnail?panoid=f6lfwYXx4Mk1Jbj2GuPdrA&cb_client=search.gws-prod.gps&w=408&h=240&yaw=346.6304&pitch=0&thumbfov=100
185,Color Therapy,"199 Kimmage Rd Lower, Kimmage, Dublin 6W, Co. Dublin, D6W XA31",53.31877369999999,-6.291805200000001,(01) 492 6308,m.facebook.com,4.9,[],https://lh5.googleusercontent.com/p/AF1QipOk8Mg3o9GaA5F8NySvuxtcqdN_5v1l1uKscuGa=w408-h612-k-no
186,Gillian Edgeworth Hair Studio,"3 Cow's Ln, Temple Bar, Dublin, D08 XE18",53.344435,-6.2687919,(01) 675 0557,gillianedgeworth.ie,4.7,"['9a.m.–5p.m.', 'Closed', 'Closed', '9a.m.–6p.m.', '9a.m.–6p.m.', '9a.m.–8p.m.', '9a.m.–6p.m.']",https://lh5.googleusercontent.com/p/AF1QipPMOjriljcscNyxPxIcWvyEt7_OQsceWoO8_oji=w408-h306-k-no
187,Level Unisex Hair Salon,"45 Summerhill Parade, Drumcondra, Dublin, D01 H959",53.3573606,-6.2494435,085 775 0783,None,4.4,"['10a.m.–8p.m.', 'Closed', '10a.m.–9p.m.', '10a.m.–8p.m.', '10a.m.–9p.m.', '10a.m.–9p.m.', '10a.m.–9p.m.']",https://lh5.googleusercontent.com/p/AF1QipMwXCu9VFSVLroOENUZB2xZMXMoMoBg3j90fY-3=w408-h544-k-no
188,Sharpe Hair Studio,"6 High St, Tallaght, Dublin",53.2876753,-6.365672099999999,(01) 451 4055,None,5.0,"['8a.m.–4:30p.m.', 'Closed', 'Closed', '9a.m.–5p.m.', '9a.m.–5p.m.', '9a.m.–7p.m.', '9a.m.–6p.m.']",https://streetviewpixels-pa.googleapis.com/v1/thumbnail?panoid=OWw3Y-A7MNuK9ea61RjnUw&cb_client=search.gws-prod.gps&w=408&h=240&yaw=185.67314&pitch=0&thumbfov=100
189,DNA Hair Salon,None,None,None,085 832 1512,None,4.8,"['9a.m.–5p.m.', 'Closed', 'Closed', '9a.m.–5p.m.', '9a.m.–5p.m.', '9a.m.–5p.m.', '9a.m.–5p.m.']",https://lh5.googleusercontent.com/p/AF1QipPDNzUtLqrSbrBeOWEp-MX_DOUqkBi-c9HcSO36=w408-h546-k-no
190,All About Hair & Beauty,"465 S Circular Rd, Rialto, Dublin 8, D08 X2R4",53.3361309,-6.298869499999999,(01) 453 7316,None,3.8,[],https://streetviewpixels-pa.googleapis.com/v1/thumbnail?panoid=y33ydTZl4BLBRdaWJqMmYw&cb_client=search.gws-prod.gps&w=408&h=240&yaw=157.64944&pitch=0&thumbfov=100
191,Peter Mark,"Unit 38, Fonthill Rd, Clondalkin, Dublin 22",53.3527958,-6.3903003,(01) 623 1112,petermark.ie,4.3,"['9a.m.–6p.m.', '11a.m.–5p.m.', '9:30a.m.–6p.m.', '9:30a.m.–6p.m.', '9:30a.m.–9p.m.', '9:30a.m.–9p.m.', '9:30a.m.–9p.m.']",https://lh5.googleusercontent.com/p/AF1QipPjOZEaeQ_oEJj1A_j4vJ8kZz7zaGsdt3wsSwzX=w408-h272-k-no
192,Ritzys Hair Salon,"William Street, Puttaghan, Tullamore, Co. Offaly, R35 FY92",53.2768127,-7.491416699999998,(057) 934 1036,ritzyshairsalon.ie,4.5,"['9a.m.–6p.m.', 'Closed', 'Closed', '9:30a.m.–6p.m.', '9:30a.m.–6p.m.', '9:30a.m.–7p.m.', '9:30a.m.–7p.m.']",https://lh5.googleusercontent.com/p/AF1QipOYgQMR9EL1LGyoaBwXfCAqM1UvBWiO8Oc19roP=w450-h240-k-no
193,Brown Sugar,"36 Main St, Blackrock, Co. Dublin, A94 E8H1",53.30114409999999,-6.1766185,(01) 210 8630,brownsugar.ie,4.7,"['9a.m.–5:30p.m.', 'Closed', '9a.m.–5:30p.m.', '9a.m.–5:30p.m.', '9a.m.–5:30p.m.', '9a.m.–5:30p.m.', '9a.m.–8p.m.']",https://lh5.googleusercontent.com/p/AF1QipMStlajNbfR9pNqHp2oUTpejw8IMULr6DHVcADx=w525-h240-k-no
194,"Ischia Hair, Beauty & Wig Salon","Johnstown Centre, Bailis, Navan, Co. Meath",53.643504,-6.659992,(046) 909 1791,ischiahairandbeauty.ie,4.6,"['8:30a.m.–5p.m.', 'Closed', '9a.m.–6p.m.', '9a.m.–6p.m.', '9a.m.–6p.m.', '9a.m.–8p.m.', '9a.m.–8p.m.']",https://lh5.googleusercontent.com/p/AF1QipMC6N87xjWF4SFfKjt_Dyz2QpHr4GtnIbP5iMY2=w426-h240-k-no
195,House of Colour,"The Griffeen Centre, Unit 4, Griffeen Rd, Lucan, Co. Dublin, K78 P684",53.3406768,-6.432310699999999,(01) 505 9797,houseofcolour.ie,4.6,"['9a.m.–5p.m.', 'Closed', '10a.m.–5:30p.m.', '10a.m.–5:30p.m.', '10a.m.–5:30p.m.', '10a.m.–8p.m.', '10a.m.–7p.m.']",https://streetviewpixels-pa.googleapis.com/v1/thumbnail?panoid=u1k4hRvWMm07_cS5uz4gjA&cb_client=search.gws-prod.gps&w=408&h=240&yaw=56.026638&pitch=0&thumbfov=100
196,Wigs Ireland,"34 Donnybrook, Main Street, Dublin",53.3220622,-6.2358705,(01) 260 8874,wig.ie,5.0,[],https://streetviewpixels-pa.googleapis.com/v1/thumbnail?panoid=tRfj4dbOcPeTnaCMM6FKFA&cb_client=search.gws-prod.gps&w=408&h=240&yaw=114.145905&pitch=0&thumbfov=100
197,LUIZ HAIRDRESSER,"97 Talbot St, Rotunda, Dublin 1, D01 E2N3",53.3502109,-6.2568645,089 702 4299,None,None,"['9a.m.–8p.m.', 'Closed', '9a.m.–1p.m.', '5–8p.m.', '9a.m.–1p.m.', '5–8p.m.', '9a.m.–1p.m.', '5–8p.m.', '9a.m.–1p.m.', '5–8p.m.', '9a.m.–1p.m.', '5–8p.m.']",https://streetviewpixels-pa.googleapis.com/v1/thumbnail?panoid=9w7BT0-iwPuH5iojB0aokg&cb_client=search.gws-prod.gps&w=408&h=240&yaw=144.99963&pitch=0&thumbfov=100
198,Queen dame street,"52 Dame St, Temple Bar, Dublin 2, D02 TR59",53.3443197,-6.2640728,(01) 670 8080,queen.ie,5.0,"['9a.m.–6p.m.', 'Closed', 'Closed', '9a.m.–6p.m.', '9a.m.–8p.m.', '9a.m.–8p.m.', '9a.m.–6p.m.']",https://lh5.googleusercontent.com/p/AF1QipOCH27yQWY3iW2ngacDCAW_9X3aFnEPJnSpW69t=w408-h725-k-no
199,The Colour Den,None,None,None,(01) 298 9701,colourdensalon.com,5.0,"['9:30a.m.–6:30p.m.', 'Closed', 'Closed', '9:30a.m.–6:30p.m.', '9:30a.m.–6:30p.m.', '9:30a.m.–6:30p.m.', '9:30a.m.–6:30p.m.']",https://lh5.googleusercontent.com/p/AF1QipO-nM3yL1TV2XvR1oyqS-YG2RzqDonjuOgqJd3A=w408-h544-k-no
200,House of Colour,"3 Capel St, North City, Dublin 1, D01 Y650",53.3462943,-6.2677611,(01) 877 9097,houseofcolour.ie,None,[],https://streetviewpixels-pa.googleapis.com/v1/thumbnail?panoid=GKkYsLVgVcIAIS2aEeP9Cw&cb_client=search.gws-prod.gps&w=408&h=240&yaw=87.27915&pitch=0&thumbfov=100
201,Salon Vintage,"131 St Peter's Rd, Greenhills Rd, Walkinstown, Dublin 12, D12 CC9C",53.3122692,-6.327068799999999,(01) 450 8343,None,None,[],https://streetviewpixels-pa.googleapis.com/v1/thumbnail?panoid=d9r3TPkpZ9WDExnbiBxFbg&cb_client=search.gws-prod.gps&w=408&h=240&yaw=38.714615&pitch=0&thumbfov=100
202,The Tan Fairy,"Kingswood Shopping Centre, Unit 5, Sylvan Dr, Kingswood Ave, Dublin 24",53.3078182,-6.3675776,(01) 452 6552,thetanfairykingswood.myshopify.com,4.9,"['9a.m.–5p.m.', 'Closed', 'Closed', '9:30a.m.–5:30p.m.', '9:30a.m.–5:30p.m.', '8a.m.–9p.m.', '9:30a.m.–7p.m.']",https://streetviewpixels-pa.googleapis.com/v1/thumbnail?panoid=IlLBHjXarcg58lrzkNdg3g&cb_client=search.gws-prod.gps&w=408&h=240&yaw=223.75499&pitch=0&thumbfov=100
203,Peter Mark Hairdressers Nutgrove,"Nutgrove Shopping Centre, 31 Nutgrove Way, Rathfarnham, Dublin 14",53.2903992,-6.2672979,(01) 493 3080,petermark.ie,4.4,"['9a.m.–6p.m.', '11a.m.–5p.m.', '9a.m.–6p.m.', '9a.m.–6p.m.', '9a.m.–9p.m.', '9a.m.–9p.m.', '9a.m.–9p.m.']",https://lh5.googleusercontent.com/p/AF1QipNSkKXmVId1prvTjB8nNEGR9QOap_LXzsQmGQHt=w408-h272-k-no
204,Shei Hair & Beauty Salon,"57 Mary St, North City, Dublin, D01 C6X5",53.3486815,-6.2678741,089 456 0587,treatwell.ie,3.6,[],https://lh5.googleusercontent.com/p/AF1QipMs0np31t5my23nA-oxmtU6oZRN9d6ouUnphoql=w408-h544-k-no
205,The Room D4,"6 Seafort Ave, Dublin 4, D04 YA24",53.3326144,-6.2150273,(01) 215 3786,theroomd4.ie,4.9,[],https://lh5.googleusercontent.com/p/AF1QipMXgmXZgkL_j7YNVwySsIq2bJGp65HWUQv-Um8z=w408-h725-k-no
206,Black Amber,"68 Main St, Gorey corporation lands, Gorey, Co. Wexford, Y25 CY83",52.6753227,-6.2953183,(053) 942 0419,blackamber.ie,4.9,"['9a.m.–6p.m.', 'Closed', '9a.m.–6p.m.', '9a.m.–6p.m.', '9a.m.–6p.m.', '9a.m.–9p.m.', '9a.m.–9p.m.']",https://lh5.googleusercontent.com/p/AF1QipOEpC9XQvLCfEDmGjZyCG6pJKIrdVzr_k4cCJI7=w408-h544-k-no
207,FK Hair Studio,None,None,None,083 344 4787,fkhairstudio.ie,5.0,[],https://lh5.googleusercontent.com/p/AF1QipP1mRme9IN9u84SXN-qf9uAcvBfi7Wv8T7Iz65W=w408-h271-k-no
208,Shell's Styles - Hairdressers Clondalkin,"2, Tower Shopping Centre, 22 Tower Road, Clondalkin, Dublin",53.3206758,-6.394517,(01) 457 8702,None,4.4,"['9a.m.–5p.m.', 'Closed', '10a.m.–5p.m.', '10a.m.–5p.m.', '10a.m.–5p.m.', '9a.m.–6p.m.', '9a.m.–6p.m.']",https://lh5.googleusercontent.com/p/AF1QipO9tj3u3Fu2si7CW5vP1h47KfGaCGy601-Pf0Zf=w408-h306-k-no
209,Esmers Hair Studio,None,None,None,(01) 490 7620,esmershairstudio.com,5.0,"['9a.m.–5p.m.', 'Closed', '9:30a.m.–5p.m.', '9a.m.–6p.m.', '9a.m.–6p.m.', '9a.m.–8p.m.', '9a.m.–6p.m.']",https://lh5.googleusercontent.com/p/AF1QipPPDa9pClSa6pnwU7x9HqjWYNof1dKQUkDuvS1z=w426-h240-k-no
210,The Hair Artist,"Unit 4, 9/10 Eustace St, Temple Bar, Dublin 2, D02 F729",53.34480199999999,-6.264901,087 243 5632,facebook.com,5.0,"['9a.m.–5p.m.', 'Closed', 'Closed', '10a.m.–7p.m.', '10a.m.–7p.m.', '11a.m.–9p.m.', '10a.m.–7p.m.']",https://lh5.googleusercontent.com/p/AF1QipO9ots4r3TZhdnrnObQejfGCOCV3y6QlwrBdPz5=w408-h407-k-no
211,Knights,"Springfield Shopping Centre, Springfield, Dublin",53.2874444,-6.382264699999999,(01) 462 2933,None,4.7,[],https://streetviewpixels-pa.googleapis.com/v1/thumbnail?panoid=QLsEjlFj-aVg5-qnebjGOw&cb_client=search.gws-prod.gps&w=408&h=240&yaw=35.920612&pitch=0&thumbfov=100
212,Errigal Unisex Hair and Beauty Salon,"12a Errigal Rd, Drimnagh, Dublin 12, D12 YTY7",53.3256076,-6.321348299999999,(01) 455 8026,None,4.2,"['9a.m.–5p.m.', 'Closed', 'Closed', '9:30a.m.–5p.m.', '9:30a.m.–5p.m.', '9:30a.m.–5p.m.', '9:30a.m.–5p.m.']",https://lh5.googleusercontent.com/p/AF1QipMFbbqbtUMPeolmSS44t-GsEQ2qvYjbpPbFbFDr=w408-h306-k-no
213,V2 Hair Design,"3A Orchard Rd, Clondalkin, Dublin, D22 KN60",53.3217011,-6.393338399999999,(01) 457 2465,v2hairdesign.ie,4.8,"['9a.m.–6p.m.', 'Closed', 'Closed', '9:30a.m.–6p.m.', '9:30a.m.–6p.m.', '9:30a.m.–8p.m.', '9:30a.m.–8p.m.']",https://lh5.googleusercontent.com/p/AF1QipPg3fNz602OuCj7bo2ZBt16TGhM6b-Qw93jh-Q2=w408-h408-k-no
214,La Salon Soeur,"1 Wainsfort Dr, Kimmage, Dublin, D6W CH72",53.3093685,-6.3049374,(01) 490 2607,None,4.6,"['9:30a.m.–5:30p.m.', 'Closed', 'Closed', '9:30a.m.–5:30p.m.', '9:30a.m.–5:30p.m.', '9:30a.m.–5:30p.m.', '9:30a.m.–5:30p.m.']",https://streetviewpixels-pa.googleapis.com/v1/thumbnail?panoid=Vx4CT8yF442R16_DrpCDRQ&cb_client=search.gws-prod.gps&w=408&h=240&yaw=19.333698&pitch=0&thumbfov=100
215,Paris Lover Hair and Beauty,None,None,None,(01) 555 2928,parislover.ie,4.5,"['9a.m.–7p.m.', 'Closed', '9:30a.m.–7p.m.', '9:30a.m.–7p.m.', '9:30a.m.–9p.m.', '9:30a.m.–9p.m.', '9:30a.m.–9p.m.']",https://lh5.googleusercontent.com/p/AF1QipNnNvRSdTuxlVi0UOfT0fbrey3HZiS5JVr9O5XM=w426-h240-k-no
216,Premium Hair And Beauty Supplies,"153 Thomond Rd, Inchicore, Ballyfermot, Co. Dublin, D10 RF21",53.3413819,-6.3472395,None,None,None,[],https://streetviewpixels-pa.googleapis.com/v1/thumbnail?panoid=0eaJd2ZwUP3pYikHVqk1mQ&cb_client=search.gws-prod.gps&w=408&h=240&yaw=202.7895&pitch=0&thumbfov=100
217,Frankies Hairdressing,"Parnell St, Ballycullenbeg, Mountmellick, Co. Laois, R32 DC67",53.11608589999999,-7.324275999999999,(057) 867 9500,frankieshairdressing.ie,4.8,"['9a.m.–5:30p.m.', 'Closed', 'Closed', '9a.m.–5p.m.', '9a.m.–5p.m.', '9a.m.–7:30p.m.', '9a.m.–7:30p.m.']",https://lh5.googleusercontent.com/p/AF1QipMD5ows6TTUTiBDz17D6k_LdVnhEbVm3OZ4t8qD=w408-h306-k-no
218,Reflections Hair Loom,"149 Emmet Rd, Inchicore, Dublin 8, D08 PR94",53.3401695,-6.317356,(01) 454 5822,None,4.8,"['9a.m.–5p.m.', 'Closed', 'Closed', '9:30a.m.–5:30p.m.', '9:30a.m.–5:30p.m.', '9:30a.m.–5:30p.m.', '9a.m.–5:30p.m.']",https://streetviewpixels-pa.googleapis.com/v1/thumbnail?panoid=3AJXJWzJ-D8Rf7-xZ6JzeA&cb_client=search.gws-prod.gps&w=408&h=240&yaw=314.53168&pitch=0&thumbfov=100
219,Moxie Hair Studio,None,None,None,None,moxiestudio.ie,4.8,[],https://lh5.googleusercontent.com/p/AF1QipMRDFTaixqkP8ou-431d9wn5Qg3aR3g_vv46-N7=w408-h408-k-no
220,Mane Hair Salon,"16 William St S, Dublin 2, D02 NY90",53.3421645,-6.262685299999999,(01) 672 5177,hairbymane.ie,4.3,"['9a.m.–5:30p.m.', 'Closed', 'Closed', '9a.m.–6p.m.', '9a.m.–6p.m.', '9a.m.–7:30p.m.', '9a.m.–7p.m.']",https://lh5.googleusercontent.com/p/AF1QipP2G4PrpltgXgzEnpfkiIKTuogSLoV7DQYnJkDO=w408-h279-k-no
221,Your Hair,"Killeshiin Road, Graigue, Carlow",52.8366336,-6.9424408,,None,5.0,"['8:30a.m.–5p.m.', 'Closed', '9:30a.m.–12:30p.m.', '1:30–6p.m.', '9:30a.m.–6p.m.', '9:30a.m.–6p.m.', '9:30a.m.–8p.m.', '9:30a.m.–6p.m.']",https://streetviewpixels-pa.googleapis.com/v1/thumbnail?panoid=brpvTmfs4Co8IEh9zsGe9A&cb_client=search.gws-prod.gps&w=408&h=240&yaw=167.7162&pitch=0&thumbfov=100
222,Angelina Hair Salon,"Saint Peter's Road St Peter's Rd, Walkinstown, Dublin 12, D12 KX23",53.3136221,-6.329329299999999,(01) 534 9524,angelinasalon.ie,4.9,"['9a.m.–5p.m.', 'Closed', '9a.m.–5p.m.', '9a.m.–5p.m.', 'Closed', '9a.m.–7p.m.', '9a.m.–7p.m.']",https://lh5.googleusercontent.com/p/AF1QipMNM_ji5hV-elk94m2zW53x0UBeIFeSn2YRLtVX=w408-h271-k-no
223,Fusion Hair Salon,"Blackrock Village Center, Main Street, Blackrock, Co. Louth, A91 VP0A",53.9604556,-6.3674548,(042) 932 3747,None,4.3,"['9:30a.m.–5p.m.', 'Closed', 'Closed', '9:30a.m.–5:30p.m.', '9:30a.m.–5:30p.m.', '9:30a.m.–5:30p.m.', '9:30a.m.–7p.m.']",https://lh5.googleusercontent.com/p/AF1QipOySJsegIGz9-CFh9BfHhaMkPrwdcUJYMJb57-4=w408-h271-k-no
224,Venus Hair and Beauty,"Tower Road, Clondalkin, Dublin 22, D22 V2R2",53.3206632,-6.3945099,(01) 457 9735,facebook.com,4.9,"['10a.m.–5p.m.', 'Closed', 'Closed', '10a.m.–6p.m.', '10a.m.–6p.m.', '10a.m.–8p.m.', '10a.m.–6p.m.']",https://lh5.googleusercontent.com/p/AF1QipN9hz8xh2oOASU3Odc2UPST2hZVdFKqmQqPOA1b=w408-h432-k-no
225,Thomas Kendall Hair,"Castleknock Rd, Castleknock, Dublin",53.3711773,-6.3540486,(01) 640 5275,thomaskendallhair.com,4.7,"['9a.m.–6p.m.', 'Closed', 'Closed', '10a.m.–6p.m.', '10a.m.–6p.m.', '10a.m.–8p.m.', '10a.m.–6p.m.']",https://lh5.googleusercontent.com/p/AF1QipNhtX9dUtXFgmpP0v4puk0-xeLvnOvoMQnQfNZx=w408-h240-k-no-pi-0-ya135.95174-ro0-fo100
226,Shamooze,"Bawnogue Shopping Centre, Bawnogue Rd, Clonburris Great, Dublin 22",53.32455,-6.411187,(01) 457 6115,None,5.0,"['9a.m.–5p.m.', 'Closed', 'Closed', '10a.m.–5p.m.', '10a.m.–5p.m.', '10a.m.–8p.m.', '9a.m.–6p.m.']",https://streetviewpixels-pa.googleapis.com/v1/thumbnail?panoid=CAs_PSISbQlLE9HYm5mm9w&cb_client=search.gws-prod.gps&w=408&h=240&yaw=129.80711&pitch=0&thumbfov=100
227,city look hair salon,"65B Harold's Cross Rd, Harold's Cross, Dublin, D6W AW22",53.3269512,-6.2774787,087 617 4665,business.site,4.8,"['9a.m.–7p.m.', '11a.m.–6p.m.', '9:30a.m.–7p.m.', '9:30a.m.–7p.m.', '9:30a.m.–7p.m.', '9a.m.–7p.m.', '9a.m.–7p.m.']",https://lh5.googleusercontent.com/p/AF1QipPPPkvYGcyuTU4bJ30J7EvLdeMx4hqi66zk39I=w408-h306-k-no
228,Fringe Hairdressing,"165 St Mobhi Rd, Botanic, Dublin, D09 CH22",53.3707016,-6.2681895,(01) 836 9564,fringe.ie,4.8,"['9a.m.–5p.m.', 'Closed', 'Closed', '9:30a.m.–6p.m.', '9:30a.m.–6p.m.', '9:30a.m.–7p.m.', '9:30a.m.–6p.m.']",https://lh5.googleusercontent.com/p/AF1QipP_SOY2bb3sydFfaAWjS2oInL5gTW2e8Ma_wCpx=w408-h272-k-no
229,Peter Mark Hairdressers Malahide,"1 Church Rd, Malahide, Co. Dublin, K36 DC80",53.4503457,-6.153788,(01) 845 2487,petermark.ie,4.3,"['9a.m.–5:30p.m.', 'Closed', '9a.m.–6p.m.', '9a.m.–6p.m.', '9a.m.–6p.m.', '9a.m.–9p.m.', '9a.m.–7p.m.']",https://lh5.googleusercontent.com/p/AF1QipO6HeLL-aKoKWBZh8Q7pBiAeraBHGAU2N6ryQaD=w408-h272-k-no
230,Ballance Hair,"Leopardstown Shopping Centre, Ballyogan Rd, Ballyogan, Dublin 18, D18 P9X7",53.2592565,-6.196853099999999,(01) 294 8888,ballancehairandbeauty.com,4.9,"['9a.m.–6p.m.', 'Closed', '9a.m.–6p.m.', '9a.m.–6p.m.', '9a.m.–8p.m.', '9a.m.–6p.m.', '9a.m.–8p.m.']",https://lh5.googleusercontent.com/p/AF1QipPkhxyhckinaJsDqzBqMqzps6HqSefj1lKc9wEw=w426-h240-k-no
231,Hairspray Ballymount HQ,"Fashion City, Unit 22, Ballymount Rd Upper, Ballymount, Dublin, D24 E861",53.3069333,-6.352073499999999,(01) 429 5688,hairspray.ie,4.4,"['10a.m.–5p.m.', 'Closed', '9a.m.–6p.m.', '9a.m.–6p.m.', '9a.m.–6p.m.', '9a.m.–6p.m.', '9a.m.–6p.m.']",https://lh5.googleusercontent.com/p/AF1QipOitbfMhurYcC7oTg0GRkIG5iD9z5jjhZqDDwVD=w426-h240-k-no
232,Momento Hair Salon - Galway,"18 High St, Galway, H91 W7D2",53.27195469999999,-9.0534027,(091) 565 569,momentohair.ie,4.7,"['9a.m.–6p.m.', 'Closed', 'Closed', '9a.m.–6p.m.', '9a.m.–6p.m.', '9a.m.–7p.m.', '9a.m.–7p.m.']",https://lh5.googleusercontent.com/p/AF1QipMvgi4VBYT7ayY656Vr1fIFWC-B5FTjINHPY8-k=w408-h325-k-no
233,Shinelle Hair Salon,"Rathronan, Bridgetown, Co. Wexford, Y35 N2H1",52.2438515,-6.553645299999999,087 995 2506,None,4.6,"['9a.m.–5:30p.m.', '11a.m.–5p.m.', 'Closed', '9a.m.–6p.m.', '9a.m.–6p.m.', '9a.m.–6p.m.', '9a.m.–6p.m.']",https://lh5.googleusercontent.com/p/AF1QipPgzjIDBpR6USo4wDsFMI7xHo693ldy_ELijeae=w425-h240-k-no
234,Sunny Hair Salon,"4 Sundrive Rd, Kimmage, Dublin 12, D12 Y625",53.3196388,-6.291095700000001,087 346 7879,None,4.7,"['9a.m.–7:30p.m.', '10a.m.–6p.m.', '9:30a.m.–7:30p.m.', '9:30a.m.–7:30p.m.', '9a.m.–7:30p.m.', '9a.m.–7:30p.m.', '9a.m.–7:30p.m.']",https://streetviewpixels-pa.googleapis.com/v1/thumbnail?panoid=lYB90HNLCCFomTVVLWySgQ&cb_client=search.gws-prod.gps&w=408&h=240&yaw=204.27939&pitch=0&thumbfov=100
235,Shampoo Hair and Beauty,None,None,None,(01) 451 8705,None,4.2,[],https://streetviewpixels-pa.googleapis.com/v1/thumbnail?panoid=DuYdsYXcUCgfBNR-ghe-4w&cb_client=search.gws-prod.gps&w=408&h=240&yaw=154.03452&pitch=0&thumbfov=100
236,Melt Hair and Beauty,"13 Rathgar Rd, Rathmines, Dublin, D06 N5F2",53.3216378,-6.2670822,085 718 4998,melthairandbeauty.ie,5.0,"['9a.m.–6p.m.', 'Closed', 'Closed', '10a.m.–9p.m.', '10a.m.–9p.m.', '10a.m.–9p.m.', '10a.m.–9p.m.']",https://lh5.googleusercontent.com/p/AF1QipNyOUtycTUfldSZKb8rqJ8NPZY8qHFU3miMSepP=w408-h400-k-no
237,Vanilla Browns Hair Salon at The Absolute Hotel,"Sir Harry's Mall, Limerick",52.6677118,-8.619161199999999,(061) 463 608,vanillabrowns.com,3.8,"['10a.m.–8p.m.', 'Closed', '10a.m.–8p.m.', '10a.m.–6p.m.', 'Closed', '10a.m.–8p.m.', '10a.m.–8p.m.']",https://lh5.googleusercontent.com/p/AF1QipN6KMVfCi7HrahLEVsOR_5gKwzdcj-pCGW8ROfD=w426-h240-k-no
238,Sarah Lyons Hair and Beauty Bar,"Main St, Summerhill, Co. Meath, A83 AK29",53.4816099,-6.732193499999999,(046) 955 8833,sarahlyonshairandbeautybar.ie,4.9,[],https://lh5.googleusercontent.com/p/AF1QipMr2Pt9kHIDqBGJ_EbrK6biFFRV8F8zQoA8BfL9=w408-h240-k-no-pi-0-ya285.5-ro-0-fo100
239,Frame Creative Hair Design,"4A Thomas Hand St, Townparks, Skerries, Co. Dublin, K34 HF29",53.5785779,-6.111457100000001,(01) 849 3581,framecreativehairdesign.ie,5.0,"['9a.m.–5p.m.', 'Closed', 'Closed', '9:30a.m.–6p.m.', '9:30a.m.–6p.m.', '9:30a.m.–8p.m.', '9:30a.m.–6p.m.']",https://lh5.googleusercontent.com/p/AF1QipPSHACzt8ZLuK8yag8aO8m8WnkfVxgNaoVw3R1J=w408-h510-k-no
240,Niall Colgan Hairdressing,"O'Callaghan Strand, Limerick, V94 WK27",52.6647439,-8.6325862,(061) 582 240,niallcolganhairdressing.ie,4.8,"['8:30a.m.–5:30p.m.', 'Closed', '9a.m.–6p.m.', '9a.m.–6p.m.', '9a.m.–6p.m.', '9a.m.–8p.m.', '9a.m.–8p.m.']",https://lh5.googleusercontent.com/p/AF1QipPwBeMAYHH0O-sgclG2WFbUamkb2-0RumSeEJ3m=w426-h240-k-no
241,Ray Viana Concept,"79 Marlborough St, North City, Dublin 1, D01 N9C9",53.3514358,-6.258899599999999,,None,5.0,"['10a.m.–7p.m.', 'Closed', '10a.m.–7p.m.', '10a.m.–7p.m.', '10a.m.–7p.m.', '10a.m.–7p.m.', '10a.m.–7p.m.']",https://streetviewpixels-pa.googleapis.com/v1/thumbnail?panoid=nkYHZqegZ5npCW7PufRumg&cb_client=search.gws-prod.gps&w=408&h=240&yaw=278.56735&pitch=0&thumbfov=100
242,Ruby Reds Hair Salon,"Newpark Shopping Centre, Newpark, Kilkenny",52.6601035,-7.241073299999999,(056) 775 6055,rubyreds.ie,5.0,[],https://maps.gstatic.com/tactile/pane/default_geocode-2x.png
243,La Vita Hair & Beauty Salon | Bridal Services | Ennis | Ireland,"75 O'Connell Street, Clonroad Beg, Ennis, Co. Clare, V95 KD83",52.8417695,-8.9839442,(065) 684 8515,lavitasalons.ie,4.7,"['9a.m.–6p.m.', 'Closed', '9:30a.m.–6p.m.', '9:30a.m.–6p.m.', '9:30a.m.–6p.m.', '9:30a.m.–8p.m.', '9:30a.m.–8p.m.']",https://lh5.googleusercontent.com/p/AF1QipP-3ooBvGw__uWf503zY7yYpxHkMPOJu_HobqMC=w506-h240-k-no
244,Queen Hairdressing,"The Hill, Stillorgan, Dublin",53.2882494,-6.196335899999999,(01) 685 4266,queen.ie,4.9,"['9a.m.–6p.m.', 'Closed', 'Closed', '10a.m.–6p.m.', '10a.m.–7p.m.', '10a.m.–8p.m.', '10a.m.–6p.m.']",https://lh5.googleusercontent.com/p/AF1QipOD3cOcFFYC37QRY8I6l-IwWrYp5-h4eKuNoBHI=w408-h408-k-no
245,Style 4 Hair Beauty,"66 Meath St, The Liberties, Dublin 8, D08 DK64",53.3408777,-6.278140199999999,(01) 473 7383,None,None,[],https://streetviewpixels-pa.googleapis.com/v1/thumbnail?panoid=oXNgDpecOC9EoiC62_h-XA&cb_client=search.gws-prod.gps&w=408&h=240&yaw=89.6891&pitch=0&thumbfov=100
246,Lisa's Nails & Beauty Salon,None,None,None,085 144 9111,business.site,4.7,"['9a.m.–12p.m.', 'Closed', '10a.m.–7p.m.', '10a.m.–7p.m.', '10a.m.–7p.m.', '10a.m.–7p.m.', '10a.m.–7p.m.']",https://lh5.googleusercontent.com/p/AF1QipOMhIBEdSxsJey46rNKbB5AhIoF1ul_RJj0Sz9a=w426-h240-k-no
247,V studio Walkinstown,None,None,None,(01) 429 9999,vstudio.ie,5.0,"['8:30a.m.–5p.m.', 'Closed', '9a.m.–5p.m.', '10a.m.–6p.m.', '10a.m.–8p.m.', '10a.m.–7p.m.', '9a.m.–7p.m.']",https://streetviewpixels-pa.googleapis.com/v1/thumbnail?panoid=kndBVe4Y1oQWUniAX1laxQ&cb_client=search.gws-prod.gps&w=408&h=240&yaw=135.62468&pitch=0&thumbfov=100
248,LE viva hair salon,"21 Bridge St, Castlelands, Mallow, Co. Cork, P51 NH70",52.1346974,-8.6409512,087 452 9666,facebook.com,5.0,"['10a.m.–5p.m.', 'Closed', 'Closed', 'Closed', '10a.m.–6p.m.', '10a.m.–6p.m.', '10a.m.–6p.m.']",https://lh5.googleusercontent.com/p/AF1QipMymzJF1TTeSuL32tCqKaJbFm5ZvAbgUSwZJxb5=w408-h244-k-no
249,Tangles Hair Design,"Weaver's Court, Unit 1, Old main street, Prosperous, Co. Kildare, W91 XP9E",53.29168199999999,-6.754526299999999,(045) 840 695,tangleshairdesignclane.com,5.0,"['9a.m.–5:30p.m.', 'Closed', 'Closed', '9a.m.–5:30p.m.', '9a.m.–5:30p.m.', '9a.m.–5:30p.m.', '9a.m.–7p.m.']",https://lh5.googleusercontent.com/p/AF1QipO8IvY0Oq9TEcZyLsZjI-zZKwyj1G-t5lA6kZhr=w490-h240-k-no
250,Spirit Hair Studio,"Unit 1A Killinarden Enterprise Park Killinarden Enterprise Centre, Dublin 24",53.2770752,-6.3772259,(01) 451 0008,None,4.9,"['9a.m.–5p.m.', 'Closed', 'Closed', '9a.m.–6p.m.', '9a.m.–6p.m.', '9a.m.–6p.m.', '9a.m.–7p.m.']",https://lh5.googleusercontent.com/p/AF1QipMaGymjNFzd2D2CQjgBMYo010JNtGUM4ZzzKr7b=w408-h510-k-no
251,Alan Keville for Hair,"4 Selskar St, Ferrybank South, Wexford, Y35 AK28",52.3413019,-6.4634408,(053) 912 2102,kevillehair.com,4.9,"['9a.m.–5:30p.m.', 'Closed', '9:30a.m.–6p.m.', '9:30a.m.–6p.m.', '9:30a.m.–6p.m.', '9:30a.m.–8p.m.', '9:30a.m.–8p.m.']",https://lh5.googleusercontent.com/p/AF1QipO6CrO5otfsFpZ8Jl8ZNSkkJFyCIFU7sKB2sXPW=w426-h240-k-no
252,Peter Mark Hairdressers Letterkenny,"Unit B, Fort Lynne House, Letterkenny, Co. Donegal",54.947894,-7.731023199999999,(074) 912 8657,petermark.ie,4.7,"['9a.m.–5:30p.m.', 'Closed', '9a.m.–6p.m.', '9a.m.–6p.m.', '9a.m.–6p.m.', '9a.m.–8:30p.m.', '9a.m.–8:30p.m.']",https://lh5.googleusercontent.com/p/AF1QipMLeQf9V_RHQs8Ed_q_Z6_D6Ea2v9a9i0S58cPT=w408-h272-k-no
253,Q&M Hair & Beauty Salon IFSC,"Capel St, North City, Dublin",53.3484666,-6.2687446,087 330 3666,qandm.ie,4.3,"['9:30a.m.–8p.m.', 'Closed', '9:30a.m.–7p.m.', '9:30a.m.–7p.m.', '9:30a.m.–7a.m.', '9:30a.m.–8p.m.', '9:30a.m.–8p.m.']",https://streetviewpixels-pa.googleapis.com/v1/thumbnail?panoid=rBqQp94-ordoC9-qZu9CSQ&cb_client=search.gws-prod.gps&w=408&h=240&yaw=166.699&pitch=0&thumbfov=100
254,The Collective By Lloyds,"40-44 Patrick St, Waterford, X91 X3KF",52.2599149,-7.112879899999999,(051) 878 964,thecollectivebylloyds.ie,4.8,"['9a.m.–3p.m.', 'Closed', '9a.m.–8p.m.', '9a.m.–8p.m.', '9a.m.–5p.m.', '9a.m.–5p.m.', '9a.m.–5p.m.']",https://lh5.googleusercontent.com/p/AF1QipNjlcSBygDXKKNl0ntp7kOLn-ZkG0sQuYaJgsWS=w425-h240-k-no
255,Obsessed Hair Salon,None,None,None,(061) 210 768,obsessedhairsalon.ie,4.7,"['9a.m.–7:30p.m.', 'Closed', 'Closed', '9a.m.–5:30p.m.', '9a.m.–5:30p.m.', '9a.m.–7:30p.m.', '9a.m.–7:30p.m.']",https://lh5.googleusercontent.com/p/AF1QipPUzIuFtKGS9FuWAvb-3jiswSOI0vOTCEVQ38Dk=w408-h272-k-no
256,Salon Sia,"45 Woodpark, O'Rourke Park, Thomastown, Dublin, A96 R8FY",53.2778377,-6.1414738,(01) 202 3216,salonsia.ie,4.8,"['9a.m.–5p.m.', 'Closed', 'Closed', '9a.m.–5p.m.', '9a.m.–5p.m.', '9a.m.–5p.m.', '9a.m.–5p.m.']",https://lh5.googleusercontent.com/p/AF1QipNWz8L5flAQGqZdmqkOsRMAgvvH2nYMLWzP2hiR=w424-h240-k-no
257,Salon 2 Hairdressing,"5 Adelaide St, Abbeyquarter North, Sligo",54.2710399,-8.4795389,(071) 916 0341,salon2hairdressing.ie,5.0,"['9a.m.–5:30p.m.', 'Closed', '9a.m.–6p.m.', '9a.m.–6p.m.', '9a.m.–8p.m.', '9a.m.–8p.m.', '9a.m.–7p.m.']",https://lh5.googleusercontent.com/p/AF1QipMPDHgC16BBROxIDNQYCP7fStvUKyUqfntWZ9Km=w408-h620-k-no
258,CHAIR Hair Salon,None,None,None,(021) 424 8710,chair.ie,4.9,"['9:30a.m.–8:30p.m.', 'Closed', '9:30a.m.–5:30p.m.', '9:30a.m.–5:30p.m.', '9:30a.m.–5:30p.m.', '9:30a.m.–6:30p.m.', '9:30a.m.–7:30p.m.']",https://lh5.googleusercontent.com/p/AF1QipNDMX8-RBlYnCakka4a6JvYxHdrMXqYGT-WfAyo=w408-h408-k-no
259,The Hair Salon,"Riverside Wharf, West Beach, Kilgarvan, Cobh, Co. Cork",51.8500289,-8.2922618,(021) 485 5866,thehairsalon.ie,5.0,"['8a.m.–4p.m.', 'Closed', 'Closed', '9a.m.–6p.m.', '9a.m.–6p.m.', '9a.m.–6p.m.', '9a.m.–6p.m.']",https://lh5.googleusercontent.com/p/AF1QipPDZWgS4RoFTCK3ZH49OoMhIdimKvnD6v6j08r9=w408-h271-k-no
260,Manor Hair Studios,"38 Manor Rd, Redcowfarm, Dublin, D20 WD25",53.3514573,-6.3684981,(01) 623 5542,None,5.0,[],https://streetviewpixels-pa.googleapis.com/v1/thumbnail?panoid=l9a_2LIRFvfjWd9jSzQ-nA&cb_client=search.gws-prod.gps&w=408&h=240&yaw=348.74323&pitch=0&thumbfov=100
261,L&A Hair Barbers & Hair Salon,"Guillivers Retail Park, Santry Demesne, Dublin",53.40506999999999,-6.261500000000001,,,4.3,"['9a.m.–5p.m.', 'Closed', '10a.m.–6p.m.', '10a.m.–6p.m.', '10a.m.–6p.m.', '9a.m.–8p.m.', '9a.m.–7p.m.']",https://lh5.googleusercontent.com/p/AF1QipOanTPTJWxdwZgRNSm-aRXZXjYis4FZTiXzpmHI=w408-h544-k-no
262,Lavish Locks Hair and Beauty Lounge,None,None,None,(01) 841 5287,llhairandbeautylounge.ie,4.6,"['9a.m.–5p.m.', 'Closed', 'Closed', '9a.m.–6p.m.', '9a.m.–6p.m.', '9a.m.–9p.m.', '9a.m.–9p.m.']",https://lh5.googleusercontent.com/p/AF1QipMxpuLyr1QvI-SDyYS8jAxTwpV3fq6U-bL5uZ7P=w408-h544-k-no
263,Premier Hair and Beauty Supplies,None,None,None,(01) 905 3777,None,4.5,"['Closed', '12–4p.m.', '9a.m.–6p.m.', '9a.m.–6p.m.', '9a.m.–8p.m.', '9a.m.–6p.m.', '9a.m.–3p.m.']",https://lh5.googleusercontent.com/p/AF1QipN8xYtQHYI2F9yLGWJWEvVSiHjHoxjMgEq2prQx=w408-h306-k-no
264,Amandas Hair Salon Wicklow Town,"9 The Mall, Wicklow, A67 VW83",52.9801936,-6.0395372,(0404) 64562,business.site,4.7,"['9a.m.–5p.m.', 'Closed', '9a.m.–5:30p.m.', '9a.m.–5:30p.m.', '9a.m.–5:30p.m.', '9a.m.–5:30p.m.', '9a.m.–5:30p.m.']",https://lh5.googleusercontent.com/p/AF1QipMMdv9XB_ENwfTs8dA2074eZhgo-mQ3FgnnU5sB=w408-h306-k-no
265,SitStil,"17 Drury St, Dublin, D02 FW68",53.3419821,-6.2636631,(01) 616 8887,sitstil.com,4.8,"['9a.m.–5p.m.', 'Closed', '9a.m.–5p.m.', '9a.m.–5p.m.', '9a.m.–5p.m.', '9a.m.–8p.m.', '9a.m.–5p.m.']",https://lh5.googleusercontent.com/p/AF1QipPsveB185-TkEdpMMnHQH-Rw_7vWXIajRWz4tfl=w408-h544-k-no
266,Colour Savers - Wholesale Hair Salon Supplies,None,None,None,(01) 531 1600,coloursavers.com,4.4,"['Closed', 'Closed', '8a.m.–5p.m.', '8a.m.–5p.m.', '8a.m.–5p.m.', '8a.m.–5p.m.', '8a.m.–4p.m.']",https://lh5.googleusercontent.com/p/AF1QipMm20woG5X69B3sVG-iGxVqbgClu1ZL19wkpWHY=w408-h271-k-no
267,Patrick Gildea Hairdressing & Beauty,"Unit 2b, Riverside Retail Park, Neil T Blaney Rd, Letterkenny, Co. Donegal",54.9459439,-7.7275993,(074) 912 5476,patrickgildea.ie,4.6,"['8a.m.–7p.m.', 'Closed', '9a.m.–8p.m.', '9a.m.–8p.m.', '9a.m.–8p.m.', '9a.m.–8p.m.', '9a.m.–8p.m.']",https://lh5.googleusercontent.com/p/AF1QipNUkAyicQQGhYmzs12l3i-3Z0voyHLNI6uYurnl=w408-h270-k-no
268,HairCutier,"21 Wicklow St, Dublin, D02 XV83",53.34310139999999,-6.2615653,None,None,None,[],https://streetviewpixels-pa.googleapis.com/v1/thumbnail?panoid=0jfyE37SeXY_ldRwVKAl3w&cb_client=search.gws-prod.gps&w=408&h=240&yaw=332.6541&pitch=0&thumbfov=100
269,Peter Mark Hairdressers Merrion Shopping Centre,"Merrion Shopping Centre Dublin 4, Ballsbridge, Co. Dublin",53.31855669999999,-6.213863,(01) 283 8300,petermark.ie,4.4,"['8a.m.–6p.m.', '11a.m.–5p.m.', '8a.m.–6p.m.', '8a.m.–6p.m.', '8a.m.–6p.m.', '8a.m.–9p.m.', '8a.m.–9p.m.']",https://lh5.googleusercontent.com/p/AF1QipOda3Ac59xtr9d8KG9jPZa8aszwH9I64RRdmT4L=w408-h408-k-no
270,L'OmBre Terenure,"88 Terenure Rd E, Terenure, Dublin 6, D06 FK71",53.3101697,-6.2827468,(01) 485 3430,lombre.ie,5.0,"['9a.m.–6p.m.', '10a.m.–5p.m.', '9a.m.–6p.m.', '9a.m.–6p.m.', '9a.m.–6p.m.', '9a.m.–8p.m.', '9a.m.–8p.m.']",https://lh5.googleusercontent.com/p/AF1QipO-5WWZVMDXoPuRZeoQSsCSAkdoYfB9PmVLJvGQ=w408-h544-k-no
271,Hair By Lucy At the Lounge,"R772, Commons, Co. Wicklow",53.0059004,-6.1038318,(0404) 62485,None,4.9,[],https://streetviewpixels-pa.googleapis.com/v1/thumbnail?panoid=rdz_4CDWdNiiZmy37KmRyw&cb_client=search.gws-prod.gps&w=408&h=240&yaw=320.4843&pitch=0&thumbfov=100
272,BellaFurniture.ie - Beauty Salon Furniture Ireland,"Cherry Orchard Industrial Estate, Unit 68A, Ballyfermot, Co. Dublin, D10 NH27",53.3461222,-6.3732821,(01) 442 9939,bellafurniture.ie,5.0,"['Open 24 hours', 'Open 24 hours', 'Open 24 hours', 'Open 24 hours', 'Open 24 hours', 'Open 24 hours', 'Open 24 hours']",https://lh5.googleusercontent.com/p/AF1QipPsRIB_0X14gESE0VVoW0xLI_PFKUXEs3wwR5dJ=w426-h240-k-no
273,Rustiq Salon Kilkenny,"The Smithland Centre, 2 Waterford Rd, Loughboy, Kilkenny",52.6405325,-7.246770899999999,(056) 777 2548,rustiqsalon.com,4.7,"['8:30a.m.–5p.m.', 'Closed', '9a.m.–6p.m.', '9a.m.–6p.m.', '9a.m.–6p.m.', '9a.m.–8p.m.', '9a.m.–8p.m.']",https://lh5.googleusercontent.com/p/AF1QipPm3j-J_by-10zy1PhW6UAdlZAicOS9S9ySbB-O=w408-h408-k-no
274,JH Hair Care,"84 Highfield Rd, Rathfarnham, Dublin 6, D06 RF97",53.3133606,-6.2648734,(01) 406 5522,jhhaircare.ie,5.0,"['9a.m.–6p.m.', 'Closed', 'Closed', '9a.m.–5p.m.', '9a.m.–6p.m.', '9a.m.–6p.m.', '9a.m.–6p.m.']",https://lh5.googleusercontent.com/p/AF1QipOxaYEkxwcJz-e8txci1gHfArTbOveSJc7MZpFv=w426-h240-k-no
275,Au-Parri,"Beechlawn Industrial Complex, 7 Greenhills Rd, Walkinstown, Dublin 12",53.3131239,-6.335853999999999,085 125 6229,au-parri.com,None,"['10a.m.–5p.m.', '10a.m.–5p.m.', 'Closed', '10a.m.–5p.m.', '10a.m.–5p.m.', 'Closed', 'Closed']",https://streetviewpixels-pa.googleapis.com/v1/thumbnail?panoid=dksoj2fxm-DmlicQn6OtWA&cb_client=search.gws-prod.gps&w=408&h=240&yaw=128.14049&pitch=0&thumbfov=100
276,Ilona's Hair Salon,"Tullyvarraga, Shannon, Co. Clare",52.7084909,-8.8790099,(061) 360 970,facebook.com,4.7,"['9a.m.–5p.m.', 'Closed', '9a.m.–6p.m.', '9a.m.–6p.m.', '9a.m.–6p.m.', '9a.m.–7p.m.', '9a.m.–7p.m.']",https://lh5.googleusercontent.com/p/AF1QipNPQKh4y_AlXL1o3g-DrY9XVAdRitVRw1MubLZ8=w408-h839-k-no
277,Salon Glow,"Roslevan Shopping Centre, Tulla Road, Ennis, Co. Clare",52.8566897,-8.9596093,(065) 686 8251,glow.ie,4.9,"['9a.m.–5:30p.m.', 'Closed', '9a.m.–7p.m.', '9a.m.–7p.m.', '9a.m.–7p.m.', '9a.m.–7p.m.', '9a.m.–8p.m.']",https://lh5.googleusercontent.com/p/AF1QipPIHLYRsajnngZMm0bidYXJwpeBcJIeCDhtTcs=w426-h240-k-no
278,Studio lane,"134 Whitehall Rd W, Perrystown, Dublin 12, D12 FD32",53.3106972,-6.320990399999999,086 088 8011,None,None,"['9a.m.–8p.m.', 'Closed', 'Closed', 'Closed', '9a.m.–8p.m.', '9a.m.–8p.m.', '9a.m.–8p.m.']",https://streetviewpixels-pa.googleapis.com/v1/thumbnail?panoid=FygRvsrxgoq2osVILnUyfw&cb_client=search.gws-prod.gps&w=408&h=240&yaw=84.44024&pitch=0&thumbfov=100
279,Cathriona's Hairsalon,"Mary Street, Tralee, Co. Kerry",52.26802929999999,-9.7080333,(066) 714 4626,cathrionashairsalon.com,4.5,"['8a.m.–8p.m.', 'Closed', '8a.m.–8p.m.', '8a.m.–8p.m.', '8a.m.–8p.m.', '8a.m.–8p.m.', '8a.m.–8p.m.']",https://lh5.googleusercontent.com/p/AF1QipOJBHmAvDL-QH2fQ9h4kwl7LYQKAHbIB2ylJL7W=w408-h515-k-no
280,Secret Sanctuary Hair and Beauty,"Borris, Co. Carlow",52.5998053,-6.923082399999999,(059) 977 3911,facebook.com,4.8,"['9a.m.–6p.m.', 'Closed', 'Closed', '9:30a.m.–5:30p.m.', '9:30a.m.–5:30p.m.', '9:30a.m.–5:30p.m.', '9a.m.–6p.m.']",https://lh5.googleusercontent.com/p/AF1QipMh9yuoR4LgvH7DCkTA04fjhFcZVoBqJBYJEDSv=w408-h544-k-no
281,Orchid's Hair & Beauty Salon,None,None,None,,,4.0,"['9a.m.–6:30p.m.', 'Closed', '9:30a.m.–6:30p.m.', '9:30a.m.–6:30p.m.', '9:30a.m.–8p.m.', '9:30a.m.–8p.m.', '9:30a.m.–8p.m.']",https://lh5.googleusercontent.com/p/AF1QipPRhpG5ycxxL52MCI6BN1-uAQJX-lRv6HIiyjrD=w408-h269-k-no
282,Extension Hairstyle,None,None,None,085 165 8724,business.site,None,"['9a.m.–5p.m.', 'Closed', 'Closed', '10a.m.–6p.m.', '10a.m.–6p.m.', '10a.m.–7p.m.', '10a.m.–7p.m.']",https://lh5.googleusercontent.com/p/AF1QipNMwwL2OA0VB7szJPKYUZ_l1PSH0-fGPfudCiAN=w408-h467-k-no
283,Marbles Hair & Beauty - Hugh Campbell Hair Group,"35 Cruise's St, Limerick, V94 R970",52.6636716,-8.6250653,(061) 410 955,hughcampbellhairgroup.com,4.7,"['9a.m.–5:30p.m.', 'Closed', '9a.m.–6p.m.', '9a.m.–6p.m.', '9a.m.–6p.m.', '9a.m.–6p.m.', '9a.m.–8p.m.']",https://lh5.googleusercontent.com/p/AF1QipOzLUGB--HgnfyhgcSLHBAxlgJ_XFZnRIW2Bdzr=w408-h257-k-no
284,Yourells Hair Salon,"23-25 Eyre St, Galway, H91 YV48",53.27526630000001,-9.0515244,(091) 563 545,yourells.com,4.6,"['9a.m.–5:30p.m.', 'Closed', '9a.m.–6p.m.', '9a.m.–6p.m.', '9a.m.–6p.m.', '9a.m.–8p.m.', '9a.m.–6p.m.']",https://lh5.googleusercontent.com/p/AF1QipMir3I5_wr2EZcn4TrlTKHI0IUO3j0YxoqcnI0J=w408-h504-k-no
285,The Bohemian Rooms,"Bawnogue Shopping Centre, 2, Dublin",53.32472120000001,-6.4114964,085 126 2777,facebook.com,4.4,"['9a.m.–5p.m.', 'Closed', 'Closed', 'Closed', '9a.m.–5p.m.', '9a.m.–7p.m.', '9a.m.–5p.m.']",https://lh5.googleusercontent.com/p/AF1QipN_TIjR63RXtb1lDv4KkR5FfQmZiaYEsAxld-OX=w408-h509-k-no
286,Essence of Beauty,None,None,None,(01) 230 4278,essenceofbeautydublin.com,4.6,"['9a.m.–7p.m.', 'Closed', 'Closed', '9a.m.–7p.m.', '9a.m.–7p.m.', '9a.m.–7p.m.', '9a.m.–7p.m.']",https://lh5.googleusercontent.com/p/AF1QipOAST1Dl3aG1ouWb7Fjt4n_bsXAdmf57TG9fFKS=w408-h271-k-no
287,Seagrass Hairdressing,"Marine Parade, Dough, Lahinch, Co. Clare",52.9328617,-9.3469929,(065) 708 2855,None,None,"['9:30a.m.–6p.m.', 'Closed', 'Closed', '9a.m.–6p.m.', '9a.m.–6p.m.', '9a.m.–6p.m.', '9a.m.–6p.m.']",https://streetviewpixels-pa.googleapis.com/v1/thumbnail?panoid=Ze659KcxlW7k1Jl3TXoxuw&cb_client=search.gws-prod.gps&w=408&h=240&yaw=285.1192&pitch=0&thumbfov=100
288,Salon Euphoria,None,None,None,(01) 845 4755,saloneuphoria.ie,4.4,"['9a.m.–6p.m.', 'Closed', 'Closed', '9:30a.m.–6p.m.', '9:30a.m.–6p.m.', '9:30a.m.–8p.m.', '9a.m.–6p.m.']",https://lh5.googleusercontent.com/p/AF1QipOzwbro_4du5IbSU1Op4gVSEO_mQVhfWwgrv0wQ=w408-h545-k-no
289,Purite Ireland,None,None,None,087 327 8934,None,None,[],https://streetviewpixels-pa.googleapis.com/v1/thumbnail?panoid=d0h1ctOXiJG_sqPEOdlzPw&cb_client=search.gws-prod.gps&w=408&h=240&yaw=168.22928&pitch=0&thumbfov=100
290,Eutopia Hair Salon,"Society St, Townparks, Ballinasloe, Co. Galway",53.3307608,-8.2244264,(090) 964 5977,None,None,[],https://streetviewpixels-pa.googleapis.com/v1/thumbnail?panoid=fvOD-1oRX_D4cA4WoMLJSg&cb_client=search.gws-prod.gps&w=408&h=240&yaw=105.55416&pitch=0&thumbfov=100
291,Cathrionas hair group Dingle,"NO 3, The Tracks, Dingle, Co. Kerry, V92 F449",52.1389763,-10.2719014,(066) 915 1744,cathrionashairsalon.com,5.0,"['8a.m.–4p.m.', 'Closed', 'Closed', '9:30a.m.–5p.m.', '9:30a.m.–5p.m.', '9:30a.m.–7p.m.', '8:30a.m.–6p.m.']",https://lh5.googleusercontent.com/p/AF1QipN2BD1GKNmYMOwAdp_7uB8R-1BJrUkd3_Z4t4We=w408-h271-k-no
292,Urban Angels Hair Salon,"The Gallery Mall, Glin, Co. Limerick, V94 V8N2",52.5690248,-9.2820958,(068) 26811,urbanangelshairsalon.com,5.0,"['9a.m.–5p.m.', 'Closed', 'Closed', '9a.m.–5:30p.m.', '9a.m.–5:30p.m.', '9a.m.–8p.m.', '9a.m.–5:30p.m.']",https://lh5.googleusercontent.com/p/AF1QipPMutXp-a4uFr0dbdPFm3rCOuGwFPoxT5iebCUX=w408-h408-k-no
293,Lightwaves,"110 Nutgrove Ave, Rathfarnham, Dublin, D14 K6P6",53.2922752,-6.271953099999999,(01) 494 5337,None,4.5,[],https://streetviewpixels-pa.googleapis.com/v1/thumbnail?panoid=RG5yKwMLBQ4oI2selBM0-g&cb_client=search.gws-prod.gps&w=408&h=240&yaw=209.97626&pitch=0&thumbfov=100
294,Hairitage,"Unit 1 SuperValu shopping, Kells, Co. Meath",53.7294373,-6.8826586,(046) 929 3525,hairitage.ie,4.6,"['9a.m.–5:30p.m.', '10a.m.–3:30p.m.', '9a.m.–5:30p.m.', '9a.m.–5:30p.m.', '9a.m.–5:30p.m.', '9a.m.–8p.m.', '9a.m.–8p.m.']",https://lh5.googleusercontent.com/p/AF1QipMowfLiJq98MmeRQJ0KNS2CXWUuWcVXnQBaCe9r=w408-h544-k-no
295,Newport Hair salon,"Medicott street, Carrowbaun, Newport, Co. Mayo, F28 E0F2",53.8831405,-9.5469751,(098) 41583,None,None,"['9a.m.–5p.m.', 'Closed', 'Closed', '9:30a.m.–6p.m.', '9:30a.m.–6p.m.', '9a.m.–7p.m.', '9a.m.–6p.m.']",https://streetviewpixels-pa.googleapis.com/v1/thumbnail?panoid=6ObANQ37SGIQgrx-w_mXwQ&cb_client=search.gws-prod.gps&w=408&h=240&yaw=187.90974&pitch=0&thumbfov=100
296,Kaos,"Harmony Hill, Abbeyquarter North, Sligo, F91 VF74",54.2700589,-8.4749491,(071) 914 2488,kaos.ie,4.9,"['9a.m.–5:30p.m.', 'Closed', '9a.m.–6p.m.', '9a.m.–6p.m.', '9a.m.–6p.m.', '9a.m.–9p.m.', '9a.m.–9p.m.']",https://lh5.googleusercontent.com/p/AF1QipP0l1kfCKtz_vPFvD-WZr6bmV1Gm1ZxHoqKK42c=w408-h544-k-no
297,Visage Hair Design,"8 Market St, Galway, H91 VW92",53.2732998,-9.0534289,(091) 533 785,None,4.8,"['9a.m.–5:30p.m.', 'Closed', '9a.m.–6p.m.', '9a.m.–6p.m.', '9a.m.–6p.m.', '9a.m.–7p.m.', '9a.m.–6p.m.']",https://lh5.googleusercontent.com/p/AF1QipM7lw5-6Gt4P6VH29Q50bU-_0BfbbXlivJYcEdK=w408-h322-k-no
298,The Skincare and Hair Spa,"Castle St, Cloonbrackna, Roscommon",53.63456979999999,-8.1899157,(090) 662 6041,skincarehairspa.ie,5.0,"['9a.m.–5:30p.m.', 'Closed', 'Closed', '9a.m.–6p.m.', '9a.m.–6p.m.', '9a.m.–6p.m.', '9a.m.–8p.m.']",https://lh5.googleusercontent.com/p/AF1QipN6sN04VdDBc8GigPTyhU4aXdugkFu19G3DvGfT=w427-h240-k-no
299,Hair Republic,"Westside Shopping Centre, Unit 6, Seamus Quirke Rd, Galway",53.2756486,-9.076729799999999,(091) 524 684,hairrepublic.ie,4.5,"['9a.m.–5:30p.m.', 'Closed', 'Closed', '9a.m.–5:30p.m.', '9a.m.–5:30p.m.', '9a.m.–7p.m.', '9a.m.–5:30p.m.']",https://lh5.googleusercontent.com/p/AF1QipNvKaaN95ZJxJ8sgGr6mpbNcmbf0iXw8fD9jkDR=w408-h291-k-no
300,Mistys Unisex Hair Design,"18 Terenure Rd N, Terenure, Dublin, D6W XF59",53.3138327,-6.2825494,(01) 490 8027,None,4.6,"['9a.m.–6p.m.', 'Closed', '9a.m.–6p.m.', '9a.m.–6p.m.', '9a.m.–6p.m.', '9a.m.–7p.m.', '9a.m.–7p.m.']",https://streetviewpixels-pa.googleapis.com/v1/thumbnail?panoid=q_shPE9GA54z29OQgl_Uug&cb_client=search.gws-prod.gps&w=408&h=240&yaw=260.61972&pitch=0&thumbfov=100
301,OB-1 Hair,"Unit 6 Glenroyal shopping center, Straffan Rd, Maynooth, Co. Kildare, W23 Y5P3",53.3802388,-6.5885698,,,4.9,"['8a.m.–6p.m.', 'Closed', '9a.m.–9p.m.', '9a.m.–9p.m.', '9a.m.–9p.m.', '9a.m.–9p.m.', '9a.m.–9p.m.']",https://lh5.googleusercontent.com/p/AF1QipMVgv5C1ccVvkYKJW1PvW5TMklcC_p4CHA-e3mn=w426-h240-k-no
302,Ikon Hair,"42 Marlboro St, Centre, Cork, T12 V1YX",51.8980064,-8.4729852,(021) 427 4588,ikonhair.ie,4.9,"['8a.m.–3p.m.', 'Closed', 'Closed', '9a.m.–7p.m.', '9a.m.–7p.m.', '9a.m.–7p.m.', '9a.m.–6p.m.']",https://lh5.googleusercontent.com/p/AF1QipPyHj_rFjRw6N3s8VOc5Bynd1Y1KScdQE-Hd6g9=w408-h271-k-no
303,The Groom Room,"Maro House, Ireland, Old Blessington Rd, Dublin, D24 CKP2",53.2890605,-6.3668403,None,app.barber-shop-booking.com,4.8,[],https://lh5.googleusercontent.com/p/AF1QipMi21pWxwCZlXBK_R0h2mH6m6s2ZRvX4d-tnMTM=w426-h240-k-no
304,Mary Ryan Hair Salon,"Ballygriffin, Croom, Co. Limerick, V35 DK82",52.55087959999999,-8.6977655,(061) 397 652,None,4.9,"['9a.m.–5:30p.m.', 'Closed', 'Closed', '9a.m.–5:30p.m.', '9a.m.–5:30p.m.', '9a.m.–8p.m.', '9a.m.–8p.m.']",https://lh5.googleusercontent.com/p/AF1QipPHsf0acf1qnubcd3FgbYFmxRuVDsbuPnCs4Vx7=w493-h240-k-no
305,Salon Furniture Store Ireland,None,None,None,083 184 3355,salonfurniturestore.co.uk,3.3,"['10:30a.m.–4p.m.', '1p.m.–5a.m.', '10:30a.m.–4p.m.', '10:30a.m.–4p.m.', '10:30a.m.–4p.m.', '10:30a.m.–4p.m.', '10:30a.m.–4p.m.']",https://lh5.googleusercontent.com/p/AF1QipMqyzr5lgMWt_UuDvc9D-raQhFMwcIlXO2bJtQH=w408-h306-k-no
306,Darcy's Hairdressing,"27-28 Paul St, Centre, Cork, T12 NX02",51.8990234,-8.4757112,(021) 427 7216,darcyshairdressing.ie,4.7,"['8:30a.m.–5:30p.m.', 'Closed', 'Closed', '9a.m.–6p.m.', '9a.m.–6p.m.', '9a.m.–8p.m.', '9a.m.–8p.m.']",https://lh5.googleusercontent.com/p/AF1QipNIY8YRkCtGUIr_uiT1Jl2Zt3Ilo-twhEQnpFx9=w408-h240-k-no-pi0-ya40-ro0-fo100
307,The Cutting Room,"1a Castle Crescent shopping centre, Monastery Road, Dublin 22, D22 A2K5",53.3212762,-6.3904602,(01) 403 7366,thecuttingroom.ie,5.0,[],https://lh5.googleusercontent.com/p/AF1QipPzyS_E0RCWDqTpzVDcmy4-t02Mmb4AO-JuHgtL=w408-h508-k-no
308,Q Salon by Queen,"Mitchel St, Lognafulla, Thurles, Co. Tipperary",52.6818162,-7.802284900000001,(0504) 91111,queen.ie,5.0,"['9a.m.–6p.m.', 'Closed', 'Closed', '1–5p.m.', '10a.m.–8p.m.', '10a.m.–6p.m.', '10a.m.–6p.m.']",https://streetviewpixels-pa.googleapis.com/v1/thumbnail?panoid=aOkwmMFrEfGmunyL3vTqCg&cb_client=search.gws-prod.gps&w=408&h=240&yaw=77.39711&pitch=0&thumbfov=100
309,Jerrys Hair Studio,"Huguenot Quarter,, Carey's Lane,, Cork., Co. Cork",51.898736,-8.4736693,(021) 427 4986,None,4.9,[],https://lh5.googleusercontent.com/p/AF1QipPn-sI8aIdfmx0LowMTMYaF1j-nLkINbRPpHcX0=w493-h240-k-no
310,Flair Hair & Beauty Supplies,None,None,None,(045) 898 501,flair.ie,4.5,"['Closed', 'Closed', '9a.m.–8p.m.', '9a.m.–5:30p.m.', '9a.m.–5:30p.m.', '9a.m.–5:30p.m.', '9a.m.–4p.m.']",https://lh5.googleusercontent.com/p/AF1QipOKNFpHhD7zvdgkvlP0uEJH1Vk20as-BBaVU_7p=w408-h360-k-no
311,Bankz Hair & Beauty,"Bank Place, Moneyballytyrrell, Portlaoise, Co. Laois",53.0355769,-7.299820599999999,(057) 862 0964,bankzhairgroup.ie,4.8,"['9a.m.–5p.m.', 'Closed', 'Closed', '9a.m.–6p.m.', '9a.m.–6p.m.', '9a.m.–8:30p.m.', '9a.m.–6p.m.']",https://lh5.googleusercontent.com/p/AF1QipOQE4DDR8MS9sgT5y2OfbZYHY-GYbBMjP2xC6Cp=w408-h408-k-no
312,Core Beauty,"Old Bawn Shopping Centre, Old Bawn Rd, Tallaght, Dublin",53.2759343,-6.3538422,(01) 451 5226,None,4.8,"['10a.m.–5p.m.', 'Closed', '10a.m.–6p.m.', '10a.m.–6p.m.', '10a.m.–6p.m.', '10a.m.–8p.m.', '10a.m.–8p.m.']",https://streetviewpixels-pa.googleapis.com/v1/thumbnail?panoid=7pLywbKOtxlG-rKVlxOYYw&cb_client=search.gws-prod.gps&w=408&h=240&yaw=39.99469&pitch=0&thumbfov=100
313,Laila Valentino Hairdressing,"Bridge House, Bridge Street, Townparks, Carrick-On-Shannon, Co. Leitrim",53.9443326,-8.0947233,(071) 961 6169,lailavalentino.ie,4.8,"['9a.m.–6p.m.', 'Closed', '9a.m.–6p.m.', '9a.m.–6p.m.', '9a.m.–8p.m.', '9a.m.–8p.m.', '9a.m.–8p.m.']",https://lh5.googleusercontent.com/p/AF1QipNEQm31Fa22aTzBZUv3h8S_ZIr89T4JcHtFyi9a=w408-h272-k-no
314,RJM Hair & Beauty,"9 Trinity St, Dublin",53.3437735,-6.2618106,(01) 617 7960,None,None,[],https://streetviewpixels-pa.googleapis.com/v1/thumbnail?panoid=AdVBFFvYAQ1cdvaZZxT6Vg&cb_client=search.gws-prod.gps&w=408&h=240&yaw=356.23267&pitch=0&thumbfov=100
315,Peter Mark Hairdressers Forestside Shopping Centre,"Forestside Shopping Centre, Belfast BT8 6FX, United Kingdom",54.5634623,-5.908904799999999,+44 28 9064 6490,petermark.ie,4.2,"['9a.m.–6p.m.', '1–6p.m.', '9a.m.–6p.m.', '9a.m.–8p.m.', '9a.m.–9p.m.', '9a.m.–9p.m.', '9a.m.–9p.m.']",https://lh5.googleusercontent.com/p/AF1QipM_nxgTccAoAhtBJAf2DyBhL0_4C0ADpGoNG3By=w408-h272-k-no
316,Sinead's Hair Salon,"Ennis Rd, Clare Commons, Ennis, Co. Clare",52.8175857,-8.9695576,(065) 708 7442,sineadshairandbeauty.com,None,[],https://streetviewpixels-pa.googleapis.com/v1/thumbnail?panoid=67dZ6OhsLUdWLbP7j8-Acw&cb_client=search.gws-prod.gps&w=408&h=240&yaw=329.34454&pitch=0&thumbfov=100
317,Irish Hairdressers Federation,"Suite 1 4th Floor Marine Point, Belview Port, Co. Waterford, X91 W0XW",52.2666625,-7.037745200000001,(01) 910 9070,irishhairfed.com,4.8,"['Closed', 'Closed', '9a.m.–1p.m.', '9a.m.–1p.m.', '9a.m.–1p.m.', '9a.m.–1p.m.', '9a.m.–1p.m.']",https://lh5.googleusercontent.com/p/AF1QipOBP2fnS2sYXcUfgCmtUYIRvH4IP0GsyTosMjrG=w408-h271-k-no
318,Body Talk,"Level 3, The Square Shopping Centre, Tallaght, Co. Dublin, D24 Y74C",53.2865928,-6.3717012,(01) 462 3303,bodytalk.ie,3.7,"['9a.m.–6p.m.', '12–6p.m.', '9:30a.m.–6p.m.', '9:30a.m.–6p.m.', '9:30a.m.–9p.m.', '9a.m.–9p.m.', '9a.m.–9p.m.']",https://lh5.googleusercontent.com/p/AF1QipNcEcliRZqE-l12l-avb9mSYREarrbxD6cY2WAA=w408-h544-k-no
319,Marbles Castletroy - Hugh Campbell Hair Group,"Unit 12 Dublin Rd, Castletroy, Co. Limerick",52.66645279999999,-8.5521122,(061) 331 633,hughcampbellhairgroup.com,4.6,"['9a.m.–5:30p.m.', 'Closed', '9a.m.–6p.m.', '9a.m.–6p.m.', '9a.m.–6p.m.', '9a.m.–8p.m.', '9a.m.–6p.m.']",https://lh5.googleusercontent.com/p/AF1QipPuLT4WrRjDWY_twMwUxrUZdNsKQaF5faTCRuEP=w408-h528-k-no
320,Salon Savers,"Unit 50 Canal Walk Parkwest Industrial Estate, Dublin 12",53.3315467,-6.359204699999999,(01) 620 5493,savers.ie,4.0,"['Closed', 'Closed', '9a.m.–5:30p.m.', '9a.m.–5:30p.m.', '9a.m.–5:30p.m.', '9a.m.–5:30p.m.', '9a.m.–5:30p.m.']",https://lh5.googleusercontent.com/p/AF1QipOvmmDXfCAxWSRV68LXMjtYXHCaboqYErhJH_4=w408-h306-k-no
321,The Hair and Beauty Company,None,None,None,,,4.5,"['Closed', 'Closed', '9a.m.–5:30p.m.', '9a.m.–5:30p.m.', '9a.m.–5:30p.m.', '9a.m.–5:30p.m.', '9a.m.–5:30p.m.']",https://lh5.googleusercontent.com/p/AF1QipPHlXsVP4CggnbiE9CKw3PD2EnFBdSY7X6Zct3U=w408-h272-k-no
322,Ebano Ballinteer,"Ballinteer Shopping Centre, Unit 1-2 Ballinteer Ave, Ballinteer, Dublin 16",53.2744999,-6.2593424,(01) 298 7921,ebano.ie,4.8,"['8a.m.–4p.m.', 'Closed', 'Closed', '9a.m.–9p.m.', '9a.m.–9p.m.', '9a.m.–9p.m.', '9a.m.–6p.m.']",https://lh5.googleusercontent.com/p/AF1QipO-VxnKjHyACDKsRU3B7B03jrWSSwLRIjTA3qDO=w408-h306-k-no
323,Salons.ie,"30 Wicklow St, Dublin, D02 Y037",53.3429404,-6.2613017,(01) 672 9281,salons.ie,None,[],https://streetviewpixels-pa.googleapis.com/v1/thumbnail?panoid=3-diZl8iTEuh186GhEJjOA&cb_client=search.gws-prod.gps&w=408&h=240&yaw=209.29358&pitch=0&thumbfov=100
324,Laura's Hair,"7 Mill St, Cahernamart, Westport, Co. Mayo, F28 FK52",53.7982844,-9.5223549,(098) 29618,laurashair.ie,5.0,"['8:30a.m.–4p.m.', 'Closed', 'Closed', 'Closed', '9:30a.m.–6p.m.', '9:30a.m.–7p.m.', '9:30a.m.–9p.m.']",https://streetviewpixels-pa.googleapis.com/v1/thumbnail?panoid=6vWa_TzHKxjs25IvJOujxg&cb_client=search.gws-prod.gps&w=408&h=240&yaw=144.49554&pitch=0&thumbfov=100
325,Chocolate Hair & Beauty Carrigaline,"Carrigaline Shopping Centre, Main St, Carrigaline Middle, Carrigaline, Co. Cork",51.81372289999999,-8.3925435,(021) 437 4056,chocolatehair.ie,4.6,"['8a.m.–4p.m.', 'Closed', 'Closed', '9:30a.m.–6p.m.', '9:30a.m.–6p.m.', '9:30a.m.–6p.m.', '9:30a.m.–8p.m.']",https://lh5.googleusercontent.com/p/AF1QipOYT2V97v5gUEdSIRmYVEWqSHT0nFUTEl4TCOCk=w408-h240-k-no-pi-0-ya40-ro-0-fo100
326,Total Haircare Rathfarnham Ltd,"1b Grange Road Retail Centre, Rathfarnham, Dublin",53.2770854,-6.264906000000001,(01) 493 9774,totalhaircare.ie,4.9,"['9a.m.–6p.m.', 'Closed', '9:30a.m.–5p.m.', '9a.m.–6p.m.', '9a.m.–9p.m.', '9a.m.–9p.m.', '9a.m.–8p.m.']",https://lh5.googleusercontent.com/p/AF1QipNFmFVKvbMFF5sl1X41msgL5ALQjHx_7hnDzSxa=w425-h240-k-no
327,Reeb.,"129 Oliver Plunkett St, Centre, Cork, T12 XK6F",51.8984906,-8.468347099999999,(021) 239 0444,reeb.ie,4.9,"['7a.m.–8p.m.', 'Closed', '8a.m.–9p.m.', '8a.m.–9p.m.', '8a.m.–9p.m.', '8a.m.–9p.m.', '8a.m.–9p.m.']",https://lh5.googleusercontent.com/p/AF1QipNjxc9Qbxs5nuOSB0UbdppJXmJl2OYVKojxUPR2=w408-h306-k-no
328,Achill island hair salon,"Davitt quarter The sound Achill Island, Co. Mayo, F28 W9N7",53.9304313,-9.9256381,(098) 20627,None,None,[],https://streetviewpixels-pa.googleapis.com/v1/thumbnail?panoid=QOcPndjqY7azutf8qyoCeQ&cb_client=search.gws-prod.gps&w=408&h=240&yaw=147.93738&pitch=0&thumbfov=100
329,Prestige Hair Design,"Woodland View, Poulacurry South, Glanmire Village, Co. Cork",51.9187687,-8.3966149,(021) 482 3704,prestigehairdesign.ie,4.9,"['8a.m.–8p.m.', 'Closed', 'Closed', '8a.m.–8p.m.', '8a.m.–8p.m.', '8a.m.–8p.m.', '8a.m.–8p.m.']",https://streetviewpixels-pa.googleapis.com/v1/thumbnail?panoid=QZY_LgAID_y9y62ltkbsCg&cb_client=search.gws-prod.gps&w=408&h=240&yaw=270.96555&pitch=0&thumbfov=100
330,Terrisales Salon Supplies,None,None,None,(01) 451 6657,terrisales.ie,4.1,"['9a.m.–6p.m.', '11a.m.–6p.m.', '9a.m.–6p.m.', '9a.m.–6p.m.', '9a.m.–6p.m.', '9a.m.–8p.m.', '9a.m.–6p.m.']",https://lh5.googleusercontent.com/p/AF1QipM-vMjU7paugeIThL5wuMaaao5Q_PzhO4rj2FX3=w408-h306-k-no
331,Zenith Hairdressing - Galway City,None,None,None,(091) 533 680,zenithhairdressing.ie,4.9,"['9a.m.–5:30p.m.', 'Closed', '9a.m.–6p.m.', '9a.m.–6p.m.', '9a.m.–6p.m.', '9a.m.–8p.m.', '9a.m.–8p.m.']",https://lh5.googleusercontent.com/p/AF1QipO7NS6zONkxXfECTamU1u4IsvPZx8P3KYsRL5fL=w408-h408-k-no
332,The Hair & Beauty Company,None,None,None,(090) 649 8604,thehairandbeautycompany.ie,4.8,"['Closed', 'Closed', '9:30a.m.–5:30p.m.', '9:30a.m.–5:30p.m.', '9:30a.m.–5:30p.m.', '9:30a.m.–5:30p.m.', '9:30a.m.–5:30p.m.']",https://lh5.googleusercontent.com/p/AF1QipOE5WSw7fGaxyEdSNX08s6Jqk6s9iL0jpsYYq8B=w408-h272-k-no
333,Mack,"Aiden St, Kiltimagh, Co. Mayo",53.8522323,-8.9967585,(094) 938 2996,mack.ie,4.8,"['8a.m.–6p.m.', 'Closed', 'Closed', '8a.m.–6p.m.', '8a.m.–6p.m.', '8a.m.–6p.m.', '8a.m.–6p.m.']",https://streetviewpixels-pa.googleapis.com/v1/thumbnail?panoid=R_yvMqWaiYwkRu_fLNbGMw&cb_client=search.gws-prod.gps&w=408&h=240&yaw=112.884796&pitch=0&thumbfov=100
334,Velvet Hairdressing,"Unit 5b, Seapoint, Barna, Co. Galway, H91 AK84",53.2497686,-9.1510822,(091) 596 900,velvet.ie,4.7,"['9a.m.–5p.m.', 'Closed', 'Closed', '9:15a.m.–5:30p.m.', '9:15a.m.–7:30p.m.', '9:15a.m.–5:30p.m.', '9:15a.m.–5:30p.m.']",https://lh5.googleusercontent.com/p/AF1QipPAbKTaBVCO2xaEdeBWxBWlMew9NTluyxFRulp9=w426-h240-k-no
335,Chocolate Hair & Beauty Douglas,"Units 2/3 Broadale Commercial Centre, Maryborough Hill, Douglas, Cork",51.864395,-8.4124141,(021) 489 5089,chocolatehair.ie,4.5,"['8a.m.–4p.m.', 'Closed', 'Closed', '9:30a.m.–6p.m.', '9:30a.m.–6p.m.', '9a.m.–6p.m.', '9:30a.m.–8p.m.']",https://lh5.googleusercontent.com/p/AF1QipMVxtjxkrchFuOkHcHBSVbRuxbYUgcGqiWV0uR6=w408-h306-k-no
336,Tiger Lily Beauty Salon & Laser Clinic,"Eaton House, 5 Main St, Rathcoole, Co. Dublin, D24 WR28",53.2813962,-6.4705789,(01) 401 3634,tigerlilybeautysalon.ie,4.9,"['9a.m.–5p.m.', 'Closed', 'Closed', '9:30a.m.–6p.m.', '9:30a.m.–6p.m.', '9:30a.m.–9p.m.', '9:30a.m.–9p.m.']",https://lh5.googleusercontent.com/p/AF1QipNSYWpjCPXhGtDWMIMCAGGxcDq6KY1hT-6Qj6yF=w408-h544-k-no
337,Fifty Shades nails & beauty,"Main St, Clondalkin, Co. Dublin",53.3207905,-6.393801799999999,087 462 4795,fiftyshadesdublin.eu,4.6,"['9a.m.–4p.m.', 'Closed', '9a.m.–6p.m.', '9a.m.–7p.m.', '9a.m.–7p.m.', '9a.m.–8p.m.', '9a.m.–8p.m.']",https://lh5.googleusercontent.com/p/AF1QipPQuPoFWDyNaeEoM0ofnjryAMzuliTrHXc1gXIe=w408-h544-k-no
338,Barnardos,"24 St. Dominic's Road, Tallaght, Dublin",53.2850365,-6.354178099999999,None,None,5.0,[],https://streetviewpixels-pa.googleapis.com/v1/thumbnail?panoid=xHZH-ERWeZCgxnjjGV1Ktw&cb_client=search.gws-prod.gps&w=408&h=240&yaw=195.1362&pitch=0&thumbfov=100
339,Laser Hair Removal Ireland,None,None,None,(01) 401 3634,laserhairremovalireland.ie,None,"['10a.m.–6p.m.', 'Closed', '9:30a.m.–6p.m.', '9:30a.m.–6p.m.', '9:30a.m.–9p.m.', '9:30a.m.–9p.m.', '9:30a.m.–9p.m.']",https://streetviewpixels-pa.googleapis.com/v1/thumbnail?panoid=dxFIvWgNg7yBO67lFjavpg&cb_client=search.gws-prod.gps&w=408&h=240&yaw=352.99677&pitch=0&thumbfov=100
340,Flair Hair & Beauty Supplies,None,None,None,(01) 671 3239,flair.ie,4.4,"['Closed', 'Closed', '9a.m.–8p.m.', '9a.m.–5:30p.m.', '9a.m.–5:30p.m.', '9a.m.–5:30p.m.', '9a.m.–4p.m.']",https://lh5.googleusercontent.com/p/AF1QipNqsb0RA0zHEoFDp3jL_qHZG1Hach-S3GNgjBGk=w480-h240-k-no
341,Capital Hair & Beauty,None,None,None,,,4.6,"['Closed', 'Closed', '9a.m.–5p.m.', '9a.m.–5p.m.', '9a.m.–5p.m.', '9a.m.–5p.m.', '9a.m.–5p.m.']",https://lh5.googleusercontent.com/p/AF1QipN0Fh8RM4fIx_N8vr1jYe0MmdABrafBOha9Nz7W=w408-h304-k-no
342,Sholin Beauty,"Unit 3, Courthouse Square, Westpark gate, Old Bawn Rd, Dublin 24",53.2874318,-6.3623894,(01) 414 0498,None,4.9,"['8a.m.–6p.m.', 'Closed', 'Closed', '8a.m.–6p.m.', '8a.m.–6p.m.', '8a.m.–6p.m.', '8a.m.–6p.m.']",https://lh5.googleusercontent.com/p/AF1QipNkaEmx2o5tVuPceCbcA1ZsNLKUoNFrpNuYw73B=w408-h305-k-no
343,Hairlough Barbers,"U1 Old Lock & Key Pub, Ninth Lock Rd, Dublin, D22 C820",43.8052806,-70.8085929,(01) 457 6127,hairloughbarbers.ie,4.8,"['9a.m.–5:30p.m.', 'Closed', '9:30a.m.–6p.m.', '9:30a.m.–6p.m.', '9:30a.m.–6p.m.', '9:30a.m.–7:30p.m.', '9:30a.m.–7:30p.m.']",https://lh5.googleusercontent.com/p/AF1QipOQ7PXknH7aoJpzLFCIZPAWI0-4EEf3NS_qmicr=w427-h240-k-no
344,Designer Cuts,None,None,None,089 961 8550,designercuts.ie,4.7,"['10a.m.–7:30p.m.', '10a.m.–7a.m.', 'Closed', '11a.m.–7p.m.', '10a.m.–7p.m.', '10a.m.–7p.m.', '10a.m.–7:30p.m.']",https://lh5.googleusercontent.com/p/AF1QipNOHmwZ-tkIDXwecjOonOJA4eojZjwear672adf=w427-h240-k-no
345,Dublin Skin and Laser Clinic,None,None,None,(01) 458 5667,dublinskinandlaserclinic.ie,4.9,"['10a.m.–4p.m.', 'Closed', 'Closed', '10a.m.–6p.m.', '10a.m.–6p.m.', '10a.m.–8p.m.', '10a.m.–8p.m.']",https://lh5.googleusercontent.com/p/AF1QipMpcAveGVn-sJroCU8nE_u36GOfmY5ThRiC5Z4=w426-h240-k-no
346,Treatwell IE,"70 Sir John Rogerson's Quay, Dublin Docklands, Dublin 2, D02 R296",53.3454308,-6.2349441,None,treatwell.ie,2.7,"['Open 24 hours', 'Open 24 hours', 'Open 24 hours', 'Open 24 hours', 'Open 24 hours', 'Open 24 hours', 'Open 24 hours']",https://lh5.googleusercontent.com/p/AF1QipO4i9WJtov-vHNU0LjujyoXuuihZ92fFqey24hV=w442-h240-k-no
347,Terrisales Salon Supplies,None,None,None,(01) 811 5831,terrisales.ie,4.0,"['9a.m.–6p.m.', '11a.m.–6p.m.', '9a.m.–6p.m.', '9a.m.–6p.m.', '9a.m.–6p.m.', '9a.m.–8p.m.', '9a.m.–6p.m.']",https://lh5.googleusercontent.com/p/AF1QipMxHks1sp6ySwm2grZYzhRJcCGEw3FeP6F1L7zC=w426-h240-k-no
348,Aspens Beauty and Holistic College,"10 Glenlyon Grove, Bóthar Bhaile Uí Chuilinn, Knocklyon, Co. Dublin, D16 T1W0",53.2774304,-6.3301668,086 827 9001,aspensbeautycollege.ie,4.5,"['10a.m.–5p.m.', 'Closed', '11a.m.–7p.m.', '11a.m.–7p.m.', '11a.m.–7p.m.', '11a.m.–7p.m.', '11a.m.–7p.m.']",https://lh5.googleusercontent.com/p/AF1QipPmCdsY49fssFP9QksaeJUmecHH1MFZjqP6cGpB=w408-h544-k-no
349,Ailesbury Hair Loss Clinic,None,None,None,(01) 676 0969,ailesburyhairclinic.ie,4.9,"['Closed', 'Closed', '9a.m.–6p.m.', '9a.m.–6p.m.', '9a.m.–6p.m.', '9a.m.–6p.m.', '9a.m.–6p.m.']",https://lh5.googleusercontent.com/p/AF1QipNR5nwb76LBgzL3AxGfv3UqR8gvQLgsWOQymYXx=w408-h271-k-no
350,USA Nail And Beauty,"Bóthar an tSeanbhábhúin, Tamhlacht, Dublin 24",53.2865001,-6.3618595,(01) 451 5686,None,3.9,"['9:30a.m.–7p.m.', '11a.m.–5:30p.m.', '9:30a.m.–7a.m.', '9:30a.m.–7p.m.', '9:30a.m.–7p.m.', '9:30a.m.–7:30p.m.', '9:30a.m.–7:30p.m.']",https://lh5.googleusercontent.com/p/AF1QipNvlWjJXWZ-ZO59Qhd0fg3CAgbHXCVilAUisEIo=w408-h544-k-no
351,Essensuals,"26 William St S, Dublin 2",53.3416557,-6.2630439,(01) 633 7712,toniandguy.ie,None,"['9a.m.–6p.m.', 'Closed', '9:30a.m.–6p.m.', '9:30a.m.–6p.m.', '9:30a.m.–8p.m.', '9:30a.m.–8p.m.', '9:30a.m.–8p.m.']",https://streetviewpixels-pa.googleapis.com/v1/thumbnail?panoid=0jQYreWgbARpPItoZjoWpA&cb_client=search.gws-prod.gps&w=408&h=240&yaw=322.21664&pitch=0&thumbfov=100
352,Salon Shop Hair & Beauty Supplies,None,None,None,(021) 242 8033,salonshop.ie,4.2,"['Closed', '1–5p.m.', '9a.m.–5p.m.', '9a.m.–5p.m.', '9a.m.–5p.m.', '9a.m.–5p.m.', '9a.m.–5p.m.']",https://lh5.googleusercontent.com/p/AF1QipMNkShJak_o0sg0SNDMI6Kqst4FoqFMnmJCzIw=w432-h240-k-no
353,Kelley's Hair Salon,"Diamond's Car Park, Unit 4, Market Ln, Carrowcushlaun West, Ballina, Co. Mayo, F26 P6E8",54.1139685,-9.1568543,(096) 71833,None,4.9,"['9a.m.–5p.m.', 'Closed', 'Closed', '9a.m.–6p.m.', '9a.m.–6p.m.', '9a.m.–8p.m.', '9a.m.–8p.m.']",https://lh5.googleusercontent.com/p/AF1QipM5moRayz7ba2SID_DQv3KOJpgyV-nhfUxQ4EAo=w408-h257-k-no
354,Thérapie Clinic,None,None,None,1890 650 750,therapieclinic.com,5.0,"['9a.m.–6p.m.', '11a.m.–6p.m.', '9a.m.–6p.m.', '9a.m.–6p.m.', '9a.m.–9p.m.', '9a.m.–9p.m.', '9a.m.–9p.m.']",https://lh5.googleusercontent.com/p/AF1QipPGDhM5rRbdFepxVlFVK61yf41H92tVYyIpkOG-=w408-h544-k-no
355,Vip Nails,"Unit 6,block 7,tallaght, High St, Dublin 24",53.2879855,-6.3653753,(01) 598 7682,None,4.0,[],https://lh5.googleusercontent.com/p/AF1QipO5OitEKygu2jSZYYIkl68MVboYl7O45R5omgms=w408-h306-k-no
356,THE GRAFTON BARBER - Arnotts,"Arnotts Department Store, Abbey St, North City, Dublin 1",53.3491377,-6.2631308,(01) 805 0559,graftonbarbers.com,4.1,"['9a.m.–6p.m.', '11a.m.–6p.m.', '10a.m.–6:30p.m.', '10a.m.–6:30p.m.', '10a.m.–6:30p.m.', '10a.m.–7p.m.', '10a.m.–6:30p.m.']",https://lh5.googleusercontent.com/p/AF1QipOqrChyGz1Wc-Kzd2GPglsghIOZM2FMhFNbm3Fu=w408-h272-k-no
357,Salon Services,None,None,None,(01) 460 9960,salon-services.com,4.2,"['Closed', '12–4p.m.', '8:30a.m.–5:30p.m.', '8:30a.m.–5:30p.m.', '8:30a.m.–5:30p.m.', '8:30a.m.–5:30p.m.', '8:30a.m.–5:30p.m.']",https://lh5.googleusercontent.com/p/AF1QipNHVlDo5AzJh1MCnFN3dF6od98kH_JXecHnYMpp=w408-h523-k-no
358,Knights of the Green,"106, Stephens Green Shopping Centre, Dublin 2",53.340004,-6.2622729,(01) 478 0283,knightsbarbers.com,4.5,"['8:30a.m.–6p.m.', '11a.m.–6p.m.', '9a.m.–6p.m.', '9a.m.–6p.m.', '9a.m.–6p.m.', '9a.m.–7p.m.', '9a.m.–7p.m.']",https://lh5.googleusercontent.com/p/AF1QipMRo3B_59GCYLr-ntKgM4bfPdO45AzZGXvGOtxD=w408-h383-k-no
359,Capital Hair & Beauty,None,None,None,(01) 408 9022,capitalhairandbeauty.ie,4.3,"['Closed', '1–5p.m.', '9a.m.–8p.m.', '9a.m.–5p.m.', '9a.m.–5p.m.', '9a.m.–8p.m.', '9a.m.–5p.m.']",https://lh5.googleusercontent.com/p/AF1QipOd8w4BGhD2gIbS77YTYztVFl6rWr5KvDSl20EF=w408-h306-k-no
360,Hive Salon Software,"3015, Synergy Global, National Digital Park, Lake Dr, Citywest, Dublin",53.2902885,-6.4232628,(01) 901 0342,hivesalonsoftware.com,3.7,"['Closed', 'Closed', '9a.m.–5:30p.m.', '9a.m.–5:30p.m.', '9a.m.–5:30p.m.', '9a.m.–5:30p.m.', '9a.m.–5:30p.m.']",https://streetviewpixels-pa.googleapis.com/v1/thumbnail?panoid=FYcvGkV0dI1iSBuhtTUjBw&cb_client=search.gws-prod.gps&w=408&h=240&yaw=70.09529&pitch=0&thumbfov=100
361,Hair Design & Beauty Salon,None,None,None,,None,3.6,[],https://streetviewpixels-pa.googleapis.com/v1/thumbnail?panoid=C6oYwPmUj0FJ4A4rnY7LUQ&cb_client=search.gws-prod.gps&w=408&h=240&yaw=310.36832&pitch=0&thumbfov=100
362,Magnetic Bobbie Nails Academy-Athlone Ireland,"Unit 22 Irishtown, Athlone, Co. Westmeath, N37 R5F9",53.4222488,-7.9338287,086 073 7181,bobbienails.simplybook.it,5.0,"['8a.m.–7:30p.m.', 'Closed', 'Closed', '8a.m.–7:30p.m.', '8a.m.–7:30p.m.', '8a.m.–7:30p.m.', '8a.m.–7:30p.m.']",https://lh5.googleusercontent.com/p/AF1QipNrpy7WzmhKs2pFxbCm2g5jIs7_0wBscBVx7NC2=w426-h240-k-no
363,Rob's Barber Shop,"Priors Gate, Greenhills Rd, extension, Tallaght, Co. Dublin",53.28725069999999,-6.3558729,087 419 7932,business.site,5.0,"['2–6p.m.', 'Closed', 'Closed', '2–8p.m.', '2–8p.m.', '2–8p.m.', '2–8p.m.']",https://lh5.googleusercontent.com/p/AF1QipNaX0lI2w__aWQurG5SUskrdQXQFFNIJnSxbPK8=w427-h240-k-no
364,Butterfly Effect Permanent Makeup Dublin Ireland,None,None,None,089 475 1746,bepermanentmakeup.ie,4.6,"['9a.m.–5p.m.', 'Closed', '9a.m.–7p.m.', '9a.m.–7p.m.', '9a.m.–7p.m.', '9a.m.–8p.m.', '9a.m.–8p.m.']",https://lh5.googleusercontent.com/p/AF1QipOu6uqTSJG636bD2p0dz6dueJyYcBBF5hZsCgG5=w411-h240-k-no
365,Turkish Barbers,"The Plaza Complex, Unit 1, Belgard Rd, Tallaght, Dublin, D24 P9CC",53.2859328,-6.3673799,(01) 458 5563,business.site,4.7,"['9:30a.m.–7p.m.', '11a.m.–6p.m.', '9:30a.m.–7p.m.', '9:30a.m.–7p.m.', '9:30a.m.–7p.m.', '9:30a.m.–7p.m.', '9:30a.m.–7p.m.']",https://streetviewpixels-pa.googleapis.com/v1/thumbnail?panoid=1nnVmNtE5VxPE1rUaMOIsA&cb_client=search.gws-prod.gps&w=408&h=240&yaw=196.29819&pitch=0&thumbfov=100
366,Beauty Care Dublin,None,None,None,083 398 5066,beautycaredublin.com,None,[],https://streetviewpixels-pa.googleapis.com/v1/thumbnail?panoid=8jVv0qTqvrn8OuuiA-uRoA&cb_client=search.gws-prod.gps&w=408&h=240&yaw=107.22561&pitch=0&thumbfov=100
367,StyleParlor Salon Supplies,"Unit 4 Waterford Business park, Cork road, Waterford",52.246367,-7.158225,1890 123 123,styleparlor.ie,4.7,"['Closed', 'Closed', '9a.m.–6p.m.', '9a.m.–6p.m.', '9a.m.–7p.m.', '9a.m.–6p.m.', '9a.m.–5p.m.']",https://lh5.googleusercontent.com/p/AF1QipPqXCWoKEim1lKSXsUMv8-5_na9fbqkbo_1baEv=w408-h240-k-no-pi-0-ya26.768488-ro-0-fo100
368,Irish Hairdressers Federation,"33 St Patrick's St, Centre, Cork",51.8985193,-8.4720702,(056) 883 3808,irishhairfed.com,None,[],https://streetviewpixels-pa.googleapis.com/v1/thumbnail?panoid=xzhxtT3LKWN3p9RAZS7qug&cb_client=search.gws-prod.gps&w=408&h=240&yaw=61.625328&pitch=0&thumbfov=100
